<?xml version="1.0" encoding="UTF-8"?>
<kml xmlns="http://www.opengis.net/kml/2.2">
  <Document>
    <name>goithau-48</name>
    <Style id="icon-1899-DB4436-nodesc-normal">
      <IconStyle>
        <color>ff3644db</color>
        <scale>1</scale>
        <Icon>
          <href>https://www.gstatic.com/mapspro/images/stock/503-wht-blank_maps.png</href>
        </Icon>
        <hotSpot x="32" xunits="pixels" y="64" yunits="insetPixels"/>
      </IconStyle>
      <LabelStyle>
        <scale>0</scale>
      </LabelStyle>
      <BalloonStyle>
        <text><![CDATA[<h3>$[name]</h3>]]></text>
      </BalloonStyle>
    </Style>
    <Style id="icon-1899-DB4436-nodesc-highlight">
      <IconStyle>
        <color>ff3644db</color>
        <scale>1</scale>
        <Icon>
          <href>https://www.gstatic.com/mapspro/images/stock/503-wht-blank_maps.png</href>
        </Icon>
        <hotSpot x="32" xunits="pixels" y="64" yunits="insetPixels"/>
      </IconStyle>
      <LabelStyle>
        <scale>1</scale>
      </LabelStyle>
      <BalloonStyle>
        <text><![CDATA[<h3>$[name]</h3>]]></text>
      </BalloonStyle>
    </Style>
    <StyleMap id="icon-1899-DB4436-nodesc">
      <Pair>
        <key>normal</key>
        <styleUrl>#icon-1899-DB4436-nodesc-normal</styleUrl>
      </Pair>
      <Pair>
        <key>highlight</key>
        <styleUrl>#icon-1899-DB4436-nodesc-highlight</styleUrl>
      </Pair>
    </StyleMap>
    <Style id="line-1267FF-5000-nodesc-normal">
      <LineStyle>
        <color>ffff6712</color>
        <width>5</width>
      </LineStyle>
      <BalloonStyle>
        <text><![CDATA[<h3>$[name]</h3>]]></text>
      </BalloonStyle>
    </Style>
    <Style id="line-1267FF-5000-nodesc-highlight">
      <LineStyle>
        <color>ffff6712</color>
        <width>7.5</width>
      </LineStyle>
      <BalloonStyle>
        <text><![CDATA[<h3>$[name]</h3>]]></text>
      </BalloonStyle>
    </Style>
    <StyleMap id="line-1267FF-5000-nodesc">
      <Pair>
        <key>normal</key>
        <styleUrl>#line-1267FF-5000-nodesc-normal</styleUrl>
      </Pair>
      <Pair>
        <key>highlight</key>
        <styleUrl>#line-1267FF-5000-nodesc-highlight</styleUrl>
      </Pair>
    </StyleMap>
    <Placemark>
      <name>goithau-48</name>
      <styleUrl>#line-1267FF-5000-nodesc</styleUrl>
      <LineString>
        <tessellate>1</tessellate>
        <coordinates>
          107.83484,16.144,0
          107.83495,16.14404,0
          107.83526,16.14412,0
          107.83551,16.14414,0
          107.8358,16.14414,0
          107.83616,16.14412,0
          107.83651,16.14405,0
          107.83674,16.14395,0
          107.8368,16.14393,0
          107.83707,16.14378,0
          107.83716,16.14374,0
          107.83749,16.14346,0
          107.83855,16.14234,0
          107.83907,16.14192,0
          107.83909,16.14191,0
          107.8391,16.1419,0
          107.83938,16.14172,0
          107.83957,16.14164,0
          107.83983,16.14156,0
          107.84004,16.14151,0
          107.84026,16.14147,0
          107.84091,16.14148,0
          107.84183,16.14155,0
          107.84237,16.14162,0
          107.84241,16.14162,0
          107.84254,16.14164,0
          107.84255,16.14164,0
          107.843,16.14171,0
          107.84347,16.14176,0
          107.84349,16.14176,0
          107.84507,16.14194,0
          107.84535,16.14198,0
          107.84564,16.14201,0
          107.84598,16.14202,0
          107.84622,16.14201,0
          107.84627,16.142,0
          107.84652,16.14197,0
          107.84681,16.1419,0
          107.84714,16.1418,0
          107.84716,16.1418,0
          107.84718,16.14179,0
          107.8476,16.14165,0
          107.84761,16.14165,0
          107.84778,16.1416,0
          107.84815,16.14151,0
          107.8485,16.1414,0
          107.84851,16.1414,0
          107.84904,16.14125,0
          107.84905,16.14125,0
          107.84908,16.14124,0
          107.84944,16.14117,0
          107.85007,16.14109,0
          107.85016,16.14109,0
          107.8504,16.14106,0
          107.85125,16.14107,0
          107.85175,16.14112,0
          107.85183,16.14112,0
          107.85186,16.14113,0
          107.85233,16.1412,0
          107.85301,16.14133,0
          107.85304,16.14133,0
          107.85408,16.14153,0
          107.8543,16.14158,0
          107.85432,16.14158,0
          107.85448,16.14162,0
          107.85488,16.1417,0
          107.85504,16.14174,0
          107.85628,16.14199,0
          107.85631,16.142,0
          107.85641,16.14202,0
          107.85656,16.14204,0
          107.85711,16.14214,0
          107.85719,16.14216,0
          107.85723,16.14216,0
          107.85791,16.14232,0
          107.85843,16.14238,0
          107.85882,16.14239,0
          107.85889,16.14238,0
          107.85908,16.14237,0
          107.85934,16.14233,0
          107.85979,16.14224,0
          107.85981,16.14223,0
          107.85982,16.14223,0
          107.86025,16.14208,0
          107.86043,16.142,0
          107.8608,16.14179,0
          107.86088,16.14175,0
          107.86136,16.14139,0
          107.86156,16.14121,0
          107.86157,16.14121,0
          107.86158,16.14119,0
          107.86169,16.14109,0
          107.86172,16.14107,0
          107.86197,16.14077,0
          107.862,16.14074,0
          107.8621,16.1406,0
          107.86235,16.14022,0
          107.86266,16.13967,0
          107.86268,16.13962,0
          107.86283,16.13934,0
          107.86284,16.13931,0
          107.86285,16.13931,0
          107.86288,16.13925,0
          107.8629,16.13919,0
          107.86291,16.13918,0
          107.86321,16.13861,0
          107.86325,16.13855,0
          107.86331,16.13843,0
          107.86335,16.13837,0
          107.86341,16.13825,0
          107.86343,16.13823,0
          107.86351,16.13808,0
          107.86379,16.13761,0
          107.8639,16.1374,0
          107.86393,16.13733,0
          107.86401,16.13717,0
          107.86415,16.13692,0
          107.86415,16.13691,0
          107.86431,16.13659,0
          107.86432,16.13659,0
          107.86434,16.13654,0
          107.86435,16.13653,0
          107.86454,16.13625,0
          107.8647,16.13607,0
          107.86502,16.13581,0
          107.86529,16.13568,0
          107.86541,16.13564,0
          107.86561,16.13559,0
          107.86582,16.13555,0
          107.86621,16.13552,0
          107.86791,16.13553,0
          107.86844,16.13556,0
          107.86863,16.13556,0
          107.86906,16.13554,0
          107.86925,16.13554,0
          107.86938,16.13552,0
          107.86939,16.13552,0
          107.86958,16.13549,0
          107.86974,16.13545,0
          107.86993,16.13539,0
          107.87043,16.13516,0
          107.87046,16.13515,0
          107.87082,16.13496,0
          107.87092,16.1349,0
          107.87099,16.13487,0
          107.87156,16.13457,0
          107.87173,16.1345,0
          107.87209,16.13433,0
          107.87233,16.13423,0
          107.87256,16.13411,0
          107.87271,16.13404,0
          107.87272,16.13403,0
          107.87307,16.1339,0
          107.87336,16.13376,0
          107.87359,16.13369,0
          107.87399,16.13353,0
          107.87428,16.1334,0
          107.87429,16.1334,0
          107.87445,16.13333,0
          107.87446,16.13332,0
          107.87462,16.13326,0
          107.87521,16.13301,0
          107.87564,16.13281,0
          107.87566,16.13281,0
          107.8762,16.13257,0
          107.87667,16.13234,0
          107.87813,16.13152,0
          107.87829,16.13144,0
          107.87934,16.13086,0
          107.88013,16.1304,0
          107.88014,16.1304,0
          107.88071,16.13007,0
          107.88078,16.13004,0
          107.88079,16.13003,0
          107.88098,16.12992,0
          107.88128,16.1298,0
          107.88129,16.1298,0
          107.88144,16.12974,0
          107.88146,16.12974,0
          107.88146,16.12973,0
          107.88191,16.12958,0
          107.88198,16.12955,0
          107.88199,16.12955,0
          107.88237,16.12942,0
          107.8828,16.1293,0
          107.88287,16.12927,0
          107.88288,16.12927,0
          107.88297,16.12925,0
          107.88298,16.12924,0
          107.88306,16.12923,0
          107.88316,16.1292,0
          107.88338,16.12916,0
          107.88361,16.12913,0
          107.88361,16.12912,0
          107.88379,16.1291,0
          107.88382,16.1291,0
          107.8839,16.12909,0
          107.88399,16.12909,0
          107.88426,16.12907,0
          107.88455,16.12907,0
          107.88465,16.12908,0
          107.88495,16.12908,0
          107.8854,16.12912,0
          107.88548,16.12912,0
          107.88559,16.12913,0
          107.88562,16.12913,0
          107.88599,16.12918,0
          107.8869,16.12939,0
          107.88712,16.12945,0
          107.88713,16.12945,0
          107.88814,16.12973,0
          107.88875,16.12984,0
          107.88887,16.12984,0
          107.88894,16.12983,0
          107.88909,16.12983,0
          107.88913,16.12982,0
          107.88914,16.12982,0
          107.8894,16.12978,0
          107.88967,16.12969,0
          107.88968,16.12968,0
          107.88985,16.12961,0
          107.89,16.12953,0
          107.89001,16.12952,0
          107.89018,16.12942,0
          107.89045,16.12921,0
          107.89045,16.1292,0
          107.89046,16.1292,0
          107.89053,16.12913,0
          107.89091,16.12879,0
          107.89123,16.12853,0
          107.89126,16.1285,0
          107.89143,16.12836,0
          107.89145,16.12835,0
          107.89147,16.12833,0
          107.89152,16.1283,0
          107.89157,16.12825,0
          107.89166,16.12818,0
          107.89172,16.12814,0
          107.89175,16.12811,0
          107.89192,16.128,0
          107.89212,16.12785,0
          107.89238,16.12769,0
          107.89253,16.12758,0
          107.89258,16.12756,0
          107.89264,16.12752,0
          107.89269,16.12748,0
          107.89273,16.12746,0
          107.89279,16.12742,0
          107.89284,16.12738,0
          107.89285,16.12738,0
          107.89289,16.12735,0
          107.89341,16.12702,0
          107.89346,16.12698,0
          107.89403,16.1266,0
          107.89407,16.12656,0
          107.89412,16.12653,0
          107.89441,16.12631,0
          107.89446,16.12626,0
          107.89472,16.12604,0
          107.89504,16.12572,0
          107.89507,16.12567,0
          107.89562,16.12495,0
          107.89566,16.12489,0
          107.89613,16.12432,0
          107.89617,16.12428,0
          107.8962,16.12424,0
          107.89648,16.12392,0
          107.89687,16.12357,0
          107.8974,16.12318,0
          107.89744,16.12316,0
          107.89765,16.12301,0
          107.89766,16.12301,0
          107.89811,16.12276,0
          107.89855,16.12258,0
          107.89859,16.12256,0
          107.89895,16.12245,0
          107.89897,16.12244,0
          107.89958,16.1223,0
          107.89963,16.1223,0
          107.90015,16.12222,0
          107.90018,16.12222,0
          107.90023,16.12221,0
          107.90055,16.12217,0
          107.9006,16.12216,0
          107.90092,16.12212,0
          107.90166,16.122,0
          107.90184,16.12196,0
          107.90225,16.12189,0
          107.90333,16.12175,0
          107.90356,16.12171,0
          107.90361,16.12171,0
          107.90364,16.1217,0
          107.9037,16.1217,0
          107.90498,16.12153,0
          107.90499,16.12152,0
          107.90536,16.12145,0
          107.90554,16.12139,0
          107.90567,16.12136,0
          107.90861,16.12022,0
          107.9092,16.12002,0
          107.90993,16.11975,0
          107.9102,16.11967,0
          107.91022,16.11967,0
          107.91044,16.11962,0
          107.91067,16.11959,0
          107.91068,16.11958,0
          107.91094,16.11956,0
          107.91243,16.11952,0
          107.91255,16.11951,0
          107.91269,16.11951,0
          107.91292,16.11949,0
          107.913,16.11949,0
          107.9138,16.11944,0
          107.91407,16.1194,0
          107.91411,16.11939,0
          107.91412,16.11939,0
          107.91422,16.11936,0
          107.91443,16.11932,0
          107.91476,16.11921,0
          107.91551,16.11889,0
          107.91552,16.11889,0
          107.91619,16.11859,0
          107.9162,16.11859,0
          107.91653,16.11844,0
          107.91654,16.11844,0
          107.91673,16.11835,0
          107.91688,16.11829,0
          107.91748,16.11802,0
          107.91756,16.118,0
          107.91757,16.11799,0
          107.91775,16.11793,0
          107.91808,16.11784,0
          107.91846,16.11777,0
          107.91847,16.11777,0
          107.91865,16.11774,0
          107.91865,16.11773,0
          107.91913,16.11769,0
          107.9192,16.11768,0
          107.91962,16.11767,0
          107.91989,16.11769,0
          107.91995,16.1177,0
          107.92051,16.11775,0
          107.92102,16.11787,0
          107.92116,16.11792,0
          107.92123,16.11795,0
          107.92124,16.11795,0
          107.92177,16.11814,0
          107.92228,16.11834,0
          107.92229,16.11834,0
          107.92267,16.11849,0
          107.92324,16.11876,0
          107.92345,16.11889,0
          107.92346,16.11889,0
          107.92409,16.11928,0
          107.92418,16.11933,0
          107.92418,16.11934,0
          107.92454,16.11959,0
          107.92455,16.1196,0
          107.92498,16.11993,0
          107.92545,16.12039,0
          107.92549,16.12045,0
          107.9255,16.12046,0
          107.92567,16.12068,0
          107.92571,16.12074,0
          107.92604,16.12112,0
          107.92617,16.12122,0
          107.92632,16.12131,0
          107.92656,16.12143,0
          107.92677,16.12151,0
          107.9271,16.12161,0
          107.92727,16.12164,0
          107.92728,16.12165,0
          107.92764,16.12171,0
          107.92764,16.12172,0
          107.92819,16.12182,0
          107.9282,16.12182,0
          107.9283,16.12184,0
          107.92837,16.12186,0
          107.929,16.12198,0
          107.92903,16.12199,0
          107.92911,16.122,0
          107.93039,16.12225,0
          107.9304,16.12225,0
          107.93058,16.12229,0
          107.93066,16.1223,0
          107.93131,16.12246,0
          107.93148,16.12251,0
          107.93149,16.12251,0
          107.93161,16.12254,0
          107.93185,16.12262,0
          107.93219,16.12272,0
          107.9322,16.12273,0
          107.93237,16.12278,0
          107.93238,16.12278,0
          107.93247,16.12281,0
          107.93248,16.12281,0
          107.93255,16.12285,0
          107.93265,16.12289,0
          107.93271,16.12292,0
          107.93272,16.12293,0
          107.93277,16.12295,0
          107.93331,16.12323,0
          107.93337,16.12327,0
          107.93338,16.12327,0
          107.93354,16.12336,0
          107.93363,16.1234,0
          107.9337,16.12344,0
          107.93371,16.12344,0
          107.9338,16.12348,0
          107.93486,16.12402,0
          107.93487,16.12402,0
          107.93512,16.12415,0
          107.93536,16.12429,0
          107.9355,16.12436,0
          107.93552,16.12438,0
          107.93583,16.12455,0
          107.9361,16.12468,0
          107.93628,16.12475,0
          107.93665,16.12487,0
          107.9369,16.12491,0
          107.93695,16.12491,0
          107.93721,16.12493,0
          107.93728,16.12493,0
          107.93738,16.12494,0
          107.93775,16.12495,0
          107.93783,16.12496,0
          107.93876,16.12499,0
          107.93877,16.125,0
          107.93896,16.125,0
          107.93915,16.12501,0
          107.93932,16.12503,0
          107.93957,16.12504,0
          107.93997,16.12508,0
          107.94007,16.1251,0
          107.94008,16.12511,0
          107.94011,16.12512,0
          107.94018,16.12513,0
          107.94025,16.12515,0
          107.94026,16.12515,0
          107.94043,16.1252,0
          107.94043,16.12521,0
          107.94059,16.12526,0
          107.9406,16.12527,0
          107.94061,16.12527,0
          107.9407,16.12531,0
          107.94077,16.12535,0
          107.94078,16.12535,0
          107.94111,16.1255,0
          107.94111,16.12551,0
          107.94117,16.12553,0
          107.94128,16.1256,0
          107.94143,16.12568,0
          107.94144,16.12569,0
          107.94169,16.12583,0
          107.94207,16.12606,0
          107.94208,16.12607,0
          107.94239,16.12625,0
          107.94239,16.12626,0
          107.94256,16.12636,0
          107.94305,16.12658,0
          107.94306,16.12658,0
          107.94321,16.12663,0
          107.94334,16.12666,0
          107.94362,16.1267,0
          107.94389,16.12671,0
          107.94417,16.12669,0
          107.94449,16.12662,0
          107.94452,16.12661,0
          107.94453,16.1266,0
          107.94463,16.12657,0
          107.94464,16.12657,0
          107.94485,16.12648,0
          107.94488,16.12646,0
          107.94506,16.12637,0
          107.94548,16.12614,0
          107.94552,16.12611,0
          107.94553,16.12611,0
          107.94569,16.12602,0
          107.94585,16.12594,0
          107.94585,16.12593,0
          107.94588,16.12592,0
          107.94622,16.12575,0
          107.94628,16.12573,0
          107.94635,16.1257,0
          107.94636,16.1257,0
          107.94646,16.12567,0
          107.94653,16.12564,0
          107.94671,16.12558,0
          107.9469,16.12556,0
          107.94712,16.12552,0
          107.94788,16.12549,0
          107.94806,16.12545,0
          107.94842,16.12541,0
          107.94849,16.12541,0
          107.94855,16.12539,0
          107.94859,16.12539,0
          107.94924,16.12529,0
          107.94955,16.1252,0
          107.9498,16.12508,0
          107.94981,16.12508,0
          107.94999,16.12498,0
          107.95042,16.12465,0
          107.95044,16.12464,0
          107.9507,16.12442,0
          107.95071,16.12442,0
          107.95112,16.12413,0
          107.95113,16.12413,0
          107.9512,16.12408,0
          107.95212,16.1235,0
          107.95227,16.12336,0
          107.9528,16.12291,0
          107.95283,16.12288,0
          107.95363,16.12219,0
          107.9538,16.12203,0
          107.95405,16.12182,0
          107.95418,16.1217,0
          107.95488,16.1211,0
          107.95492,16.12107,0
          107.95627,16.1199,0
          107.9563,16.11986,0
          107.95641,16.11977,0
          107.95644,16.11974,0
          107.96008,16.11659,0
          107.96032,16.11645,0
          107.96046,16.11639,0
          107.96073,16.11625,0
          107.96105,16.11612,0
          107.96159,16.11599,0
          107.96212,16.11597,0
          107.96239,16.11597,0
          107.96241,16.11598,0
          107.96244,16.11598,0
          107.9625,16.116,0
          107.96253,16.11603,0
          107.96346,16.11608,0
          107.96645,16.11608,0
          107.96674,16.11607,0
          107.96691,16.11608,0
          107.96819,16.11609,0
          107.96849,16.11607,0
          107.97066,16.11575,0
          107.97073,16.11573,0
          107.97077,16.11573,0
          107.97088,16.11572,0
          107.97092,16.11572,0
          107.97111,16.1157,0
          107.97156,16.1157,0
          107.97167,16.11571,0
          107.97173,16.11572,0
          107.97195,16.11574,0
          107.97209,16.11577,0
          107.97222,16.11579,0
          107.9724,16.11583,0
          107.97258,16.11588,0
          107.97276,16.11594,0
          107.97312,16.11608,0
          107.97366,16.11631,0
          107.97414,16.11647,0
          107.97435,16.11652,0
          107.97453,16.11655,0
          107.97454,16.11655,0
          107.97464,16.11657,0
          107.97486,16.11659,0
          107.97544,16.11662,0
          107.97566,16.11662,0
          107.9763,16.11665,0
          107.97653,16.11665,0
          107.9766,16.11666,0
          107.97697,16.11669,0
          107.97745,16.11677,0
          107.97764,16.11681,0
          107.97788,16.11688,0
          107.97874,16.1171,0
          107.97902,16.1172,0
          107.98159,16.11825,0
          107.98183,16.11834,0
          107.98234,16.1185,0
          107.98274,16.11857,0
          107.98298,16.1186,0
          107.98303,16.11861,0
          107.98352,16.11865,0
          107.98523,16.11869,0
          107.9863,16.11868,0
          107.9872,16.11871,0
          107.98725,16.11872,0
          107.98771,16.11873,0
          107.98813,16.11876,0
          107.98818,16.11877,0
          107.98826,16.11877,0
          107.98884,16.11882,0
          107.98925,16.11888,0
          107.98929,16.11888,0
          107.98962,16.11893,0
          107.98965,16.11893,0
          107.98999,16.119,0
          107.99047,16.11908,0
          107.9905,16.11908,0
          107.99156,16.11929,0
          107.9916,16.11929,0
          107.99178,16.11933,0
          107.99197,16.11936,0
          107.99372,16.1197,0
          107.99386,16.1197,0
          107.99414,16.11975,0
          107.99427,16.11978,0
          107.99442,16.1198,0
          107.99501,16.11991,0
          107.99505,16.11991,0
          107.99538,16.11997,0
          107.99553,16.11999,0
          107.99606,16.12009,0
          107.99611,16.12011,0
          107.99666,16.12021,0
          107.99766,16.12044,0
          107.99823,16.1206,0
          107.99888,16.12081,0
          107.99944,16.12101,0
          108.00042,16.12141,0
          108.00141,16.12186,0
          108.00157,16.12194,0
          108.00158,16.12194,0
          108.00191,16.12209,0
          108.00225,16.12223,0
          108.00226,16.12223,0
          108.00253,16.12234,0
          108.00295,16.12249,0
          108.00296,16.12249,0
          108.00331,16.12261,0
          108.00382,16.12275,0
          108.00507,16.12305,0
          108.00519,16.12309,0
          108.00614,16.1232,0
          108.00729,16.12326,0
          108.00737,16.12326,0
          108.00789,16.12331,0
          108.00793,16.12331,0
          108.00859,16.12338,0
          108.00868,16.12338,0
          108.00878,16.12339,0
          108.00882,16.1234,0
          108.00938,16.12345,0
          108.00989,16.12351,0
          108.0106,16.12356,0
          108.01064,16.12356,0
          108.01076,16.12358,0
          108.01129,16.12363,0
          108.01143,16.12365,0
          108.01157,16.12366,0
          108.01167,16.12366,0
          108.01265,16.12377,0
          108.01269,16.12377,0
          108.01382,16.12386,0
          108.01399,16.12388,0
          108.01404,16.12389,0
          108.01455,16.12394,0
          108.01462,16.12394,0
          108.01641,16.12415,0
          108.01686,16.12419,0
          108.01698,16.12421,0
          108.01705,16.12421,0
          108.0174,16.12425,0
          108.01799,16.12428,0
          108.0181,16.12428,0
          108.01824,16.1243,0
          108.01866,16.12433,0
          108.01873,16.12433,0
          108.01903,16.12435,0
          108.01922,16.12438,0
          108.01968,16.12443,0
          108.01977,16.12445,0
          108.01985,16.12446,0
          108.02029,16.12454,0
          108.02033,16.12454,0
          108.0204,16.12456,0
          108.02051,16.12458,0
          108.02058,16.1246,0
          108.02106,16.1247,0
          108.02113,16.12472,0
          108.02114,16.12472,0
          108.02149,16.12482,0
          108.02154,16.12483,0
          108.02196,16.12497,0
          108.0223,16.1251,0
          108.02231,16.12511,0
          108.02248,16.12516,0
          108.02249,16.12516,0
          108.02255,16.12518,0
          108.02307,16.12539,0
          108.02308,16.1254,0
          108.02333,16.12553,0
          108.02345,16.12558,0
          108.02399,16.12587,0
          108.02427,16.12604,0
          108.02438,16.1261,0
          108.02459,16.12623,0
          108.02475,16.12632,0
          108.02476,16.12633,0
          108.02491,16.12642,0
          108.02494,16.12645,0
          108.02506,16.12652,0
          108.02569,16.12697,0
          108.02581,16.12707,0
          108.02583,16.12709,0
          108.02595,16.12718,0
          108.02597,16.1272,0
          108.0264,16.12756,0
          108.02651,16.12766,0
          108.02651,16.12767,0
          108.02678,16.12791,0
          108.02717,16.1283,0
          108.02719,16.12833,0
          108.02741,16.12857,0
          108.02742,16.12857,0
          108.02766,16.12885,0
          108.02769,16.12888,0
          108.02862,16.12995,0
          108.02866,16.12999,0
          108.02964,16.13111,0
          108.03014,16.13162,0
          108.03036,16.13182,0
          108.03067,16.13203,0
          108.03086,16.1322,0
          108.03137,16.13251,0
          108.03137,16.13252,0
          108.0315,16.13258,0
          108.03154,16.13261,0
          108.0318,16.13274,0
          108.03208,16.13286,0
          108.03217,16.13289,0
          108.03221,16.13291,0
          108.03225,16.13292,0
          108.03264,16.13307,0
          108.03372,16.13331,0
          108.03435,16.13336,0
          108.03752,16.13339,0
          108.03815,16.13342,0
          108.03903,16.13342,0
          108.03927,16.13343,0
          108.03981,16.13342,0
          108.04038,16.13337,0
          108.04072,16.13333,0
          108.04111,16.13326,0
          108.04123,16.13323,0
          108.0413,16.13322,0
          108.04138,16.13319,0
          108.04149,16.13317,0
          108.04211,16.133,0
          108.04239,16.13291,0
          108.04354,16.13245,0
          108.04444,16.13204,0
          108.04445,16.13203,0
          108.04498,16.13177,0
          108.04499,16.13176,0
          108.04514,16.13169,0
          108.04514,16.13168,0
          108.04532,16.13161,0
          108.04544,16.13155,0
          108.04644,16.13112,0
          108.04701,16.13084,0
          108.04702,16.13084,0
          108.04768,16.13053,0
          108.04769,16.13053,0
          108.04785,16.13045,0
          108.04786,16.13045,0
          108.04793,16.13042,0
          108.04844,16.13015,0
          108.04898,16.12982,0
          108.04899,16.12981,0
          108.04941,16.12955,0
          108.04945,16.12952,0
          108.04946,16.12952,0
          108.05011,16.12912,0
          108.0508,16.12866,0
          108.05086,16.12863,0
          108.05176,16.12807,0
          108.0518,16.12804,0
          108.05211,16.12784,0
          108.05219,16.12778,0
          108.05305,16.12725,0
          108.05306,16.12725,0
          108.05368,16.12686,0
          108.05372,16.12684,0
          108.05414,16.12655,0
          108.05419,16.12652,0
          108.05477,16.12603,0
          108.05509,16.12568,0
          108.05534,16.12529,0
          108.05549,16.12497,0
          108.05561,16.12451,0
          108.05565,16.1243,0
          108.05569,16.12393,0
          108.05569,16.12375,0
          108.05566,16.12339,0
          108.05559,16.12294,0
          108.05557,16.12287,0
          108.05546,16.12227,0
          108.05542,16.12192,0
          108.0554,16.12181,0
          108.05539,16.12161,0
          108.05542,16.12107,0
          108.05547,16.1208,0
          108.05551,16.12067,0
          108.05563,16.12034,0
          108.05584,16.11992,0
          108.05585,16.11991,0
          108.05609,16.11957,0
          108.05652,16.11913,0
          108.05715,16.1186,0
          108.05719,16.11856,0
          108.05829,16.11766,0
          108.05855,16.11743,0
          108.05882,16.11717,0
          108.05894,16.11703,0
          108.06032,16.11561,0
          108.0614,16.11445,0
          108.06142,16.11442,0
          108.06152,16.11432,0
          108.06154,16.11429,0
          108.06168,16.11415,0
          108.06233,16.11345,0
          108.06245,16.11333,0
          108.06262,16.11318,0
          108.06302,16.11287,0
          108.06318,16.11277,0
          108.06377,16.11245,0
          108.0638,16.11244,0
          108.06397,16.11236,0
          108.06443,16.11212,0
          108.06446,16.1121,0
          108.06449,16.11209,0
          108.06465,16.11201,0
          108.06479,16.11193,0
          108.06493,16.11186,0
          108.06498,16.11184,0
          108.06581,16.11144,0
          108.06629,16.11118,0
          108.06662,16.11102,0
          108.06663,16.11101,0
          108.06687,16.1109,0
          108.06696,16.11085,0
          108.06745,16.11061,0
          108.06746,16.1106,0
          108.06779,16.11044,0
          108.06792,16.11037,0
          108.06795,16.11035,0
          108.06812,16.11027,0
          108.06846,16.11008,0
          108.06861,16.11002,0
          108.06878,16.10994,0
          108.06884,16.10992,0
          108.06908,16.10981,0
          108.06942,16.10967,0
          108.07008,16.10944,0
          108.07037,16.10935,0
          108.07114,16.10914,0
          108.07131,16.10908,0
          108.07132,16.10908,0
          108.07166,16.10897,0
          108.07167,16.10897,0
          108.07202,16.10886,0
          108.07203,16.10886,0
          108.07273,16.10864,0
          108.07274,16.10864,0
          108.07294,16.10857,0
          108.07309,16.10853,0
          108.07362,16.10836,0
          108.07381,16.10829,0
          108.07389,16.10827,0
          108.07415,16.10818,0
          108.07416,16.10817,0
          108.07417,16.10817,0
          108.07484,16.10791,0
          108.07486,16.1079,0
          108.07487,16.1079,0
          108.07491,16.10788,0
          108.07502,16.10784,0
          108.07519,16.10776,0
          108.0752,16.10775,0
          108.07521,16.10775,0
          108.07525,16.10774,0
          108.07535,16.10769,0
          108.07536,16.10768,0
          108.07674,16.10706,0
          108.07682,16.10703,0
          108.07688,16.107,0
          108.07691,16.10698,0
          108.07721,16.10685,0
          108.07722,16.10684,0
          108.07768,16.10667,0
          108.07802,16.10652,0
          108.07808,16.1065,0
          108.07842,16.10635,0
          108.07846,16.10634,0
          108.07854,16.1063,0
          108.07931,16.10596,0
          108.07937,16.10594,0
          108.07949,16.10589,0
          108.07958,16.10586,0
          108.07986,16.10579,0
          108.08023,16.10572,0
          108.08035,16.10572,0
          108.08047,16.10571,0
          108.08055,16.10571,0
          108.08079,16.10573,0
          108.08203,16.10594,0
          108.08206,16.10594,0
          108.08225,16.10598,0
          108.0824,16.106,0
          108.08267,16.10605,0
          108.08277,16.10608,0
          108.08358,16.10616,0
          108.08378,16.10617,0
          108.08407,16.10617,0
          108.0844,16.10613,0
          108.08444,16.10612,0
          108.08469,16.10609,0
          108.08502,16.10602,0
          108.08548,16.1059,0
          108.0861,16.10565,0
          108.0867,16.10531,0
          108.0869,16.10516,0
          108.08719,16.10492,0
          108.08749,16.10463,0
          108.08769,16.10445,0
          108.08789,16.10422,0
          108.08807,16.10397,0
          108.0882,16.10377,0
          108.08821,16.10374,0
          108.08845,16.10326,0
          108.08845,16.10325,0
          108.08863,16.10274,0
          108.0888,16.10216,0
          108.08894,16.1016,0
          108.08906,16.10105,0
          108.08934,16.09954,0
          108.08937,16.09919,0
          108.08939,16.0985,0
          108.08933,16.09777,0
          108.08925,16.09733,0
          108.08914,16.09685,0
          108.08909,16.09667,0
          108.08898,16.09635,0
          108.08892,16.09629,0
          108.0889,16.09625,0
          108.08883,16.09614,0
          108.08857,16.09561,0
          108.08721,16.09303,0
          108.08677,16.09223,0
          108.08674,16.09216,0
          108.08625,16.09127,0
          108.08621,16.09121,0
          108.08612,16.09103,0
          108.08572,16.09032,0
          108.08562,16.09018,0
          108.08515,16.08927,0
          108.085,16.08895,0
          108.08498,16.08889,0
          108.08497,16.08888,0
          108.08491,16.08872,0
          108.0849,16.0887,0
          108.08477,16.08831,0
          108.08473,16.08813,0
          108.0847,16.08792,0
          108.08468,16.08762,0
          108.08469,16.08747,0
          108.08468,16.08707,0
          108.08471,16.08393,0
          108.08472,16.08387,0
          108.08472,16.08366,0
          108.08476,16.08249,0
          108.08477,16.08243,0
          108.08481,16.08108,0
          108.08484,16.08074,0
          108.08487,16.08051,0
          108.0849,16.08034,0
          108.08492,16.08028,0
          108.08494,16.0802,0
          108.08504,16.07988,0
          108.08518,16.07951,0
          108.08537,16.07916,0
          108.08564,16.07874,0
          108.08594,16.0783,0
          108.08605,16.07812,0
          108.08638,16.07764,0
          108.08722,16.07632,0
          108.08726,16.07628,0
          108.08847,16.0744,0
          108.08872,16.07405,0
          108.09004,16.07248,0
          108.09061,16.07189,0
          108.09076,16.07171,0
          108.0914,16.07106,0
          108.09236,16.07001,0
          108.09277,16.06948,0
          108.09302,16.06905,0
          108.09315,16.06878,0
          108.09321,16.06862,0
          108.09321,16.06861,0
          108.09327,16.06844,0
          108.09331,16.06835,0
          108.09346,16.06793,0
          108.09347,16.06791,0
          108.09377,16.06702,0
          108.09424,16.06541,0
          108.09448,16.06466,0
          108.09449,16.06464,0
          108.09474,16.0639,0
          108.09504,16.06307,0
          108.09515,16.06281,0
          108.09526,16.0626,0
          108.09537,16.06242,0
          108.09555,16.06217,0
          108.09567,16.06202,0
          108.0963,16.06132,0
          108.10086,16.05603,0
          108.10064,16.05592,0
          108.10108,16.0553,0
          108.10169,16.05452,0
          108.10175,16.05442,0
          108.1018,16.05437,0
          108.10191,16.05423,0
          108.10197,16.05413,0
          108.10199,16.05411,0
          108.10206,16.05399,0
          108.10211,16.05387,0
          108.10218,16.05364,0
          108.1022,16.05359,0
          108.10222,16.05347,0
          108.10222,16.05338,0
          108.1022,16.05315,0
          108.1022,16.05311,0
          108.10219,16.05306,0
          108.10219,16.05293,0
          108.10221,16.05274,0
          108.10221,16.05268,0
          108.10226,16.05245,0
          108.10232,16.05225,0
          108.10246,16.05191,0
          108.10259,16.05165,0
          108.10275,16.05128,0
          108.10276,16.05128,0
          108.10292,16.05091,0
          108.10303,16.0506,0
          108.10307,16.05046,0
          108.10313,16.05029,0
          108.10323,16.04989,0
          108.10329,16.04958,0
          108.10351,16.04868,0
          108.10351,16.04865,0
          108.10358,16.04832,0
          108.10372,16.04779,0
          108.10389,16.04751,0
          108.10411,16.04719,0
          108.10431,16.04683,0
          108.10462,16.04611,0
          108.10521,16.0445,0
          108.10523,16.04441,0
          108.10525,16.04436,0
          108.10527,16.04427,0
          108.10529,16.04413,0
          108.10529,16.04403,0
          108.10527,16.04373,0
          108.10527,16.04338,0
          108.10526,16.04309,0
          108.10522,16.0429,0
          108.10496,16.04233,0
          108.10527,16.04038,0
          108.1055,16.03995,0
          108.10604,16.03881,0
          108.10605,16.03878,0
          108.10638,16.03814,0
          108.10643,16.03803,0
          108.10649,16.03787,0
          108.10651,16.03778,0
          108.10653,16.03761,0
          108.10653,16.03754,0
          108.10652,16.03747,0
          108.10647,16.03733,0
          108.10641,16.03707,0
          108.10636,16.0368,0
          108.10634,16.03672,0
          108.1063,16.0365,0
          108.10628,16.03631,0
          108.10626,16.03621,0
          108.10622,16.03587,0
          108.10621,16.03582,0
          108.10617,16.03537,0
          108.10615,16.03498,0
          108.10614,16.03495,0
          108.10612,16.03474,0
          108.10611,16.0347,0
          108.10608,16.03428,0
          108.10608,16.03421,0
          108.10607,16.03409,0
          108.10607,16.03376,0
          108.10609,16.03366,0
          108.10612,16.03359,0
          108.1062,16.03344,0
          108.10637,16.03324,0
          108.10638,16.03324,0
          108.10649,16.03311,0
          108.10651,16.0331,0
          108.10655,16.03305,0
          108.1067,16.0329,0
          108.10689,16.03273,0
          108.10709,16.03258,0
          108.1072,16.03251,0
          108.10739,16.03243,0
          108.10833,16.03222,0
          108.10835,16.03222,0
          108.10873,16.03213,0
          108.10889,16.03208,0
          108.10901,16.03201,0
          108.10908,16.03193,0
          108.10919,16.03177,0
          108.10928,16.03162,0
          108.10932,16.03154,0
          108.10978,16.03073,0
          108.11024,16.02999,0
          108.11044,16.02964,0
          108.11049,16.02957,0
          108.11097,16.02875,0
          108.11128,16.02817,0
          108.11142,16.02797,0
          108.11143,16.02794,0
          108.11158,16.02773,0
          108.11165,16.02759,0
          108.11181,16.02733,0
          108.11192,16.02713,0
          108.11199,16.02696,0
          108.11201,16.02683,0
          108.11209,16.026,0
          108.11209,16.02562,0
          108.11208,16.02547,0
          108.11208,16.02538,0
          108.11202,16.02414,0
          108.11202,16.02403,0
          108.11197,16.02342,0
          108.11198,16.02316,0
          108.11199,16.02316,0
          108.11203,16.02302,0
          108.11308,16.02151,0
          108.11355,16.02086,0
          108.11358,16.02083,0
          108.11368,16.02058,0
          108.11398,16.02014,0
          108.11463,16.01908,0
          108.11554,16.01778,0
          108.11627,16.01721,0
          108.11637,16.01715,0
          108.11729,16.01648,0
          108.11744,16.01635,0
          108.11748,16.01631,0
          108.11755,16.01626,0
          108.11782,16.01603,0
          108.11901,16.01496,0
          108.12195,16.01213,0
          108.12294,16.01115,0
          108.12361,16.01053,0
          108.12381,16.01038,0
          108.12406,16.01024,0
          108.12464,16.01006,0
          108.12498,16.00997,0
          108.1251,16.00993,0
          108.12534,16.00987,0
          108.12722,16.00934,0
          108.1273,16.00931,0
          108.12872,16.00892,0
          108.12911,16.00879,0
          108.12924,16.00873,0
          108.12927,16.00871,0
          108.13023,16.00818,0
          108.13115,16.0077,0
          108.13148,16.00754,0
          108.13222,16.00725,0
          108.13434,16.00647,0
          108.1344,16.00644,0
          108.13445,16.00641,0
          108.13492,16.00604,0
          108.13508,16.00593,0
          108.13701,16.00443,0
          108.1374,16.00415,0
          108.1376,16.00403,0
          108.13776,16.00395,0
          108.1382,16.00377,0
          108.1393,16.00318,0
          108.13956,16.00306,0
          108.13963,16.00302,0
          108.1397,16.00299,0
          108.14047,16.0026,0
          108.14083,16.00239,0
          108.14097,16.00228,0
          108.14113,16.00212,0
          108.14125,16.00202,0
          108.14126,16.00202,0
          108.1414,16.00187,0
          108.1415,16.00174,0
          108.14158,16.00162,0
          108.14164,16.00151,0
          108.14167,16.00147,0
          108.14179,16.00126,0
          108.14254,15.9996,0
          108.14272,15.99968,0
          108.14284,15.99972,0
          108.14321,15.99981,0
          108.14331,15.99982,0
          108.14349,15.99982,0
          108.14361,15.99981,0
          108.14453,15.99979,0
          108.14478,15.99982,0
          108.14488,15.99986,0
          108.14507,16,0
          108.14525,16.00015,0
          108.14527,16.00016,0
          108.14554,16.00055,0
          108.14576,16.00084,0
          108.14578,16.00085,0
          108.14587,16.00098,0
          108.14598,16.00111,0
          108.14612,16.00125,0
          108.14626,16.00144,0
          108.1464,16.00166,0
          108.14649,16.00177,0
          108.14668,16.00194,0
          108.14674,16.00197,0
          108.14679,16.00198,0
          108.1469,16.00229,0
          108.14694,16.00232,0
          108.14694,16.00233,0
          108.14695,16.00234,0
          108.14695,16.00235,0
          108.14701,16.00248,0
          108.14714,16.00287,0
          108.14723,16.00294,0
          108.14736,16.00301,0
          108.14743,16.00303,0
          108.14757,16.00305,0
          108.14781,16.00305,0
          108.14999,16.00175,0
          108.15038,16.0015,0
          108.15145,16.00086,0
          108.15146,16.00086,0
          108.15164,16.00074,0
          108.15179,16.00065,0
          108.152,16.00051,0
          108.1529,15.99995,0
          108.15414,15.99906,0
          108.15503,15.99829,0
          108.1558,15.99751,0
          108.15595,15.99734,0
          108.15635,15.99692,0
          108.15687,15.99631,0
          108.15725,15.99583,0
          108.15789,15.99492,0
          108.15859,15.99378,0
          108.15893,15.99315,0
          108.15927,15.99247,0
          108.15957,15.99177,0
          108.15978,15.99124,0
          108.16015,15.9902,0
          108.16035,15.9895,0
          108.1606,15.98844,0
          108.16067,15.9881,0
          108.16069,15.98804,0
          108.16088,15.98645,0
          108.16146,15.97971,0
          108.16157,15.97818,0
          108.16184,15.9763,0
          108.16189,15.97605,0
          108.16189,15.97602,0
          108.16191,15.97595,0
          108.16192,15.97588,0
          108.16193,15.97584,0
          108.16194,15.97577,0
          108.1621,15.97496,0
          108.16231,15.97407,0
          108.16242,15.97349,0
          108.16277,15.97238,0
          108.16299,15.97176,0
          108.16306,15.97159,0
          108.16315,15.97134,0
          108.16381,15.96972,0
          108.16395,15.96942,0
          108.16399,15.96935,0
          108.16495,15.9673,0
          108.16536,15.96652,0
          108.16555,15.96606,0
          108.16673,15.96364,0
          108.16675,15.96359,0
          108.16698,15.96313,0
          108.167,15.96308,0
          108.16715,15.96279,0
          108.16722,15.96267,0
          108.17011,15.95688,0
          108.17074,15.95549,0
          108.17113,15.95458,0
          108.17171,15.95301,0
          108.17206,15.95183,0
          108.17261,15.94937,0
          108.17263,15.9493,0
          108.17281,15.94826,0
          108.1731,15.94598,0
          108.17336,15.9433,0
          108.1737,15.94025,0
          108.17372,15.94013,0
          108.17492,15.92953,0
          108.17541,15.92468,0
          108.17585,15.92089,0
          108.17592,15.91974,0
          108.17595,15.91943,0
          108.17599,15.91842,0
          108.17601,15.91725,0
          108.17584,15.90824,0
          108.17582,15.90786,0
          108.1757,15.90233,0
          108.17566,15.90182,0
          108.17562,15.89948,0
          108.17559,15.89868,0
          108.17559,15.89769,0
          108.17561,15.8969,0
          108.17558,15.89555,0
          108.17561,15.8949,0
          108.17562,15.89385,0
          108.17571,15.89306,0
          108.17571,15.89302,0
          108.17584,15.89135,0
          108.1759,15.89096,0
          108.17591,15.89092,0
          108.17615,15.88945,0
          108.17618,15.88917,0
          108.17625,15.88879,0
          108.17661,15.88722,0
          108.17692,15.88599,0
          108.17734,15.88461,0
          108.17773,15.88349,0
          108.17805,15.88267,0
          108.17902,15.88034,0
          108.18011,15.87802,0
          108.18019,15.87783,0
          108.18332,15.87115,0
          108.18369,15.87032,0
          108.18377,15.87016,0
          108.18452,15.86851,0
          108.18472,15.86804,0
          108.18517,15.86706,0
          108.18822,15.85989,0
          108.18829,15.85975,0
          108.18837,15.85961,0
          108.18956,15.85694,0
          108.19003,15.85584,0
          108.19016,15.85551,0
          108.1903,15.85521,0
          108.19047,15.85479,0
          108.19059,15.85453,0
          108.19068,15.8543,0
          108.1908,15.85404,0
          108.19169,15.85181,0
          108.19187,15.8513,0
          108.19239,15.85008,0
          108.19259,15.84965,0
          108.19265,15.84949,0
          108.19321,15.84816,0
          108.19365,15.84672,0
          108.19383,15.84594,0
          108.19403,15.84487,0
          108.19418,15.84353,0
          108.19422,15.84273,0
          108.19422,15.84176,0
          108.19414,15.83832,0
          108.19415,15.83789,0
          108.19407,15.83411,0
          108.19409,15.83339,0
          108.19408,15.83328,0
          108.19409,15.83313,0
          108.19408,15.83227,0
          108.19406,15.83173,0
          108.19406,15.83133,0
          108.19405,15.83129,0
          108.19403,15.83124,0
          108.19402,15.83119,0
          108.19402,15.83111,0
          108.19397,15.83036,0
          108.19389,15.82755,0
          108.19393,15.82654,0
          108.19401,15.82576,0
          108.19402,15.82558,0
          108.19407,15.82514,0
          108.19444,15.82383,0
          108.19517,15.82228,0
          108.19607,15.82105,0
          108.19708,15.82004,0
          108.19833,15.81909,0
          108.19881,15.81881,0
          108.20113,15.81727,0
          108.20176,15.81683,0
          108.20311,15.81593,0
          108.20487,15.81469,0
          108.20515,15.81451,0
          108.20516,15.8145,0
          108.20641,15.81371,0
          108.20951,15.81169,0
          108.20966,15.81158,0
          108.20975,15.81153,0
          108.21166,15.81026,0
          108.21181,15.81015,0
          108.21333,15.80918,0
          108.21481,15.8083,0
          108.21576,15.8078,0
          108.21678,15.80731,0
          108.21726,15.8071,0
          108.21902,15.80641,0
          108.21919,15.80636,0
          108.21954,15.80624,0
          108.21972,15.80617,0
          108.2217,15.80549,0
          108.22177,15.80546,0
          108.22711,15.80363,0
          108.22762,15.80347,0
          108.23071,15.80241,0
          108.23484,15.80091,0
          108.23501,15.80084,0
          108.23996,15.79903,0
          108.24038,15.79884,0
          108.24116,15.79852,0
          108.24308,15.79769,0
          108.24619,15.79624,0
          108.2466,15.79603,0
          108.24661,15.79602,0
          108.25005,15.79423,0
          108.25006,15.79423,0
          108.25228,15.79292,0
          108.25229,15.79291,0
          108.25562,15.79093,0
          108.25563,15.79093,0
          108.25626,15.79056,0
          108.25957,15.78836,0
          108.25971,15.78825,0
          108.26326,15.78565,0
          108.26647,15.78301,0
          108.26836,15.78139,0
          108.27196,15.77797,0
          108.27409,15.77583,0
          108.28561,15.76286,0
          108.28609,15.7623,0
          108.28612,15.76228,0
          108.28829,15.75985,0
          108.28842,15.75972,0
          108.29034,15.75759,0
          108.29189,15.75623,0
          108.29351,15.75514,0
          108.2949,15.75408,0
          108.29534,15.75359,0
          108.29547,15.75346,0
          108.29559,15.75332,0
          108.29664,15.75218,0
          108.2996,15.74835,0
          108.30006,15.74773,0
          108.30396,15.74275,0
          108.3056,15.74052,0
          108.30682,15.73895,0
          108.3078,15.73782,0
          108.30833,15.73717,0
          108.31642,15.72797,0
          108.3165,15.72787,0
          108.32178,15.72186,0
          108.32216,15.72146,0
          108.33559,15.70629,0
          108.33565,15.70623,0
          108.33848,15.703,0
          108.33873,15.70273,0
          108.35103,15.68861,0
          108.35533,15.68344,0
          108.35602,15.68265,0
          108.36016,15.67777,0
          108.3625,15.67493,0
          108.36603,15.67077,0
          108.36633,15.67039,0
          108.36634,15.67038,0
          108.36644,15.67025,0
          108.36741,15.66911,0
          108.36887,15.66728,0
          108.3689,15.66725,0
          108.37034,15.66516,0
          108.37164,15.66314,0
          108.37494,15.65698,0
          108.37762,15.6517,0
          108.37797,15.65112,0
          108.37902,15.64919,0
          108.37904,15.64917,0
          108.37938,15.64856,0
          108.37979,15.64791,0
          108.38018,15.64726,0
          108.38055,15.6467,0
          108.38088,15.64616,0
          108.38088,15.64615,0
          108.38099,15.64597,0
          108.38124,15.64562,0
          108.38152,15.64519,0
          108.38212,15.64416,0
          108.38261,15.64338,0
          108.38439,15.64041,0
          108.38537,15.63882,0
          108.38552,15.63856,0
          108.3858,15.63812,0
          108.38598,15.63787,0
          108.3862,15.6375,0
          108.38651,15.63701,0
          108.38711,15.63593,0
          108.39092,15.62846,0
          108.39094,15.6284,0
          108.39212,15.62608,0
          108.39221,15.62592,0
          108.39424,15.6219,0
          108.39537,15.61957,0
          108.39617,15.61809,0
          108.39788,15.61516,0
          108.39853,15.61417,0
          108.40109,15.60996,0
          108.40303,15.60639,0
          108.40326,15.60594,0
          108.40447,15.6037,0
          108.40514,15.60235,0
          108.40617,15.60042,0
          108.40811,15.59651,0
          108.40985,15.59317,0
          108.41024,15.59246,0
          108.4103,15.59233,0
          108.41037,15.59221,0
          108.41059,15.59177,0
          108.41583,15.58308,0
          108.4174,15.58026,0
          108.41741,15.58023,0
          108.41748,15.5801,0
          108.41749,15.58007,0
          108.41997,15.57528,0
          108.42067,15.57374,0
          108.42364,15.56838,0
          108.42373,15.56823,0
          108.42577,15.56455,0
          108.42607,15.56404,0
          108.42716,15.5621,0
          108.42834,15.55981,0
          108.42877,15.55908,0
          108.42983,15.55716,0
          108.42986,15.55712,0
          108.43102,15.55512,0
          108.43135,15.55452,0
          108.43203,15.55342,0
          108.43205,15.55338,0
          108.43312,15.55173,0
          108.43343,15.55128,0
          108.43383,15.55073,0
          108.43512,15.54915,0
          108.43523,15.549,0
          108.43576,15.54833,0
          108.4363,15.54776,0
          108.43642,15.54762,0
          108.43818,15.54576,0
          108.4383,15.54562,0
          108.43856,15.54536,0
          108.43926,15.54462,0
          108.43974,15.54421,0
          108.43975,15.54421,0
          108.43982,15.54415,0
          108.43989,15.54408,0
          108.44138,15.54283,0
          108.44158,15.54265,0
          108.44361,15.54108,0
          108.44375,15.54096,0
          108.44456,15.54034,0
          108.44664,15.53898,0
          108.44708,15.53873,0
          108.4485,15.53787,0
          108.44999,15.53708,0
          108.45118,15.53651,0
          108.45177,15.53625,0
          108.453,15.53567,0
          108.45434,15.53513,0
          108.45474,15.53495,0
          108.45537,15.53472,0
          108.45801,15.53384,0
          108.4589,15.53358,0
          108.46546,15.53188,0
          108.46583,15.53177,0
          108.46892,15.53096,0
          108.4691,15.53092,0
          108.47147,15.5303,0
          108.47195,15.53016,0
          108.47718,15.52878,0
          108.47733,15.52873,0
          108.47751,15.52868,0
          108.47752,15.52868,0
          108.47852,15.52838,0
          108.47957,15.52802,0
          108.47984,15.52794,0
          108.4807,15.52765,0
          108.48124,15.52745,0
          108.4832,15.52666,0
          108.48584,15.52546,0
          108.48593,15.52541,0
          108.48709,15.52487,0
          108.49072,15.52311,0
          108.49089,15.52302,0
          108.4929,15.52207,0
          108.49307,15.522,0
          108.49324,15.52192,0
          108.49325,15.52191,0
          108.49625,15.52044,0
          108.49687,15.52016,0
          108.49705,15.52007,0
          108.49743,15.5199,0
          108.50096,15.51817,0
          108.50179,15.51774,0
          108.50187,15.51769,0
          108.50202,15.51762,0
          108.50203,15.51761,0
          108.5036,15.51677,0
          108.50367,15.51674,0
          108.5044,15.51635,0
          108.50628,15.51523,0
          108.50654,15.51506,0
          108.50706,15.51475,0
          108.50718,15.51467,0
          108.5075,15.51448,0
          108.50765,15.51438,0
          108.5085,15.51386,0
          108.51152,15.51189,0
          108.51153,15.51188,0
          108.51188,15.51166,0
          108.51351,15.51058,0
          108.51354,15.51057,0
          108.51586,15.50906,0
          108.51589,15.50903,0
          108.51616,15.50886,0
          108.51698,15.50831,0
          108.51724,15.50815,0
          108.5174,15.50804,0
          108.51821,15.50753,0
          108.52048,15.50601,0
          108.52052,15.50599,0
          108.52123,15.50549,0
          108.52281,15.50432,0
          108.52309,15.50409,0
          108.52318,15.50403,0
          108.52384,15.50351,0
          108.52472,15.50276,0
          108.52576,15.50182,0
          108.52677,15.50087,0
          108.52691,15.50075,0
          108.52765,15.5,0
          108.5283,15.4993,0
          108.52988,15.49752,0
          108.52992,15.49748,0
          108.53073,15.49651,0
          108.53359,15.49298,0
          108.53447,15.49193,0
          108.53544,15.49081,0
          108.53547,15.49078,0
          108.53618,15.48996,0
          108.53812,15.48784,0
          108.53877,15.4872,0
          108.54021,15.48572,0
          108.54024,15.4857,0
          108.54034,15.48559,0
          108.54187,15.4841,0
          108.54192,15.48406,0
          108.54345,15.48265,0
          108.54902,15.47768,0
          108.54915,15.47755,0
          108.54929,15.47743,0
          108.54942,15.4773,0
          108.54944,15.47729,0
          108.54991,15.47688,0
          108.54997,15.47682,0
          108.55039,15.47647,0
          108.55133,15.47559,0
          108.55202,15.47498,0
          108.55344,15.47367,0
          108.55412,15.47308,0
          108.55675,15.47046,0
          108.55727,15.46996,0
          108.55795,15.46925,0
          108.55799,15.46922,0
          108.55852,15.46864,0
          108.5589,15.46825,0
          108.55891,15.46823,0
          108.55939,15.46778,0
          108.55997,15.4672,0
          108.56,15.46716,0
          108.56019,15.46696,0
          108.56118,15.46584,0
          108.56237,15.46444,0
          108.56286,15.4639,0
          108.56289,15.46386,0
          108.56358,15.46308,0
          108.56556,15.4607,0
          108.56691,15.45916,0
          108.56718,15.45888,0
          108.56724,15.45881,0
          108.56788,15.45814,0
          108.56794,15.45809,0
          108.56906,15.45702,0
          108.56981,15.45627,0
          108.57037,15.45576,0
          108.57219,15.45423,0
          108.57275,15.45385,0
          108.57293,15.45374,0
          108.57329,15.45349,0
          108.57373,15.45315,0
          108.57379,15.45309,0
          108.57394,15.45298,0
          108.57522,15.45193,0
          108.57524,15.45191,0
          108.57571,15.45158,0
          108.57677,15.45077,0
          108.57727,15.45037,0
          108.57867,15.4493,0
          108.57896,15.44906,0
          108.57953,15.44862,0
          108.57985,15.4484,0
          108.58012,15.44824,0
          108.58037,15.44806,0
          108.58324,15.44585,0
          108.58394,15.44528,0
          108.58458,15.44481,0
          108.58595,15.44386,0
          108.58632,15.44356,0
          108.58651,15.44342,0
          108.58707,15.44294,0
          108.58724,15.44281,0
          108.58817,15.44219,0
          108.58876,15.44175,0
          108.5889,15.44163,0
          108.58909,15.44145,0
          108.58918,15.44138,0
          108.58973,15.4409,0
          108.58988,15.44079,0
          108.58992,15.44075,0
          108.59071,15.44012,0
          108.5908,15.44006,0
          108.59089,15.43999,0
          108.5909,15.43998,0
          108.59197,15.43918,0
          108.59206,15.4391,0
          108.59235,15.43888,0
          108.59241,15.43884,0
          108.59271,15.43861,0
          108.59295,15.43845,0
          108.59354,15.43801,0
          108.59359,15.43798,0
          108.59403,15.43764,0
          108.59428,15.43746,0
          108.59438,15.43738,0
          108.59443,15.43735,0
          108.59466,15.43718,0
          108.59472,15.43713,0
          108.59517,15.4368,0
          108.59517,15.43679,0
          108.59546,15.43657,0
          108.59553,15.43651,0
          108.5956,15.43646,0
          108.59585,15.43626,0
          108.59604,15.43612,0
          108.59647,15.43578,0
          108.59677,15.43556,0
          108.5972,15.43522,0
          108.5975,15.435,0
          108.59779,15.43477,0
          108.59867,15.43411,0
          108.59881,15.43399,0
          108.59955,15.43344,0
          108.59969,15.43332,0
          108.5998,15.43325,0
          108.60073,15.43254,0
          108.60186,15.43171,0
          108.60243,15.43124,0
          108.60301,15.43079,0
          108.60415,15.42996,0
          108.60541,15.42901,0
          108.6064,15.42829,0
          108.60642,15.42827,0
          108.60731,15.42762,0
          108.6074,15.42754,0
          108.60803,15.4271,0
          108.60843,15.4268,0
          108.60849,15.42676,0
          108.60855,15.42671,0
          108.6094,15.42611,0
          108.60969,15.42592,0
          108.60971,15.42591,0
          108.60984,15.42582,0
          108.60986,15.4258,0
          108.60998,15.42572,0
          108.61097,15.425,0
          108.61206,15.42428,0
          108.61334,15.4234,0
          108.61742,15.42069,0
          108.61745,15.42066,0
          108.61758,15.42058,0
          108.61893,15.41964,0
          108.61964,15.41919,0
          108.6202,15.4188,0
          108.6207,15.41843,0
          108.62097,15.41826,0
          108.62149,15.4179,0
          108.62436,15.4158,0
          108.62495,15.41533,0
          108.62565,15.41481,0
          108.62838,15.41266,0
          108.63123,15.4103,0
          108.63163,15.40995,0
          108.63206,15.4096,0
          108.63253,15.40918,0
          108.63327,15.40855,0
          108.63376,15.40809,0
          108.6338,15.40806,0
          108.63389,15.40796,0
          108.63405,15.40781,0
          108.63558,15.40647,0
          108.6357,15.40634,0
          108.63676,15.40537,0
          108.63849,15.40364,0
          108.63859,15.40355,0
          108.63965,15.40247,0
          108.64055,15.40162,0
          108.64065,15.40154,0
          108.64082,15.40138,0
          108.64082,15.40137,0
          108.64109,15.40113,0
          108.64109,15.40112,0
          108.64189,15.40038,0
          108.6419,15.40038,0
          108.64203,15.40026,0
          108.64204,15.40026,0
          108.64288,15.39955,0
          108.64368,15.39893,0
          108.64369,15.39892,0
          108.64371,15.39891,0
          108.64515,15.39781,0
          108.64567,15.39746,0
          108.64568,15.39745,0
          108.64579,15.39738,0
          108.64583,15.39736,0
          108.64583,15.39735,0
          108.64698,15.39659,0
          108.64802,15.39599,0
          108.64964,15.39511,0
          108.64977,15.39505,0
          108.65079,15.39452,0
          108.65131,15.39431,0
          108.65165,15.39416,0
          108.65166,15.39415,0
          108.65178,15.3941,0
          108.65182,15.39409,0
          108.65183,15.39408,0
          108.65304,15.39359,0
          108.65477,15.39298,0
          108.65479,15.39297,0
          108.65494,15.39292,0
          108.65496,15.39291,0
          108.65525,15.39281,0
          108.65526,15.39281,0
          108.65618,15.39253,0
          108.6562,15.39252,0
          108.65638,15.39247,0
          108.6565,15.39243,0
          108.65656,15.39242,0
          108.65668,15.39238,0
          108.6578,15.39208,0
          108.65782,15.39208,0
          108.65798,15.39203,0
          108.658,15.39203,0
          108.65892,15.39182,0
          108.66009,15.39158,0
          108.66104,15.39141,0
          108.66163,15.39133,0
          108.66165,15.39132,0
          108.66205,15.39126,0
          108.66304,15.39114,0
          108.66494,15.39099,0
          108.66515,15.39098,0
          108.66523,15.39097,0
          108.66955,15.39071,0
          108.66961,15.39071,0
          108.67154,15.39059,0
          108.67203,15.39054,0
          108.67273,15.39049,0
          108.67279,15.39048,0
          108.67284,15.39048,0
          108.67537,15.39029,0
          108.67776,15.39002,0
          108.67943,15.38987,0
          108.68129,15.38966,0
          108.68668,15.38913,0
          108.68913,15.38885,0
          108.69039,15.38874,0
          108.6926,15.38851,0
          108.69279,15.3885,0
          108.69498,15.38824,0
          108.69568,15.38814,0
          108.69714,15.3879,0
          108.69958,15.38733,0
          108.70153,15.38676,0
          108.70348,15.3861,0
          108.70399,15.38588,0
          108.704,15.38588,0
          108.70401,15.38587,0
          108.70433,15.38574,0
          108.70612,15.38492,0
          108.70701,15.38448,0
          108.70709,15.38445,0
          108.70786,15.38404,0
          108.70895,15.38342,0
          108.70991,15.38284,0
          108.71077,15.38226,0
          108.71083,15.38223,0
          108.71098,15.38212,0
          108.71176,15.3816,0
          108.71329,15.38048,0
          108.71396,15.37995,0
          108.71445,15.3795,0
          108.71464,15.37934,0
          108.71477,15.37921,0
          108.71493,15.37908,0
          108.71645,15.37762,0
          108.71712,15.37692,0
          108.71744,15.37656,0
          108.71882,15.37508,0
          108.71928,15.3745,0
          108.72086,15.37223,0
          108.72118,15.37172,0
          108.72148,15.37129,0
          108.72224,15.37009,0
          108.72245,15.36973,0
          108.72306,15.36856,0
          108.72372,15.36715,0
          108.72397,15.36652,0
          108.72438,15.36539,0
          108.72448,15.36516,0
          108.72474,15.36448,0
          108.72489,15.36397,0
          108.72536,15.36201,0
          108.72545,15.36158,0
          108.72547,15.36145,0
          108.72548,15.36141,0
          108.72548,15.3614,0
          108.72561,15.3607,0
          108.7258,15.35947,0
          108.72597,15.35818,0
          108.72616,15.35589,0
          108.7262,15.35522,0
          108.7262,15.35512,0
          108.72624,15.3545,0
          108.72624,15.35204,0
          108.7262,15.35041,0
          108.72601,15.34653,0
          108.72577,15.34363,0
          108.72577,15.34357,0
          108.72576,15.34345,0
          108.72575,15.3434,0
          108.72566,15.34224,0
          108.72564,15.34213,0
          108.72557,15.34145,0
          108.72558,15.34092,0
          108.72557,15.3408,0
          108.7255,15.34026,0
          108.72541,15.33897,0
          108.72541,15.33891,0
          108.7254,15.33879,0
          108.72539,15.33873,0
          108.72531,15.33712,0
          108.72531,15.33694,0
          108.7253,15.33682,0
          108.72532,15.33554,0
          108.72536,15.33498,0
          108.72537,15.33448,0
          108.72536,15.33444,0
          108.72535,15.33416,0
          108.72532,15.33382,0
          108.72532,15.33364,0
          108.72543,15.33172,0
          108.72543,15.33159,0
          108.72544,15.33143,0
          108.72545,15.33136,0
          108.72545,15.33128,0
          108.72554,15.33047,0
          108.72558,15.33025,0
          108.7257,15.32938,0
          108.72586,15.32841,0
          108.72588,15.32832,0
          108.72593,15.32799,0
          108.72621,15.32652,0
          108.72678,15.3242,0
          108.72701,15.32342,0
          108.72759,15.32158,0
          108.72806,15.32029,0
          108.72848,15.31921,0
          108.72887,15.31828,0
          108.72909,15.31779,0
          108.72981,15.31629,0
          108.73002,15.31588,0
          108.73004,15.31583,0
          108.731,15.31405,0
          108.73148,15.31322,0
          108.73309,15.31064,0
          108.73348,15.31007,0
          108.73476,15.30812,0
          108.73667,15.30506,0
          108.73816,15.30276,0
          108.73886,15.30174,0
          108.73992,15.3,0
          108.74093,15.29849,0
          108.74132,15.29787,0
          108.74208,15.29672,0
          108.74218,15.29658,0
          108.74223,15.29649,0
          108.74254,15.29601,0
          108.74299,15.29525,0
          108.74337,15.29467,0
          108.74338,15.29464,0
          108.74386,15.29392,0
          108.74483,15.29238,0
          108.74513,15.29193,0
          108.74522,15.29178,0
          108.74523,15.29177,0
          108.74568,15.29102,0
          108.74744,15.28834,0
          108.74869,15.28651,0
          108.749,15.28599,0
          108.74941,15.28522,0
          108.74947,15.28512,0
          108.7502,15.28372,0
          108.75035,15.28333,0
          108.75083,15.28183,0
          108.75105,15.28091,0
          108.75123,15.27986,0
          108.75131,15.27899,0
          108.75134,15.27812,0
          108.75133,15.27739,0
          108.75129,15.27651,0
          108.75114,15.27479,0
          108.75114,15.27475,0
          108.75113,15.27471,0
          108.75113,15.27464,0
          108.75111,15.27435,0
          108.75109,15.27417,0
          108.75109,15.2741,0
          108.75106,15.27381,0
          108.75106,15.27374,0
          108.75103,15.27345,0
          108.75103,15.27338,0
          108.75091,15.27184,0
          108.7509,15.27177,0
          108.75088,15.27148,0
          108.75087,15.27141,0
          108.75085,15.27112,0
          108.75084,15.27105,0
          108.75075,15.26987,0
          108.75075,15.2698,0
          108.75068,15.26897,0
          108.75068,15.26894,0
          108.75067,15.2689,0
          108.75032,15.2647,0
          108.75031,15.26445,0
          108.75019,15.26302,0
          108.75017,15.26266,0
          108.74983,15.2585,0
          108.74983,15.25846,0
          108.74981,15.25832,0
          108.7498,15.25811,0
          108.74972,15.25725,0
          108.74972,15.25721,0
          108.74966,15.25649,0
          108.74964,15.25635,0
          108.74964,15.25631,0
          108.7496,15.25588,0
        </coordinates>
      </LineString>
    </Placemark>
    <Placemark>
      <name>16.144050 107.836510</name>
      <styleUrl>#icon-1899-DB4436-nodesc</styleUrl>
      <Point>
        <coordinates>
          107.8348422,16.1440024,0
        </coordinates>
      </Point>
    </Placemark>
    <Placemark>
      <name>15.255450 108.749570</name>
      <styleUrl>#icon-1899-DB4436-nodesc</styleUrl>
      <Point>
        <coordinates>
          108.7496035,15.2558831,0
        </coordinates>
      </Point>
    </Placemark>
  </Document>
</kml>
