<?xml version="1.0" encoding="UTF-8"?>
<kml xmlns="http://www.opengis.net/kml/2.2">
  <Document>
    <name>goithau-50</name>
    <Style id="icon-1899-DB4436-nodesc-normal">
      <IconStyle>
        <color>ff3644db</color>
        <scale>1</scale>
        <Icon>
          <href>https://www.gstatic.com/mapspro/images/stock/503-wht-blank_maps.png</href>
        </Icon>
        <hotSpot x="32" xunits="pixels" y="64" yunits="insetPixels"/>
      </IconStyle>
      <LabelStyle>
        <scale>0</scale>
      </LabelStyle>
      <BalloonStyle>
        <text><![CDATA[<h3>$[name]</h3>]]></text>
      </BalloonStyle>
    </Style>
    <Style id="icon-1899-DB4436-nodesc-highlight">
      <IconStyle>
        <color>ff3644db</color>
        <scale>1</scale>
        <Icon>
          <href>https://www.gstatic.com/mapspro/images/stock/503-wht-blank_maps.png</href>
        </Icon>
        <hotSpot x="32" xunits="pixels" y="64" yunits="insetPixels"/>
      </IconStyle>
      <LabelStyle>
        <scale>1</scale>
      </LabelStyle>
      <BalloonStyle>
        <text><![CDATA[<h3>$[name]</h3>]]></text>
      </BalloonStyle>
    </Style>
    <StyleMap id="icon-1899-DB4436-nodesc">
      <Pair>
        <key>normal</key>
        <styleUrl>#icon-1899-DB4436-nodesc-normal</styleUrl>
      </Pair>
      <Pair>
        <key>highlight</key>
        <styleUrl>#icon-1899-DB4436-nodesc-highlight</styleUrl>
      </Pair>
    </StyleMap>
    <Style id="line-1267FF-5000-nodesc-normal">
      <LineStyle>
        <color>ffff6712</color>
        <width>5</width>
      </LineStyle>
      <BalloonStyle>
        <text><![CDATA[<h3>$[name]</h3>]]></text>
      </BalloonStyle>
    </Style>
    <Style id="line-1267FF-5000-nodesc-highlight">
      <LineStyle>
        <color>ffff6712</color>
        <width>7.5</width>
      </LineStyle>
      <BalloonStyle>
        <text><![CDATA[<h3>$[name]</h3>]]></text>
      </BalloonStyle>
    </Style>
    <StyleMap id="line-1267FF-5000-nodesc">
      <Pair>
        <key>normal</key>
        <styleUrl>#line-1267FF-5000-nodesc-normal</styleUrl>
      </Pair>
      <Pair>
        <key>highlight</key>
        <styleUrl>#line-1267FF-5000-nodesc-highlight</styleUrl>
      </Pair>
    </StyleMap>
    <Placemark>
      <name>goithau-50</name>
      <styleUrl>#line-1267FF-5000-nodesc</styleUrl>
      <LineString>
        <tessellate>1</tessellate>
        <coordinates>
          109.14319,13.83074,0
          109.14294,13.83146,0
          109.14112,13.83613,0
          109.14109,13.83619,0
          109.14109,13.8362,0
          109.14061,13.83752,0
          109.13994,13.83924,0
          109.13988,13.83947,0
          109.13987,13.83948,0
          109.1383,13.84365,0
          109.13693,13.84743,0
          109.13614,13.84949,0
          109.13585,13.85033,0
          109.13583,13.85037,0
          109.13593,13.85039,0
          109.13624,13.85048,0
          109.13677,13.85076,0
          109.13685,13.85066,0
          109.13682,13.85054,0
          109.13674,13.85061,0
          109.13677,13.85076,0
          109.13624,13.85048,0
          109.13593,13.85039,0
          109.13583,13.85037,0
          109.13575,13.85034,0
          109.13605,13.84946,0
          109.1364,13.84861,0
          109.13788,13.84449,0
          109.13823,13.84362,0
          109.13978,13.83941,0
          109.13978,13.8394,0
          109.13984,13.8392,0
          109.14084,13.83664,0
          109.141,13.83617,0
          109.14101,13.83616,0
          109.14103,13.83609,0
          109.14263,13.83198,0
          109.14267,13.83191,0
          109.14284,13.83147,0
          109.14285,13.83143,0
          109.14309,13.8308,0
          109.14526,13.82344,0
          109.14552,13.82263,0
          109.14571,13.8218,0
          109.14591,13.82109,0
          109.14595,13.82091,0
          109.14618,13.82013,0
          109.14622,13.81993,0
          109.14625,13.81982,0
          109.14626,13.81981,0
          109.14636,13.81936,0
          109.14636,13.81935,0
          109.14651,13.81886,0
          109.14651,13.81884,0
          109.14673,13.81804,0
          109.14674,13.81802,0
          109.14686,13.81756,0
          109.14686,13.81753,0
          109.14687,13.81751,0
          109.1469,13.81738,0
          109.1469,13.81736,0
          109.14691,13.81734,0
          109.147,13.81684,0
          109.147,13.81682,0
          109.14706,13.8165,0
          109.14708,13.8163,0
          109.14711,13.81612,0
          109.14715,13.8154,0
          109.14716,13.81539,0
          109.14717,13.81522,0
          109.14708,13.81067,0
          109.14708,13.80769,0
          109.14711,13.80733,0
          109.14724,13.8064,0
          109.14729,13.80614,0
          109.14744,13.80473,0
          109.14746,13.80436,0
          109.14751,13.80069,0
          109.1475,13.79991,0
          109.14751,13.79987,0
          109.14751,13.79868,0
          109.14757,13.79741,0
          109.14759,13.7955,0
          109.14762,13.79544,0
          109.14764,13.79481,0
          109.14767,13.79478,0
          109.14769,13.79471,0
          109.14771,13.7946,0
          109.14777,13.79448,0
          109.14786,13.79434,0
          109.14797,13.7942,0
          109.14814,13.79405,0
          109.14838,13.79389,0
          109.14872,13.79375,0
          109.14884,13.79371,0
          109.14899,13.79364,0
          109.14914,13.79355,0
          109.15022,13.79362,0
          109.15326,13.79374,0
          109.15331,13.79375,0
          109.15573,13.79384,0
          109.15599,13.79384,0
          109.16112,13.79404,0
          109.16228,13.79404,0
          109.16233,13.79399,0
          109.16234,13.79399,0
          109.16241,13.79396,0
          109.16244,13.79396,0
          109.16247,13.79395,0
          109.1625,13.79396,0
          109.16252,13.79396,0
          109.16258,13.79398,0
          109.1626,13.79399,0
          109.16261,13.794,0
          109.16265,13.79402,0
          109.16267,13.79404,0
          109.16285,13.79402,0
          109.16307,13.79404,0
          109.16541,13.79396,0
          109.16716,13.79394,0
          109.16739,13.79392,0
          109.16761,13.79386,0
          109.16787,13.79376,0
          109.16817,13.79361,0
          109.16848,13.79342,0
          109.17013,13.79219,0
          109.17015,13.79218,0
          109.1702,13.79214,0
          109.17153,13.79127,0
          109.17176,13.79117,0
          109.17232,13.79096,0
          109.17279,13.79082,0
          109.17338,13.79068,0
          109.17368,13.79056,0
          109.17398,13.79042,0
          109.17411,13.79034,0
          109.17431,13.79018,0
          109.17451,13.79,0
          109.17451,13.78999,0
          109.17551,13.789,0
          109.17642,13.78799,0
          109.1769,13.78741,0
          109.17691,13.78741,0
          109.17716,13.78712,0
          109.17751,13.78676,0
          109.1781,13.78623,0
          109.17845,13.78595,0
          109.17881,13.78556,0
          109.17905,13.78522,0
          109.18061,13.78227,0
          109.18086,13.78184,0
          109.18088,13.78182,0
          109.18096,13.78168,0
          109.18099,13.78165,0
          109.18107,13.78155,0
          109.18111,13.78152,0
          109.18122,13.7814,0
          109.18137,13.78126,0
          109.18166,13.78103,0
          109.18228,13.78062,0
          109.18298,13.78021,0
          109.18328,13.77998,0
          109.1838,13.77948,0
          109.18402,13.77923,0
          109.18412,13.77913,0
          109.18592,13.77702,0
          109.18624,13.77653,0
          109.18632,13.77636,0
          109.1864,13.77616,0
          109.18645,13.77597,0
          109.18655,13.77545,0
          109.18658,13.77475,0
          109.18663,13.77413,0
          109.18665,13.77404,0
          109.18665,13.77401,0
          109.18669,13.77382,0
          109.18678,13.77353,0
          109.18735,13.7724,0
          109.18765,13.77194,0
          109.1878,13.77178,0
          109.18806,13.77156,0
          109.18827,13.7714,0
          109.18838,13.77133,0
          109.18982,13.77071,0
          109.19085,13.77031,0
          109.19186,13.76988,0
          109.19468,13.76875,0
          109.19501,13.76858,0
          109.19519,13.76851,0
          109.19676,13.76808,0
          109.19713,13.76794,0
          109.19752,13.76772,0
          109.19766,13.76762,0
          109.19786,13.76742,0
          109.19799,13.76727,0
          109.19821,13.76693,0
          109.19836,13.76665,0
          109.19866,13.76585,0
          109.19874,13.76568,0
          109.19888,13.76533,0
          109.19915,13.76478,0
          109.19939,13.76441,0
          109.19953,13.76425,0
          109.20004,13.76383,0
          109.20064,13.76321,0
          109.20118,13.76262,0
          109.20143,13.76238,0
          109.20215,13.76161,0
          109.20216,13.76159,0
          109.2026,13.76116,0
          109.20294,13.76088,0
          109.20335,13.76064,0
          109.20482,13.75994,0
          109.20517,13.75973,0
          109.20536,13.75959,0
          109.20552,13.75945,0
          109.20558,13.75938,0
          109.20579,13.75908,0
          109.20589,13.75885,0
          109.2066,13.7576,0
          109.20661,13.75757,0
          109.20703,13.75688,0
          109.20771,13.75593,0
          109.20801,13.75542,0
          109.20806,13.75535,0
          109.20809,13.75526,0
          109.20809,13.75518,0
          109.2081,13.75517,0
          109.2081,13.75516,0
          109.20811,13.75515,0
          109.20811,13.75514,0
          109.20812,13.75513,0
          109.20812,13.75512,0
          109.20813,13.75512,0
          109.20816,13.75509,0
          109.20817,13.75509,0
          109.20817,13.75508,0
          109.20818,13.75508,0
          109.20819,13.75507,0
          109.20822,13.75452,0
          109.20821,13.75426,0
          109.20804,13.75252,0
          109.20786,13.75157,0
          109.20775,13.7511,0
          109.20752,13.75044,0
          109.20749,13.75029,0
          109.20727,13.74958,0
          109.2071,13.74893,0
          109.20701,13.74841,0
          109.20694,13.74782,0
          109.20686,13.74659,0
          109.20683,13.74632,0
          109.20679,13.74553,0
          109.2068,13.74546,0
          109.20683,13.74496,0
          109.20698,13.74422,0
          109.20718,13.74358,0
          109.20725,13.74324,0
          109.20726,13.74323,0
          109.20727,13.74311,0
          109.20731,13.74289,0
          109.2075,13.74096,0
          109.2075,13.7409,0
          109.20756,13.74027,0
          109.20759,13.74007,0
          109.20765,13.73925,0
          109.20761,13.73807,0
          109.20765,13.73774,0
          109.2078,13.73724,0
          109.20782,13.73721,0
          109.2079,13.73702,0
          109.20826,13.73631,0
          109.20838,13.7361,0
          109.20848,13.73589,0
          109.20862,13.73564,0
          109.20879,13.73542,0
          109.20906,13.73516,0
          109.20921,13.73504,0
          109.20992,13.73458,0
          109.21008,13.73442,0
          109.21014,13.73435,0
          109.21021,13.73425,0
          109.2103,13.73406,0
          109.21034,13.73389,0
          109.21036,13.7337,0
          109.21035,13.73358,0
          109.21032,13.73344,0
          109.21018,13.7331,0
          109.21012,13.73301,0
          109.2096,13.73241,0
          109.20948,13.73222,0
          109.20912,13.73132,0
          109.20911,13.73128,0
          109.20905,13.73114,0
          109.20899,13.73103,0
          109.20887,13.73086,0
          109.20883,13.73082,0
          109.2088,13.73077,0
          109.2084,13.73037,0
          109.20823,13.73016,0
          109.20812,13.72992,0
          109.2081,13.72983,0
          109.20809,13.72981,0
          109.20807,13.7297,0
          109.20805,13.72946,0
          109.20806,13.72937,0
          109.20812,13.72917,0
          109.20856,13.72805,0
          109.2086,13.72791,0
          109.20862,13.72762,0
          109.20859,13.72744,0
          109.20856,13.72734,0
          109.20851,13.72721,0
          109.20827,13.72676,0
          109.20822,13.72665,0
          109.20816,13.72645,0
          109.20815,13.72644,0
          109.20813,13.72632,0
          109.20812,13.72618,0
          109.20814,13.72594,0
          109.20819,13.72574,0
          109.20826,13.72556,0
          109.20826,13.72554,0
          109.2085,13.72492,0
          109.20852,13.72483,0
          109.20853,13.72473,0
          109.20853,13.72451,0
          109.20851,13.72436,0
          109.20844,13.72414,0
          109.20838,13.724,0
          109.20822,13.72374,0
          109.20807,13.72358,0
          109.20806,13.72358,0
          109.20796,13.72349,0
          109.20782,13.72341,0
          109.20761,13.72333,0
          109.20741,13.72329,0
          109.20686,13.72326,0
          109.20667,13.72326,0
          109.2061,13.72322,0
          109.20595,13.7232,0
          109.2058,13.72316,0
          109.20565,13.7231,0
          109.20549,13.72299,0
          109.20529,13.72279,0
          109.20511,13.72253,0
          109.20493,13.72214,0
          109.20446,13.72098,0
          109.20441,13.7208,0
          109.20438,13.72051,0
          109.20445,13.72017,0
          109.20448,13.72009,0
          109.20458,13.71989,0
          109.20466,13.71976,0
          109.20485,13.71955,0
          109.20633,13.71858,0
          109.20744,13.7179,0
          109.20791,13.71759,0
          109.20806,13.71748,0
          109.20816,13.71737,0
          109.20826,13.71723,0
          109.20833,13.71708,0
          109.2084,13.7169,0
          109.20846,13.71663,0
          109.20886,13.7138,0
          109.20887,13.71366,0
          109.20893,13.71339,0
          109.20893,13.71337,0
          109.20898,13.71322,0
          109.20907,13.71306,0
          109.20917,13.71292,0
          109.20917,13.71291,0
          109.20928,13.7128,0
          109.2094,13.71271,0
          109.20958,13.71261,0
          109.20975,13.71254,0
          109.21057,13.71232,0
          109.21097,13.71225,0
          109.21114,13.71224,0
          109.21127,13.71225,0
          109.21149,13.71229,0
          109.21151,13.7123,0
          109.21165,13.71234,0
          109.21195,13.71249,0
          109.21209,13.71258,0
          109.21288,13.71323,0
          109.21312,13.71341,0
          109.21348,13.71371,0
          109.21378,13.71394,0
          109.21387,13.714,0
          109.2141,13.71411,0
          109.21423,13.71414,0
          109.21436,13.71415,0
          109.21438,13.71416,0
          109.21454,13.71417,0
          109.21473,13.71415,0
          109.21483,13.71413,0
          109.21588,13.71374,0
          109.21667,13.71342,0
          109.21672,13.71341,0
          109.21688,13.71336,0
          109.21704,13.71333,0
          109.21708,13.71333,0
          109.21716,13.71332,0
          109.21914,13.71327,0
          109.21922,13.71326,0
          109.21927,13.71324,0
          109.21944,13.71319,0
          109.21963,13.71309,0
          109.21964,13.71308,0
          109.21969,13.71305,0
          109.21987,13.71289,0
          109.21998,13.71276,0
          109.22045,13.71211,0
          109.22045,13.7121,0
          109.22076,13.71167,0
          109.22081,13.71161,0
          109.22101,13.71132,0
          109.22103,13.71128,0
          109.22119,13.71106,0
          109.22125,13.71093,0
          109.22125,13.71091,0
          109.22127,13.71086,0
          109.22131,13.71068,0
          109.22132,13.71057,0
          109.22132,13.71046,0
          109.22129,13.71025,0
          109.22103,13.70951,0
          109.22101,13.70948,0
          109.22088,13.70917,0
          109.22088,13.70915,0
          109.22083,13.70897,0
          109.22082,13.70888,0
          109.22082,13.70865,0
          109.22086,13.70848,0
          109.22101,13.70796,0
          109.22132,13.70707,0
          109.22196,13.70557,0
          109.22201,13.7054,0
          109.22201,13.70539,0
          109.22203,13.70529,0
          109.22204,13.70504,0
          109.22202,13.70464,0
          109.22202,13.70437,0
          109.22203,13.70429,0
          109.22203,13.70421,0
          109.22205,13.70411,0
          109.22259,13.70236,0
          109.22265,13.70209,0
          109.22265,13.70194,0
          109.22263,13.70176,0
          109.22263,13.70171,0
          109.22261,13.70165,0
          109.2226,13.7016,0
          109.22257,13.70154,0
          109.222,13.70011,0
          109.22199,13.7001,0
          109.22195,13.69995,0
          109.22192,13.6997,0
          109.22192,13.69963,0
          109.22195,13.6994,0
          109.22203,13.69918,0
          109.22208,13.69907,0
          109.22218,13.69893,0
          109.22232,13.69879,0
          109.22243,13.6987,0
          109.22329,13.69808,0
          109.22368,13.69778,0
          109.22392,13.69756,0
          109.22404,13.69743,0
          109.22412,13.69733,0
          109.22451,13.69677,0
          109.22508,13.69581,0
          109.22515,13.69563,0
          109.2253,13.69502,0
          109.22551,13.6939,0
          109.22556,13.6937,0
          109.22583,13.69282,0
          109.22585,13.69273,0
          109.22586,13.69271,0
          109.22588,13.69258,0
          109.22589,13.69255,0
          109.22589,13.6925,0
          109.2259,13.69243,0
          109.2259,13.69234,0
          109.22588,13.6922,0
          109.22588,13.69218,0
          109.22583,13.69202,0
          109.22515,13.69055,0
          109.22509,13.69037,0
          109.22506,13.69018,0
          109.22507,13.68996,0
          109.22522,13.68928,0
          109.22531,13.68879,0
          109.22533,13.68862,0
          109.22536,13.68856,0
          109.22538,13.68847,0
          109.22545,13.68833,0
          109.22561,13.68811,0
          109.22573,13.68799,0
          109.22634,13.68753,0
          109.22651,13.68742,0
          109.22667,13.68733,0
          109.22689,13.68724,0
          109.2271,13.68717,0
          109.2279,13.68696,0
          109.2282,13.68682,0
          109.22836,13.68671,0
          109.22851,13.68658,0
          109.22867,13.68641,0
          109.2293,13.68565,0
          109.22981,13.68498,0
          109.22989,13.68483,0
          109.23009,13.68438,0
          109.23015,13.6842,0
          109.23057,13.68316,0
          109.23073,13.68287,0
          109.23154,13.68162,0
          109.23154,13.68161,0
          109.23162,13.6815,0
          109.23175,13.68122,0
          109.23189,13.68087,0
          109.2326,13.67886,0
          109.23268,13.67867,0
          109.23271,13.67862,0
          109.23292,13.67812,0
          109.23305,13.67785,0
          109.23329,13.67727,0
          109.23334,13.67712,0
          109.23336,13.67703,0
          109.23336,13.677,0
          109.23337,13.67694,0
          109.23337,13.6768,0
          109.23335,13.6766,0
          109.23302,13.67541,0
          109.23297,13.67526,0
          109.23288,13.67491,0
          109.23277,13.67455,0
          109.23276,13.67449,0
          109.23272,13.67435,0
          109.23271,13.67425,0
          109.23272,13.67399,0
          109.23273,13.67392,0
          109.23275,13.67386,0
          109.23275,13.67385,0
          109.23277,13.6738,0
          109.23279,13.67373,0
          109.23289,13.67353,0
          109.23292,13.67349,0
          109.23314,13.67305,0
          109.23318,13.67291,0
          109.2332,13.67281,0
          109.23321,13.67257,0
          109.23316,13.67231,0
          109.23311,13.67217,0
          109.23298,13.67195,0
          109.23298,13.67194,0
          109.23289,13.67183,0
          109.23286,13.67181,0
          109.23278,13.67173,0
          109.23264,13.67163,0
          109.23253,13.67158,0
          109.23244,13.67153,0
          109.23216,13.67146,0
          109.23186,13.67146,0
          109.2312,13.67158,0
          109.23117,13.67158,0
          109.22983,13.67183,0
          109.22975,13.67183,0
          109.22967,13.67184,0
          109.22957,13.67184,0
          109.22946,13.67183,0
          109.22921,13.67177,0
          109.2291,13.67172,0
          109.22898,13.67165,0
          109.2289,13.67159,0
          109.22874,13.67144,0
          109.22868,13.67137,0
          109.22861,13.67126,0
          109.22849,13.67096,0
          109.22846,13.67082,0
          109.22841,13.66815,0
          109.22842,13.66784,0
          109.22851,13.6669,0
          109.22886,13.66485,0
          109.22897,13.6643,0
          109.22924,13.66315,0
          109.22926,13.66299,0
          109.22927,13.66264,0
          109.2293,13.66224,0
          109.22931,13.66221,0
          109.22958,13.6607,0
          109.22964,13.6605,0
          109.22973,13.66025,0
          109.22996,13.6597,0
          109.2301,13.65944,0
          109.23071,13.65847,0
          109.23072,13.65846,0
          109.2311,13.65787,0
          109.23119,13.6577,0
          109.23124,13.65757,0
          109.23128,13.65741,0
          109.23129,13.65709,0
          109.23127,13.65698,0
          109.23126,13.65697,0
          109.23122,13.65683,0
          109.23109,13.65657,0
          109.231,13.65645,0
          109.23089,13.65633,0
          109.23079,13.65625,0
          109.23075,13.65623,0
          109.23064,13.65616,0
          109.23063,13.65616,0
          109.23062,13.65615,0
          109.2305,13.65609,0
          109.23036,13.65604,0
          109.23028,13.65602,0
          109.23006,13.656,0
          109.22848,13.65608,0
          109.22828,13.65608,0
          109.22789,13.65602,0
          109.2278,13.65599,0
          109.22766,13.65593,0
          109.2274,13.65579,0
          109.2272,13.65565,0
          109.22696,13.65541,0
          109.22686,13.65527,0
          109.22674,13.65506,0
          109.22644,13.65444,0
          109.226,13.65345,0
          109.22594,13.65314,0
          109.22595,13.65298,0
          109.22597,13.65283,0
          109.22601,13.65267,0
          109.22606,13.65253,0
          109.22612,13.65241,0
          109.22623,13.65223,0
          109.22638,13.65206,0
          109.2281,13.65049,0
          109.22824,13.65032,0
          109.22833,13.65015,0
          109.22834,13.65014,0
          109.22842,13.64997,0
          109.22851,13.64965,0
          109.22852,13.64951,0
          109.22851,13.64935,0
          109.22843,13.64866,0
          109.22843,13.64843,0
          109.22844,13.64828,0
          109.22849,13.64801,0
          109.22874,13.6472,0
          109.22878,13.64701,0
          109.2288,13.64684,0
          109.2288,13.64675,0
          109.22879,13.64665,0
          109.22874,13.64649,0
          109.22866,13.64634,0
          109.22856,13.64619,0
          109.22842,13.64607,0
          109.22833,13.64601,0
          109.22832,13.646,0
          109.22822,13.64595,0
          109.22821,13.64594,0
          109.2281,13.6459,0
          109.22793,13.64586,0
          109.22772,13.64587,0
          109.2275,13.64593,0
          109.22727,13.64605,0
          109.2272,13.64613,0
          109.22715,13.64617,0
          109.22682,13.64652,0
          109.22682,13.64653,0
          109.22642,13.64697,0
          109.2264,13.647,0
          109.22608,13.64733,0
          109.22577,13.64758,0
          109.22559,13.64767,0
          109.22547,13.64771,0
          109.22535,13.64773,0
          109.2252,13.64774,0
          109.22506,13.64774,0
          109.2249,13.64771,0
          109.22479,13.64768,0
          109.22462,13.64761,0
          109.2245,13.64754,0
          109.22441,13.64747,0
          109.22422,13.6473,0
          109.22416,13.64723,0
          109.2241,13.64713,0
          109.22404,13.64701,0
          109.22398,13.64685,0
          109.2229,13.64197,0
          109.22284,13.64156,0
          109.22282,13.64134,0
          109.22283,13.64095,0
          109.22288,13.64051,0
          109.22296,13.64019,0
          109.22314,13.63972,0
          109.22327,13.63945,0
          109.22489,13.63658,0
          109.2253,13.63577,0
          109.22566,13.63497,0
          109.22616,13.63367,0
          109.22861,13.6258,0
          109.22861,13.62577,0
          109.23239,13.61354,0
          109.2324,13.61349,0
          109.23484,13.60569,0
          109.23484,13.60568,0
          109.23553,13.60366,0
          109.23554,13.60366,0
          109.23555,13.60362,0
          109.23556,13.60361,0
          109.23612,13.60224,0
          109.23616,13.60216,0
          109.23622,13.60198,0
          109.23634,13.60169,0
          109.2364,13.60152,0
          109.23754,13.59869,0
          109.23786,13.59796,0
          109.23808,13.59754,0
          109.23838,13.59707,0
          109.23853,13.59686,0
          109.23895,13.59636,0
          109.23992,13.59528,0
          109.24005,13.59515,0
          109.24237,13.59259,0
          109.24246,13.59248,0
          109.24285,13.59206,0
          109.24335,13.59148,0
          109.2435,13.59128,0
          109.24375,13.59091,0
          109.24392,13.59062,0
          109.24488,13.58879,0
          109.24629,13.58597,0
          109.24658,13.58534,0
          109.24675,13.58489,0
          109.24681,13.58469,0
          109.24721,13.58287,0
          109.24724,13.58269,0
          109.24726,13.58263,0
          109.24759,13.58098,0
          109.24761,13.58093,0
          109.24876,13.57534,0
          109.24881,13.57498,0
          109.24883,13.57471,0
          109.24881,13.57446,0
          109.24878,13.57429,0
          109.24864,13.57384,0
          109.24843,13.57341,0
          109.24817,13.57299,0
          109.24773,13.57222,0
          109.24671,13.57053,0
          109.24659,13.57029,0
          109.24608,13.56943,0
          109.24579,13.56887,0
          109.24571,13.56868,0
          109.24569,13.56861,0
          109.24569,13.56841,0
          109.24575,13.56815,0
          109.24573,13.56809,0
          109.24577,13.56778,0
          109.24577,13.56764,0
          109.24575,13.56745,0
          109.2457,13.56724,0
          109.24549,13.56655,0
          109.24538,13.56612,0
          109.24536,13.56599,0
          109.24532,13.56581,0
          109.24512,13.56462,0
          109.2451,13.56441,0
          109.2451,13.56423,0
          109.24512,13.56399,0
          109.24515,13.56379,0
          109.24554,13.56224,0
          109.24559,13.56209,0
          109.24564,13.56183,0
          109.24567,13.5616,0
          109.24566,13.56134,0
          109.24557,13.56105,0
          109.24543,13.5608,0
          109.24525,13.56058,0
          109.24262,13.55792,0
          109.24222,13.55749,0
          109.24219,13.55747,0
          109.24189,13.55714,0
          109.24171,13.55684,0
          109.24166,13.55673,0
          109.24162,13.55656,0
          109.24157,13.55626,0
          109.24158,13.55601,0
          109.24169,13.55559,0
          109.24174,13.55545,0
          109.24236,13.55429,0
          109.24246,13.55414,0
          109.2426,13.55399,0
          109.24285,13.5538,0
          109.24318,13.55363,0
          109.24425,13.55317,0
          109.24476,13.55293,0
          109.24513,13.55273,0
          109.24558,13.55238,0
          109.24614,13.55187,0
          109.2466,13.55152,0
          109.2471,13.55125,0
          109.24877,13.55057,0
          109.24901,13.55046,0
          109.25014,13.54982,0
          109.25036,13.54966,0
          109.25057,13.54949,0
          109.25082,13.54918,0
          109.25105,13.54875,0
          109.25112,13.54856,0
          109.25115,13.54841,0
          109.2512,13.54823,0
          109.25124,13.5476,0
          109.25127,13.54736,0
          109.2513,13.54688,0
          109.25134,13.54652,0
          109.25137,13.54575,0
          109.25138,13.54565,0
          109.25138,13.54557,0
          109.25135,13.54524,0
          109.25114,13.54445,0
          109.25106,13.54402,0
          109.25106,13.54388,0
          109.25108,13.54374,0
          109.25116,13.54348,0
          109.2513,13.54319,0
          109.25141,13.54301,0
          109.25168,13.54268,0
          109.2518,13.54255,0
          109.25215,13.54206,0
          109.25234,13.54169,0
          109.25245,13.54134,0
          109.25253,13.54094,0
          109.25276,13.53931,0
          109.25295,13.53828,0
          109.25302,13.53778,0
          109.25303,13.53761,0
          109.253,13.53738,0
          109.25296,13.53721,0
          109.25287,13.53697,0
          109.25277,13.53674,0
          109.25265,13.53657,0
          109.25248,13.53636,0
          109.25227,13.53619,0
          109.25205,13.53606,0
          109.25198,13.53601,0
          109.25128,13.53564,0
          109.25088,13.5354,0
          109.25069,13.53525,0
          109.25054,13.53509,0
          109.25023,13.53469,0
          109.25009,13.53444,0
          109.24997,13.53419,0
          109.24991,13.53398,0
          109.24972,13.53305,0
          109.24927,13.53114,0
          109.24913,13.53079,0
          109.24908,13.53069,0
          109.24904,13.53063,0
          109.24898,13.53052,0
          109.2483,13.5296,0
          109.24799,13.52915,0
          109.24784,13.52888,0
          109.24757,13.5282,0
          109.24756,13.52819,0
          109.2475,13.52806,0
          109.24739,13.52786,0
          109.24712,13.52744,0
          109.24699,13.5273,0
          109.2468,13.52712,0
          109.24649,13.52689,0
          109.24629,13.52677,0
          109.24579,13.5265,0
          109.24557,13.52634,0
          109.24539,13.52619,0
          109.24513,13.52593,0
          109.24496,13.52572,0
          109.2448,13.52549,0
          109.2447,13.5253,0
          109.24457,13.525,0
          109.2445,13.52476,0
          109.24446,13.52455,0
          109.24442,13.52414,0
          109.24442,13.52397,0
          109.24444,13.52372,0
          109.24447,13.5235,0
          109.24511,13.52044,0
          109.24521,13.52009,0
          109.2453,13.51984,0
          109.2454,13.51962,0
          109.24563,13.5193,0
          109.24576,13.51915,0
          109.24591,13.51902,0
          109.24628,13.51875,0
          109.24645,13.51866,0
          109.24741,13.51825,0
          109.2482,13.51788,0
          109.24837,13.51774,0
          109.24843,13.5177,0
          109.24868,13.51738,0
          109.24877,13.51721,0
          109.24884,13.51705,0
          109.24891,13.51681,0
          109.24894,13.51655,0
          109.24894,13.51642,0
          109.24892,13.51626,0
          109.24888,13.51606,0
          109.2488,13.51583,0
          109.24871,13.51566,0
          109.24757,13.51372,0
          109.24744,13.51344,0
          109.24739,13.51323,0
          109.24739,13.51322,0
          109.24736,13.51311,0
          109.24736,13.51285,0
          109.2474,13.51251,0
          109.24741,13.5125,0
          109.24743,13.51234,0
          109.2477,13.51126,0
          109.2479,13.51069,0
          109.24797,13.51044,0
          109.24806,13.50995,0
          109.2483,13.50915,0
          109.24839,13.50859,0
          109.24842,13.50767,0
          109.24842,13.50644,0
          109.24845,13.50611,0
          109.24849,13.50585,0
          109.24859,13.50537,0
          109.249,13.50393,0
          109.24907,13.5036,0
          109.24907,13.50351,0
          109.24911,13.5032,0
          109.24912,13.50299,0
          109.24911,13.50273,0
          109.24908,13.50245,0
          109.24899,13.50198,0
          109.24888,13.50156,0
          109.24877,13.50131,0
          109.24852,13.50083,0
          109.24836,13.50058,0
          109.24818,13.50034,0
          109.24787,13.50001,0
          109.24739,13.49958,0
          109.24643,13.4988,0
          109.2462,13.49867,0
          109.24602,13.49859,0
          109.24575,13.49851,0
          109.24547,13.49847,0
          109.24526,13.49847,0
          109.24378,13.49857,0
          109.2435,13.49855,0
          109.24313,13.49849,0
          109.24276,13.49839,0
          109.24239,13.49822,0
          109.24048,13.49717,0
          109.24006,13.49688,0
          109.23994,13.49676,0
          109.23976,13.49644,0
          109.23964,13.49599,0
          109.23957,13.49562,0
          109.23946,13.49485,0
          109.2394,13.4946,0
          109.23932,13.49437,0
          109.23924,13.49419,0
          109.23901,13.49378,0
          109.23892,13.49365,0
          109.23892,13.49363,0
          109.23875,13.49327,0
          109.23866,13.49296,0
          109.23866,13.49293,0
          109.23861,13.49273,0
          109.2386,13.4926,0
          109.23861,13.49239,0
          109.23864,13.49217,0
          109.23869,13.49197,0
          109.23886,13.49155,0
          109.23912,13.49104,0
          109.23951,13.49021,0
          109.2396,13.48998,0
          109.23965,13.48979,0
          109.23967,13.48964,0
          109.23967,13.48942,0
          109.23965,13.48927,0
          109.23959,13.48909,0
          109.23953,13.48897,0
          109.23944,13.48882,0
          109.23936,13.48873,0
          109.23916,13.48856,0
          109.23895,13.48844,0
          109.2388,13.48837,0
          109.23708,13.4878,0
          109.2369,13.48772,0
          109.23587,13.48741,0
          109.23405,13.48681,0
          109.23378,13.48668,0
          109.23363,13.48662,0
          109.23344,13.48652,0
          109.23296,13.48622,0
          109.23255,13.48593,0
          109.23239,13.4858,0
          109.23207,13.48551,0
          109.23144,13.48486,0
          109.23088,13.48418,0
          109.23053,13.48371,0
          109.22814,13.48081,0
          109.22802,13.48063,0
          109.22787,13.48033,0
          109.22782,13.48018,0
          109.22775,13.47979,0
          109.22774,13.47949,0
          109.22775,13.47927,0
          109.22785,13.47883,0
          109.22794,13.47862,0
          109.22819,13.47813,0
          109.22847,13.47751,0
          109.22869,13.47694,0
          109.22904,13.4759,0
          109.2292,13.47547,0
          109.22942,13.47479,0
          109.22952,13.4744,0
          109.2296,13.47391,0
          109.22961,13.47331,0
          109.22954,13.47215,0
          109.22954,13.47196,0
          109.22945,13.47109,0
          109.22935,13.47062,0
          109.22903,13.46937,0
          109.22881,13.46881,0
          109.22789,13.46672,0
          109.22743,13.46559,0
          109.22736,13.46548,0
          109.22729,13.46535,0
          109.2271,13.46506,0
          109.22683,13.46473,0
          109.22574,13.46355,0
          109.22558,13.46341,0
          109.22565,13.46334,0
          109.22562,13.46328,0
          109.22525,13.46289,0
          109.22454,13.46206,0
          109.22205,13.45889,0
          109.22204,13.45886,0
          109.22194,13.45871,0
          109.22178,13.45815,0
          109.22171,13.45785,0
          109.22167,13.45772,0
          109.22142,13.45658,0
          109.22137,13.45641,0
          109.22101,13.45475,0
          109.22064,13.45434,0
          109.22045,13.45415,0
          109.22038,13.45404,0
          109.21975,13.45243,0
          109.21964,13.45227,0
          109.21947,13.45208,0
          109.21862,13.45149,0
          109.21843,13.45132,0
          109.21826,13.45109,0
          109.21815,13.45091,0
          109.21716,13.44892,0
          109.21683,13.44837,0
          109.21611,13.44725,0
          109.21592,13.44691,0
          109.21574,13.44644,0
          109.21552,13.44571,0
          109.21548,13.44552,0
          109.21547,13.44526,0
          109.21548,13.44523,0
          109.21552,13.44498,0
          109.21557,13.44479,0
          109.21565,13.44462,0
          109.2159,13.44418,0
          109.21607,13.44395,0
          109.21622,13.4437,0
          109.21671,13.44252,0
          109.21694,13.44178,0
          109.21697,13.44154,0
          109.21707,13.43945,0
          109.21721,13.43764,0
          109.21738,13.43465,0
          109.21743,13.43418,0
          109.21746,13.43348,0
          109.21743,13.43325,0
          109.21735,13.43287,0
          109.21711,13.43212,0
          109.21706,13.4319,0
          109.21701,13.43173,0
          109.21663,13.43007,0
          109.21653,13.42955,0
          109.21595,13.427,0
          109.21594,13.42698,0
          109.21575,13.42612,0
          109.21569,13.42603,0
          109.21563,13.42582,0
          109.21547,13.4251,0
          109.21464,13.42261,0
          109.21456,13.42229,0
          109.2145,13.42197,0
          109.21443,13.42172,0
          109.21443,13.42169,0
          109.21406,13.41909,0
          109.2139,13.41773,0
          109.21383,13.41738,0
          109.21363,13.41587,0
          109.21357,13.41522,0
          109.21344,13.41438,0
          109.21336,13.41367,0
          109.21333,13.41349,0
          109.2133,13.41322,0
          109.21297,13.41115,0
          109.21285,13.41053,0
          109.21277,13.40968,0
          109.21276,13.40936,0
          109.21279,13.40871,0
          109.2128,13.40779,0
          109.21282,13.40743,0
          109.21281,13.40691,0
          109.21284,13.40605,0
          109.21286,13.40253,0
          109.21289,13.4022,0
          109.21301,13.40148,0
          109.21317,13.40077,0
          109.21323,13.40033,0
          109.21322,13.39999,0
          109.21298,13.39822,0
          109.21287,13.39764,0
          109.21261,13.39584,0
          109.21261,13.39549,0
          109.21264,13.39525,0
          109.2127,13.39508,0
          109.21284,13.39483,0
          109.21295,13.39471,0
          109.21307,13.39461,0
          109.21322,13.3945,0
          109.21339,13.39441,0
          109.21466,13.39386,0
          109.21532,13.3936,0
          109.21613,13.39322,0
          109.21661,13.39294,0
          109.21691,13.39273,0
          109.21732,13.39241,0
          109.21745,13.39229,0
          109.21757,13.39216,0
          109.2178,13.39197,0
          109.21834,13.39145,0
          109.21853,13.39125,0
          109.21937,13.39044,0
          109.21969,13.3902,0
          109.22014,13.38989,0
          109.22114,13.38932,0
          109.22217,13.3887,0
          109.22269,13.38844,0
          109.22283,13.38839,0
          109.22312,13.38832,0
          109.2234,13.38827,0
          109.22367,13.38824,0
          109.22442,13.38822,0
          109.22483,13.38818,0
          109.22542,13.38806,0
          109.22623,13.38782,0
          109.22701,13.38754,0
          109.22753,13.38738,0
          109.2277,13.38731,0
          109.22793,13.38724,0
          109.22826,13.38717,0
          109.22848,13.38715,0
          109.22869,13.38715,0
          109.22894,13.38717,0
          109.22932,13.38725,0
          109.22936,13.38727,0
          109.22953,13.38733,0
          109.22978,13.38744,0
          109.23035,13.38772,0
          109.23053,13.38779,0
          109.23091,13.38789,0
          109.23115,13.38794,0
          109.23159,13.38789,0
          109.2319,13.38783,0
          109.23307,13.3875,0
          109.23375,13.38733,0
          109.234,13.38729,0
          109.23419,13.38728,0
          109.23451,13.3873,0
          109.23469,13.38733,0
          109.23547,13.3875,0
          109.23586,13.38752,0
          109.23608,13.3875,0
          109.23646,13.38742,0
          109.23705,13.38721,0
          109.23722,13.38717,0
          109.23724,13.38716,0
          109.23747,13.38713,0
          109.23769,13.38712,0
          109.23796,13.38713,0
          109.23813,13.38716,0
          109.24042,13.38772,0
          109.24061,13.38775,0
          109.24083,13.38776,0
          109.24102,13.38773,0
          109.24121,13.38768,0
          109.24137,13.38762,0
          109.24138,13.38762,0
          109.24152,13.38755,0
          109.2417,13.38742,0
          109.24182,13.38732,0
          109.24195,13.38718,0
          109.24206,13.387,0
          109.24219,13.38671,0
          109.24225,13.38649,0
          109.24229,13.38627,0
          109.24256,13.38392,0
          109.24262,13.38318,0
          109.24303,13.37968,0
          109.24308,13.37896,0
          109.24308,13.37859,0
          109.24317,13.37699,0
          109.24317,13.37649,0
          109.2434,13.37104,0
          109.24338,13.37057,0
          109.24334,13.3703,0
          109.24328,13.37,0
          109.24321,13.36974,0
          109.24314,13.36956,0
          109.2429,13.36908,0
          109.24223,13.36794,0
          109.24185,13.36735,0
          109.24168,13.36712,0
          109.24166,13.36708,0
          109.24147,13.36684,0
          109.24126,13.36661,0
          109.24062,13.36608,0
          109.24043,13.36596,0
          109.23776,13.36453,0
          109.23708,13.36426,0
          109.23691,13.36421,0
          109.23663,13.36411,0
          109.23643,13.36402,0
          109.23621,13.3639,0
          109.23527,13.36323,0
          109.23484,13.36301,0
          109.23427,13.36283,0
          109.23293,13.36252,0
          109.23257,13.36245,0
          109.23161,13.36231,0
          109.23074,13.3621,0
          109.23027,13.36197,0
          109.22707,13.36125,0
          109.22683,13.36116,0
          109.22658,13.36104,0
          109.22623,13.36078,0
          109.22606,13.36062,0
          109.22585,13.36037,0
          109.22426,13.35822,0
          109.22409,13.35802,0
          109.22385,13.35777,0
          109.22339,13.35737,0
          109.22132,13.35594,0
          109.22089,13.35567,0
          109.22062,13.35555,0
          109.22037,13.35548,0
          109.22018,13.35544,0
          109.21999,13.35544,0
          109.21959,13.35548,0
          109.21941,13.35552,0
          109.21852,13.35577,0
          109.216,13.35639,0
          109.21538,13.35648,0
          109.21514,13.35649,0
          109.21475,13.35645,0
          109.2143,13.35635,0
          109.2141,13.35629,0
          109.21248,13.35572,0
          109.21158,13.35539,0
          109.21124,13.35524,0
          109.21097,13.35509,0
          109.2108,13.35497,0
          109.21062,13.35482,0
          109.21046,13.35466,0
          109.21027,13.35444,0
          109.21005,13.35415,0
          109.20995,13.35397,0
          109.20976,13.35351,0
          109.20959,13.35261,0
          109.20955,13.35195,0
          109.2095,13.35161,0
          109.20941,13.35122,0
          109.20935,13.35107,0
          109.20922,13.35081,0
          109.20869,13.34994,0
          109.20868,13.34994,0
          109.20859,13.34979,0
          109.20858,13.34979,0
          109.2083,13.34935,0
          109.20776,13.34859,0
          109.20757,13.34827,0
          109.20695,13.34733,0
          109.20674,13.34695,0
          109.2066,13.3466,0
          109.20657,13.34654,0
          109.2065,13.34625,0
          109.20639,13.34569,0
          109.20639,13.34563,0
          109.20635,13.3454,0
          109.20613,13.34344,0
          109.20584,13.34122,0
          109.20583,13.34104,0
          109.20586,13.3407,0
          109.20596,13.34034,0
          109.20605,13.34009,0
          109.20648,13.33909,0
          109.20656,13.33887,0
          109.20661,13.33858,0
          109.20664,13.33825,0
          109.20664,13.33804,0
          109.20659,13.33733,0
          109.20659,13.33695,0
          109.20664,13.33634,0
          109.20674,13.33555,0
          109.20699,13.33411,0
          109.20721,13.33312,0
          109.20724,13.33302,0
          109.20741,13.33259,0
          109.20752,13.33238,0
          109.20852,13.33078,0
          109.20921,13.32962,0
          109.20928,13.32948,0
          109.20939,13.32909,0
          109.20947,13.32845,0
          109.20955,13.32802,0
          109.20968,13.3271,0
          109.20975,13.32678,0
          109.20994,13.32559,0
          109.21008,13.32512,0
          109.21021,13.32452,0
          109.21029,13.32433,0
          109.21035,13.32421,0
          109.21042,13.32412,0
          109.21057,13.32396,0
          109.21068,13.32386,0
          109.21183,13.32312,0
          109.21207,13.32298,0
          109.21238,13.32282,0
          109.21272,13.32262,0
          109.21285,13.32252,0
          109.21301,13.32236,0
          109.21322,13.32211,0
          109.21334,13.32194,0
          109.21347,13.32158,0
          109.21353,13.32138,0
          109.21361,13.32119,0
          109.21378,13.32093,0
          109.21388,13.32082,0
          109.21433,13.32043,0
          109.21453,13.32028,0
          109.21473,13.3201,0
          109.21491,13.31996,0
          109.2152,13.31968,0
          109.21542,13.31939,0
          109.2156,13.31904,0
          109.21567,13.31886,0
          109.21579,13.31832,0
          109.21596,13.31718,0
          109.21638,13.31484,0
          109.21642,13.31468,0
          109.21647,13.31419,0
          109.21651,13.31402,0
          109.21653,13.31398,0
          109.21656,13.31394,0
          109.21659,13.31392,0
          109.21662,13.31389,0
          109.21666,13.31386,0
          109.21676,13.31381,0
          109.21692,13.31371,0
          109.21714,13.31361,0
          109.21723,13.31356,0
          109.21745,13.3134,0
          109.21762,13.31319,0
          109.21766,13.31313,0
          109.21776,13.31287,0
          109.21778,13.31273,0
          109.21791,13.30575,0
          109.21792,13.30561,0
          109.21791,13.30503,0
          109.21792,13.30448,0
          109.21796,13.30389,0
          109.218,13.3036,0
          109.21808,13.30329,0
          109.21816,13.30309,0
          109.21836,13.30269,0
          109.21861,13.30234,0
          109.21938,13.30143,0
          109.21982,13.30097,0
          109.22126,13.29934,0
          109.22139,13.29921,0
          109.22144,13.29914,0
          109.22157,13.29901,0
          109.2245,13.29581,0
          109.22494,13.29538,0
          109.22504,13.2953,0
          109.22538,13.2951,0
          109.22557,13.29502,0
          109.22574,13.29496,0
          109.22652,13.29474,0
          109.22812,13.29437,0
          109.22824,13.29433,0
          109.22844,13.29428,0
          109.22875,13.29422,0
          109.22895,13.29421,0
          109.22935,13.29421,0
          109.22997,13.29429,0
          109.2301,13.29432,0
          109.23076,13.29442,0
          109.23084,13.29445,0
          109.23116,13.29453,0
          109.23137,13.29462,0
          109.23183,13.295,0
          109.23217,13.2954,0
          109.23269,13.29588,0
          109.23308,13.29614,0
          109.23397,13.29669,0
          109.23424,13.29683,0
          109.23447,13.29691,0
          109.23469,13.29695,0
          109.23494,13.29695,0
          109.23516,13.29692,0
          109.2354,13.29686,0
          109.23542,13.29685,0
          109.23543,13.29684,0
          109.2356,13.29676,0
          109.23583,13.2966,0
          109.23598,13.29648,0
          109.23616,13.29625,0
          109.23758,13.29353,0
          109.2377,13.29327,0
          109.23856,13.29168,0
          109.23896,13.29085,0
          109.23905,13.29069,0
          109.23906,13.29069,0
          109.23953,13.28978,0
          109.23997,13.28898,0
          109.24015,13.28869,0
          109.24065,13.28803,0
          109.24075,13.28793,0
          109.24075,13.28792,0
          109.24109,13.28751,0
          109.24126,13.28726,0
          109.24148,13.28689,0
          109.24159,13.28666,0
          109.2418,13.28627,0
          109.24201,13.28595,0
          109.24221,13.2857,0
          109.24231,13.2856,0
          109.24259,13.28538,0
          109.24267,13.28534,0
          109.24339,13.28479,0
          109.24372,13.28445,0
          109.24375,13.2844,0
          109.2439,13.2842,0
          109.24684,13.27946,0
          109.24706,13.27908,0
          109.24739,13.27832,0
          109.24753,13.27792,0
          109.24869,13.27491,0
          109.24877,13.27474,0
          109.24916,13.27376,0
          109.24923,13.27361,0
          109.24923,13.27359,0
          109.24985,13.27213,0
          109.25053,13.27041,0
          109.25082,13.26976,0
          109.25091,13.26947,0
          109.25098,13.26919,0
          109.25102,13.26869,0
          109.25103,13.26867,0
          109.251,13.26834,0
          109.25099,13.26831,0
          109.2509,13.26785,0
          109.25084,13.26761,0
          109.25074,13.26736,0
          109.25056,13.26697,0
          109.25028,13.2663,0
          109.25019,13.26598,0
          109.25015,13.2657,0
          109.25017,13.26543,0
          109.25022,13.26514,0
          109.25031,13.26483,0
          109.25031,13.26482,0
          109.25039,13.2646,0
          109.2505,13.26436,0
          109.25065,13.26381,0
          109.2507,13.26347,0
          109.25074,13.26302,0
          109.25076,13.26233,0
          109.25081,13.26202,0
          109.25092,13.2617,0
          109.25112,13.26143,0
          109.25133,13.26123,0
          109.25154,13.26109,0
          109.25176,13.26098,0
          109.25232,13.26075,0
          109.25259,13.2606,0
          109.25275,13.26047,0
          109.25295,13.26025,0
          109.25306,13.26008,0
          109.25313,13.25994,0
          109.25318,13.25973,0
          109.25319,13.25959,0
          109.25319,13.2594,0
          109.25315,13.2592,0
          109.25305,13.25897,0
          109.25284,13.25857,0
          109.2525,13.25799,0
          109.25235,13.25763,0
          109.25235,13.25762,0
          109.25223,13.25726,0
          109.25219,13.25705,0
          109.25214,13.25654,0
          109.25215,13.2562,0
          109.25219,13.25585,0
          109.25219,13.2558,0
          109.25259,13.25428,0
          109.25317,13.2525,0
          109.25435,13.24915,0
          109.25456,13.2486,0
          109.25456,13.24859,0
          109.25468,13.24826,0
          109.25472,13.24812,0
          109.25523,13.24672,0
          109.25523,13.2467,0
          109.25608,13.24448,0
          109.25629,13.24387,0
          109.25687,13.24233,0
          109.25687,13.24232,0
          109.25704,13.24187,0
          109.25704,13.24186,0
          109.25708,13.24178,0
          109.25751,13.24068,0
          109.25789,13.23961,0
          109.25796,13.23938,0
          109.25815,13.23886,0
          109.2583,13.23838,0
          109.25834,13.23805,0
          109.25841,13.23779,0
          109.25953,13.23431,0
          109.25955,13.23422,0
          109.26001,13.23271,0
          109.26118,13.22962,0
          109.26175,13.22835,0
          109.26208,13.22744,0
          109.26285,13.22547,0
          109.26382,13.22285,0
          109.26565,13.21823,0
          109.26587,13.21758,0
          109.26656,13.21584,0
          109.26657,13.21578,0
          109.26709,13.21424,0
          109.26745,13.21304,0
          109.26825,13.21059,0
          109.2684,13.21018,0
          109.26894,13.20834,0
          109.27438,13.1912,0
          109.27439,13.19118,0
          109.27493,13.18946,0
          109.27496,13.1894,0
          109.27503,13.18916,0
          109.27503,13.18915,0
          109.27541,13.18795,0
          109.27705,13.18325,0
          109.27707,13.18321,0
          109.27895,13.17779,0
          109.27895,13.17777,0
          109.28093,13.1721,0
          109.28106,13.17169,0
          109.28123,13.17123,0
          109.28152,13.17034,0
          109.28163,13.16982,0
          109.28206,13.16571,0
          109.28215,13.16445,0
          109.28215,13.1643,0
          109.28222,13.16338,0
          109.28239,13.15987,0
          109.28277,13.15475,0
          109.2828,13.15393,0
          109.28274,13.15115,0
          109.28273,13.14913,0
          109.28269,13.14759,0
          109.28252,13.14601,0
          109.28247,13.14571,0
          109.2824,13.1454,0
          109.28228,13.14509,0
          109.28216,13.14483,0
          109.28206,13.14468,0
          109.28181,13.14439,0
          109.28159,13.14417,0
          109.28147,13.14407,0
          109.28121,13.1439,0
          109.27978,13.1431,0
          109.27924,13.14282,0
          109.27902,13.14266,0
          109.27874,13.14241,0
          109.27844,13.14197,0
          109.27837,13.14183,0
          109.27829,13.14164,0
          109.27822,13.14143,0
          109.27817,13.14114,0
          109.27815,13.14094,0
          109.27815,13.14045,0
          109.27818,13.13963,0
          109.27817,13.13954,0
          109.27815,13.13857,0
          109.2781,13.13794,0
          109.27783,13.13652,0
          109.27781,13.13646,0
          109.27772,13.13604,0
          109.27756,13.13544,0
          109.27752,13.13532,0
          109.27743,13.13511,0
          109.27677,13.13388,0
          109.27639,13.13327,0
          109.27635,13.13323,0
          109.27635,13.13322,0
          109.27634,13.13321,0
          109.27634,13.1332,0
          109.27586,13.1326,0
          109.27196,13.12877,0
          109.27134,13.12823,0
          109.27012,13.12745,0
          109.26911,13.12701,0
          109.26904,13.12697,0
          109.26894,13.12694,0
          109.26891,13.12692,0
          109.26707,13.12619,0
          109.26702,13.12618,0
          109.26567,13.12567,0
          109.26495,13.12531,0
          109.26436,13.1249,0
          109.26394,13.12453,0
          109.26365,13.12424,0
          109.26322,13.12369,0
          109.26301,13.12332,0
          109.26254,13.12234,0
          109.26249,13.12218,0
          109.26239,13.12178,0
          109.26232,13.12143,0
          109.26232,13.12137,0
          109.26228,13.12108,0
          109.26226,13.12056,0
          109.26225,13.12052,0
          109.26226,13.12032,0
          109.26226,13.11966,0
          109.26227,13.11948,0
          109.26227,13.11834,0
          109.26228,13.11828,0
          109.26235,13.11266,0
          109.26237,13.11248,0
          109.26239,13.11199,0
          109.26248,13.11143,0
          109.26276,13.11044,0
          109.26277,13.11042,0
          109.26297,13.10985,0
          109.26597,13.1023,0
          109.26599,13.10223,0
          109.27176,13.08768,0
          109.27179,13.08762,0
          109.27394,13.08215,0
          109.27396,13.08208,0
          109.27533,13.07867,0
          109.27575,13.07773,0
          109.27625,13.07678,0
          109.2768,13.07589,0
          109.27722,13.07527,0
          109.27816,13.07406,0
          109.27845,13.07373,0
          109.27905,13.07296,0
          109.27916,13.07285,0
          109.27918,13.07282,0
          109.2795,13.07247,0
          109.28002,13.0718,0
          109.28034,13.07143,0
          109.28167,13.06979,0
          109.28172,13.06974,0
          109.28319,13.06794,0
          109.28323,13.06788,0
          109.28712,13.06313,0
          109.28779,13.06239,0
          109.28798,13.06211,0
          109.28799,13.06209,0
          109.2881,13.06197,0
          109.28941,13.06028,0
          109.29573,13.05257,0
          109.29583,13.05246,0
          109.29687,13.05115,0
          109.29768,13.05019,0
          109.29768,13.05018,0
          109.30514,13.04112,0
          109.30518,13.04106,0
          109.30623,13.03972,0
          109.30626,13.03969,0
          109.30776,13.03784,0
          109.30787,13.03772,0
          109.30833,13.03734,0
          109.30854,13.03715,0
          109.3087,13.03702,0
          109.30939,13.03662,0
          109.30963,13.03651,0
          109.31036,13.03625,0
          109.31058,13.03619,0
          109.31106,13.0361,0
          109.31128,13.03607,0
          109.31208,13.03605,0
          109.31274,13.03609,0
          109.31311,13.03605,0
          109.31313,13.03604,0
          109.31315,13.03602,0
          109.31316,13.03602,0
          109.31317,13.03601,0
          109.31318,13.03601,0
          109.31319,13.036,0
          109.31321,13.03599,0
          109.31351,13.0357,0
          109.31633,13.02931,0
          109.32182,13.0163,0
          109.3248,13.00894,0
          109.32517,13.00808,0
          109.32528,13.00779,0
          109.3253,13.00776,0
          109.32693,13.00382,0
          109.32828,13.00039,0
          109.32833,13.00029,0
          109.32871,12.9994,0
          109.32826,12.99923,0
          109.32796,12.99909,0
          109.32752,13.00014,0
          109.32768,13.00016,0
          109.32798,13.00022,0
          109.32808,13.00022,0
          109.32817,13.00024,0
          109.32819,13.00024,0
        </coordinates>
      </LineString>
    </Placemark>
    <Placemark>
      <name>13.830800 109.143090</name>
      <styleUrl>#icon-1899-DB4436-nodesc</styleUrl>
      <Point>
        <coordinates>
          109.1431927,13.8307428,0
        </coordinates>
      </Point>
    </Placemark>
    <Placemark>
      <name>13.000290 109.328330</name>
      <styleUrl>#icon-1899-DB4436-nodesc</styleUrl>
      <Point>
        <coordinates>
          109.3281925,13.0002416,0
        </coordinates>
      </Point>
    </Placemark>
  </Document>
</kml>
