<?xml version="1.0" encoding="UTF-8"?>
<kml xmlns="http://www.opengis.net/kml/2.2">
  <Document>
    <name>goithau-47</name>
    <Style id="icon-1899-DB4436-nodesc-normal">
      <IconStyle>
        <color>ff3644db</color>
        <scale>1</scale>
        <Icon>
          <href>https://www.gstatic.com/mapspro/images/stock/503-wht-blank_maps.png</href>
        </Icon>
        <hotSpot x="32" xunits="pixels" y="64" yunits="insetPixels"/>
      </IconStyle>
      <LabelStyle>
        <scale>0</scale>
      </LabelStyle>
      <BalloonStyle>
        <text><![CDATA[<h3>$[name]</h3>]]></text>
      </BalloonStyle>
    </Style>
    <Style id="icon-1899-DB4436-nodesc-highlight">
      <IconStyle>
        <color>ff3644db</color>
        <scale>1</scale>
        <Icon>
          <href>https://www.gstatic.com/mapspro/images/stock/503-wht-blank_maps.png</href>
        </Icon>
        <hotSpot x="32" xunits="pixels" y="64" yunits="insetPixels"/>
      </IconStyle>
      <LabelStyle>
        <scale>1</scale>
      </LabelStyle>
      <BalloonStyle>
        <text><![CDATA[<h3>$[name]</h3>]]></text>
      </BalloonStyle>
    </Style>
    <StyleMap id="icon-1899-DB4436-nodesc">
      <Pair>
        <key>normal</key>
        <styleUrl>#icon-1899-DB4436-nodesc-normal</styleUrl>
      </Pair>
      <Pair>
        <key>highlight</key>
        <styleUrl>#icon-1899-DB4436-nodesc-highlight</styleUrl>
      </Pair>
    </StyleMap>
    <Style id="line-1267FF-5000-nodesc-normal">
      <LineStyle>
        <color>ffff6712</color>
        <width>5</width>
      </LineStyle>
      <BalloonStyle>
        <text><![CDATA[<h3>$[name]</h3>]]></text>
      </BalloonStyle>
    </Style>
    <Style id="line-1267FF-5000-nodesc-highlight">
      <LineStyle>
        <color>ffff6712</color>
        <width>7.5</width>
      </LineStyle>
      <BalloonStyle>
        <text><![CDATA[<h3>$[name]</h3>]]></text>
      </BalloonStyle>
    </Style>
    <StyleMap id="line-1267FF-5000-nodesc">
      <Pair>
        <key>normal</key>
        <styleUrl>#line-1267FF-5000-nodesc-normal</styleUrl>
      </Pair>
      <Pair>
        <key>highlight</key>
        <styleUrl>#line-1267FF-5000-nodesc-highlight</styleUrl>
      </Pair>
    </StyleMap>
    <Placemark>
      <name>goithau-47</name>
      <styleUrl>#line-1267FF-5000-nodesc</styleUrl>
      <LineString>
        <tessellate>1</tessellate>
        <coordinates>
          107.35667,16.50765,0
          107.35656,16.50761,0
          107.3565,16.5076,0
          107.35641,16.5076,0
          107.35634,16.50761,0
          107.35627,16.50763,0
          107.3559,16.50781,0
          107.35526,16.50809,0
          107.35503,16.50821,0
          107.35494,16.50827,0
          107.35489,16.50832,0
          107.35484,16.50838,0
          107.35474,16.50853,0
          107.35444,16.50922,0
          107.35429,16.50964,0
          107.35426,16.50979,0
          107.35424,16.51007,0
          107.35424,16.51032,0
          107.35422,16.51082,0
          107.35417,16.51091,0
          107.35409,16.51101,0
          107.35399,16.51108,0
          107.35383,16.51116,0
          107.35352,16.51129,0
          107.35339,16.51138,0
          107.35324,16.5115,0
          107.35253,16.51231,0
          107.35222,16.51264,0
          107.35203,16.51286,0
          107.352,16.51288,0
          107.35179,16.51306,0
          107.35173,16.51309,0
          107.35161,16.51317,0
          107.35139,16.51327,0
          107.35095,16.51343,0
          107.35094,16.51343,0
          107.35088,16.51345,0
          107.35077,16.5135,0
          107.35025,16.51368,0
          107.35011,16.51374,0
          107.34915,16.51424,0
          107.34828,16.51466,0
          107.34781,16.51477,0
          107.34769,16.51479,0
          107.34639,16.51492,0
          107.34612,16.51498,0
          107.34595,16.51503,0
          107.34575,16.51511,0
          107.34528,16.51535,0
          107.34512,16.51541,0
          107.34488,16.51555,0
          107.34484,16.51556,0
          107.34467,16.51564,0
          107.34283,16.51639,0
          107.34247,16.51647,0
          107.34198,16.51651,0
          107.34173,16.51647,0
          107.34156,16.51643,0
          107.34145,16.51639,0
          107.34107,16.51621,0
          107.34055,16.51594,0
          107.33994,16.51577,0
          107.33969,16.51572,0
          107.33947,16.5157,0
          107.33932,16.51573,0
          107.33905,16.51584,0
          107.33872,16.516,0
          107.33857,16.51605,0
          107.33842,16.51609,0
          107.33826,16.51611,0
          107.33799,16.51611,0
          107.33754,16.51607,0
          107.33711,16.51605,0
          107.33654,16.51606,0
          107.33633,16.51608,0
          107.33616,16.51611,0
          107.33598,16.51616,0
          107.33515,16.51647,0
          107.33344,16.51698,0
          107.3331,16.51706,0
          107.33184,16.51704,0
          107.33172,16.51703,0
          107.33145,16.51698,0
          107.33132,16.51698,0
          107.33122,16.51697,0
          107.33102,16.51699,0
          107.33074,16.51707,0
          107.33067,16.51708,0
          107.33049,16.51713,0
          107.33035,16.51716,0
          107.32996,16.5173,0
          107.32907,16.51768,0
          107.32799,16.5179,0
          107.32779,16.51796,0
          107.32734,16.51816,0
          107.32725,16.51825,0
          107.32724,16.51825,0
          107.32716,16.51834,0
          107.32696,16.51868,0
          107.32689,16.51882,0
          107.32674,16.51918,0
          107.32658,16.51963,0
          107.32652,16.51984,0
          107.32635,16.52034,0
          107.32633,16.52045,0
          107.32632,16.52056,0
          107.32632,16.52073,0
          107.32635,16.52086,0
          107.32641,16.52103,0
          107.32646,16.52114,0
          107.32666,16.52145,0
          107.32671,16.52154,0
          107.32675,16.52159,0
          107.32704,16.52208,0
          107.32711,16.52215,0
          107.32721,16.52229,0
          107.32724,16.52234,0
          107.32725,16.52235,0
          107.32728,16.52235,0
          107.3273,16.52237,0
          107.32732,16.5224,0
          107.32735,16.52246,0
          107.3275,16.52266,0
          107.32761,16.52275,0
          107.32775,16.52285,0
          107.32801,16.52296,0
          107.3281,16.52297,0
          107.32812,16.52298,0
          107.32825,16.52299,0
          107.32843,16.52299,0
          107.32856,16.52296,0
          107.32878,16.52289,0
          107.3288,16.52288,0
          107.32889,16.52288,0
          107.33011,16.52215,0
          107.33057,16.5219,0
          107.33092,16.52174,0
          107.33102,16.52168,0
          107.33113,16.52165,0
          107.33134,16.52152,0
          107.3317,16.52132,0
          107.33245,16.52085,0
          107.33993,16.5165,0
          107.34058,16.51618,0
          107.34172,16.5155,0
          107.34262,16.51492,0
          107.34289,16.51477,0
          107.3429,16.51476,0
          107.34301,16.5147,0
          107.34308,16.51465,0
          107.34369,16.5143,0
          107.3437,16.5143,0
          107.34478,16.51366,0
          107.34489,16.51357,0
          107.34609,16.51289,0
          107.3461,16.51288,0
          107.34625,16.5128,0
          107.34753,16.51204,0
          107.34755,16.51202,0
          107.34769,16.51195,0
          107.34882,16.51129,0
          107.34883,16.51128,0
          107.34972,16.51076,0
          107.34978,16.51073,0
          107.34979,16.51072,0
          107.35084,16.51009,0
          107.35088,16.51006,0
          107.35098,16.51001,0
          107.35297,16.50886,0
          107.3531,16.5088,0
          107.35313,16.50878,0
          107.3538,16.50842,0
          107.35381,16.50842,0
          107.35608,16.50728,0
          107.3562,16.50723,0
          107.35621,16.50722,0
          107.35626,16.50719,0
          107.35787,16.50643,0
          107.358,16.50638,0
          107.35901,16.50588,0
          107.35909,16.50585,0
          107.35919,16.5058,0
          107.35929,16.50576,0
          107.36102,16.50493,0
          107.36111,16.50488,0
          107.36123,16.50483,0
          107.36259,16.50415,0
          107.36267,16.50412,0
          107.3645,16.50322,0
          107.36457,16.50318,0
          107.36906,16.50098,0
          107.36911,16.50095,0
          107.37369,16.49871,0
          107.37387,16.49863,0
          107.38187,16.4947,0
          107.38192,16.49467,0
          107.38197,16.49465,0
          107.38198,16.49464,0
          107.38454,16.49338,0
          107.38589,16.49276,0
          107.38592,16.49274,0
          107.38637,16.49254,0
          107.38643,16.49252,0
          107.38744,16.49211,0
          107.3884,16.49175,0
          107.38869,16.49166,0
          107.38879,16.49162,0
          107.39049,16.49113,0
          107.3915,16.49089,0
          107.39169,16.49086,0
          107.39206,16.49078,0
          107.39328,16.49056,0
          107.39383,16.49048,0
          107.40073,16.48978,0
          107.40102,16.48976,0
          107.40402,16.48946,0
          107.40421,16.48945,0
          107.4161,16.48829,0
          107.41627,16.48828,0
          107.41652,16.48825,0
          107.41879,16.48808,0
          107.41926,16.48806,0
          107.41945,16.48806,0
          107.41961,16.48805,0
          107.42093,16.48806,0
          107.42113,16.48807,0
          107.42223,16.48808,0
          107.42235,16.48809,0
          107.42251,16.48809,0
          107.42287,16.48811,0
          107.42716,16.4882,0
          107.43094,16.48832,0
          107.43192,16.48831,0
          107.43211,16.4883,0
          107.43277,16.4883,0
          107.43378,16.48835,0
          107.43643,16.48841,0
          107.43875,16.48852,0
          107.44144,16.48859,0
          107.44155,16.48856,0
          107.4422,16.48856,0
          107.44246,16.48857,0
          107.44254,16.48858,0
          107.44302,16.48859,0
          107.44316,16.4886,0
          107.44357,16.4886,0
          107.44537,16.48865,0
          107.44698,16.48864,0
          107.44846,16.48855,0
          107.44968,16.48843,0
          107.45032,16.48835,0
          107.45036,16.48834,0
          107.45121,16.4882,0
          107.45205,16.48804,0
          107.45342,16.48772,0
          107.45401,16.48756,0
          107.45419,16.48752,0
          107.45595,16.48699,0
          107.45604,16.48697,0
          107.45642,16.48684,0
          107.45719,16.48662,0
          107.45734,16.48662,0
          107.46042,16.48568,0
          107.46049,16.48565,0
          107.46623,16.48391,0
          107.4722,16.48208,0
          107.47225,16.48206,0
          107.47595,16.48094,0
          107.47603,16.48091,0
          107.47692,16.48064,0
          107.47795,16.48027,0
          107.47855,16.47999,0
          107.47929,16.47957,0
          107.47989,16.47916,0
          107.48014,16.47897,0
          107.48029,16.47883,0
          107.4803,16.47883,0
          107.4808,16.47839,0
          107.48123,16.47794,0
          107.4816,16.47753,0
          107.48195,16.47711,0
          107.48214,16.4769,0
          107.48242,16.47655,0
          107.48271,16.47623,0
          107.48394,16.47475,0
          107.48396,16.47474,0
          107.484,16.47468,0
          107.48502,16.47352,0
          107.48502,16.47351,0
          107.48598,16.47237,0
          107.48635,16.47196,0
          107.4881,16.46993,0
          107.48852,16.46947,0
          107.48865,16.46934,0
          107.48919,16.46889,0
          107.48922,16.46887,0
          107.48953,16.46861,0
          107.4897,16.4685,0
          107.48981,16.46842,0
          107.49025,16.46814,0
          107.49154,16.4674,0
          107.49313,16.46654,0
          107.49423,16.46586,0
          107.49599,16.46485,0
          107.49659,16.46454,0
          107.49724,16.46418,0
          107.49786,16.4638,0
          107.49843,16.46349,0
          107.49911,16.46308,0
          107.49956,16.46278,0
          107.49957,16.46277,0
          107.49971,16.46267,0
          107.50026,16.46224,0
          107.50029,16.46221,0
          107.50035,16.46217,0
          107.50043,16.46209,0
          107.50054,16.462,0
          107.50197,16.46071,0
          107.50297,16.45971,0
          107.50307,16.45959,0
          107.50322,16.45944,0
          107.50325,16.4594,0
          107.50336,16.45932,0
          107.50436,16.45849,0
          107.50463,16.45824,0
          107.505,16.45793,0
          107.50505,16.45788,0
          107.50598,16.4571,0
          107.50653,16.45668,0
          107.50667,16.45656,0
          107.50743,16.45603,0
          107.50878,16.45518,0
          107.50882,16.45516,0
          107.50922,16.45485,0
          107.50999,16.45434,0
          107.51014,16.45423,0
          107.51142,16.45347,0
          107.51216,16.45299,0
          107.51264,16.45258,0
          107.51265,16.45256,0
          107.51272,16.4525,0
          107.5128,16.45241,0
          107.51285,16.45237,0
          107.5129,16.45231,0
          107.51299,16.45222,0
          107.51302,16.45217,0
          107.51313,16.45203,0
          107.51315,16.45201,0
          107.51336,16.4517,0
          107.51362,16.45127,0
          107.51363,16.45126,0
          107.51375,16.45102,0
          107.51377,16.45097,0
          107.51379,16.45094,0
          107.51388,16.45075,0
          107.51401,16.45037,0
          107.51402,16.45035,0
          107.51416,16.4499,0
          107.51424,16.4495,0
          107.51424,16.44948,0
          107.5143,16.44914,0
          107.51432,16.44896,0
          107.51433,16.44895,0
          107.51433,16.4486,0
          107.51434,16.44842,0
          107.51434,16.44824,0
          107.51428,16.4467,0
          107.51427,16.44662,0
          107.51427,16.44644,0
          107.51426,16.4463,0
          107.51431,16.44537,0
          107.51437,16.44501,0
          107.51437,16.44497,0
          107.5144,16.44483,0
          107.5144,16.44479,0
          107.51445,16.44449,0
          107.51445,16.44448,0
          107.5145,16.4443,0
          107.51459,16.44391,0
          107.51463,16.44378,0
          107.51468,16.44356,0
          107.51469,16.44356,0
          107.51474,16.44339,0
          107.51485,16.44309,0
          107.51487,16.44305,0
          107.51505,16.44259,0
          107.51506,16.44255,0
          107.5152,16.44226,0
          107.51527,16.44209,0
          107.51558,16.44151,0
          107.51562,16.44146,0
          107.51573,16.44127,0
          107.51601,16.44084,0
          107.51608,16.44072,0
          107.51611,16.44069,0
          107.51655,16.44014,0
          107.51657,16.44011,0
          107.51682,16.43984,0
          107.51743,16.43922,0
          107.51868,16.43808,0
          107.51871,16.43802,0
          107.51891,16.43781,0
          107.52575,16.43184,0
          107.52587,16.43172,0
          107.52642,16.43126,0
          107.52887,16.4291,0
          107.52929,16.42875,0
          107.52941,16.42867,0
          107.52957,16.42861,0
          107.53075,16.42796,0
          107.53103,16.42777,0
          107.53116,16.42767,0
          107.53232,16.42706,0
          107.53237,16.42704,0
          107.53248,16.42697,0
          107.5328,16.42679,0
          107.53315,16.42665,0
          107.53345,16.42655,0
          107.53396,16.42624,0
          107.53439,16.42603,0
          107.53461,16.42596,0
          107.53523,16.42563,0
          107.53569,16.42536,0
          107.5358,16.42533,0
          107.53586,16.42532,0
          107.53606,16.42524,0
          107.53632,16.42512,0
          107.53692,16.42478,0
          107.53763,16.42446,0
          107.53985,16.42335,0
          107.54056,16.42295,0
          107.54112,16.42258,0
          107.54153,16.42223,0
          107.54194,16.42183,0
          107.54227,16.42145,0
          107.54274,16.42085,0
          107.54294,16.42056,0
          107.54316,16.42027,0
          107.54317,16.42026,0
          107.54347,16.41985,0
          107.54374,16.41945,0
          107.5438,16.41938,0
          107.5439,16.41923,0
          107.54422,16.4188,0
          107.54423,16.41879,0
          107.54433,16.41864,0
          107.54466,16.4182,0
          107.54471,16.41812,0
          107.54516,16.41751,0
          107.54535,16.4173,0
          107.54561,16.41704,0
          107.54572,16.41695,0
          107.54604,16.41666,0
          107.54623,16.41651,0
          107.54628,16.41648,0
          107.54674,16.41616,0
          107.54724,16.41586,0
          107.54772,16.41563,0
          107.54826,16.41544,0
          107.54867,16.41532,0
          107.54951,16.41512,0
          107.54965,16.41508,0
          107.55034,16.41493,0
          107.55053,16.41488,0
          107.55054,16.41488,0
          107.55184,16.41448,0
          107.55278,16.41411,0
          107.55351,16.41377,0
          107.55431,16.41333,0
          107.55552,16.41256,0
          107.55613,16.41215,0
          107.55628,16.41204,0
          107.55657,16.4118,0
          107.5566,16.41178,0
          107.55688,16.41154,0
          107.55698,16.41143,0
          107.55734,16.41107,0
          107.55784,16.41045,0
          107.55807,16.41012,0
          107.55822,16.40987,0
          107.55824,16.40985,0
          107.55832,16.40971,0
          107.55838,16.40963,0
          107.55872,16.40891,0
          107.55886,16.40857,0
          107.55888,16.40854,0
          107.55917,16.40772,0
          107.5593,16.40741,0
          107.5595,16.4068,0
          107.55952,16.40676,0
          107.55992,16.4057,0
          107.56039,16.40458,0
          107.56097,16.40345,0
          107.56099,16.40342,0
          107.56234,16.4008,0
          107.56242,16.40066,0
          107.56263,16.40023,0
          107.56264,16.4002,0
          107.56286,16.39975,0
          107.56286,16.3997,0
          107.56287,16.39965,0
          107.56319,16.39899,0
          107.5632,16.39895,0
          107.56334,16.39866,0
          107.56391,16.39769,0
          107.56426,16.39724,0
          107.5648,16.39669,0
          107.56494,16.39657,0
          107.56499,16.39652,0
          107.56508,16.39645,0
          107.5672,16.395,0
          107.56722,16.39499,0
          107.568,16.39446,0
          107.56836,16.39417,0
          107.56865,16.39398,0
          107.56907,16.39374,0
          107.5697,16.39349,0
          107.57008,16.39342,0
          107.57044,16.39339,0
          107.57079,16.39339,0
          107.57127,16.39344,0
          107.57179,16.39355,0
          107.57219,16.39365,0
          107.57358,16.39393,0
          107.57371,16.39395,0
          107.57463,16.39415,0
          107.57486,16.39419,0
          107.5749,16.39419,0
          107.57529,16.39428,0
          107.57538,16.39429,0
          107.57638,16.39448,0
          107.57639,16.39448,0
          107.57746,16.39469,0
          107.57761,16.39473,0
          107.57794,16.39478,0
          107.57805,16.39481,0
          107.57939,16.39505,0
          107.57986,16.39511,0
          107.5799,16.39511,0
          107.58036,16.39515,0
          107.5805,16.39514,0
          107.58156,16.39514,0
          107.58217,16.39511,0
          107.58303,16.39511,0
          107.58322,16.3951,0
          107.58472,16.3951,0
          107.5849,16.39509,0
          107.58521,16.39509,0
          107.58532,16.39508,0
          107.58563,16.39508,0
          107.58574,16.39507,0
          107.58626,16.39509,0
          107.58633,16.39511,0
          107.58637,16.39514,0
          107.58748,16.39514,0
          107.58834,16.39504,0
          107.58859,16.39499,0
          107.5886,16.39498,0
          107.58878,16.39495,0
          107.58896,16.39491,0
          107.58914,16.39488,0
          107.58969,16.39474,0
          107.5897,16.39474,0
          107.58975,16.39473,0
          107.59058,16.39447,0
          107.59059,16.39446,0
          107.59093,16.39433,0
          107.59095,16.39433,0
          107.59142,16.39413,0
          107.59228,16.3937,0
          107.59229,16.3937,0
          107.59262,16.39351,0
          107.59274,16.39343,0
          107.59276,16.39342,0
          107.59291,16.39332,0
          107.59293,16.39331,0
          107.59322,16.39311,0
          107.59325,16.3931,0
          107.59355,16.39288,0
          107.59366,16.39278,0
          107.59423,16.39231,0
          107.59426,16.39229,0
          107.59479,16.39183,0
          107.59482,16.39181,0
          107.59518,16.39149,0
          107.59579,16.39102,0
          107.59672,16.39042,0
          107.59676,16.39039,0
          107.59694,16.39032,0
          107.59744,16.3901,0
          107.59745,16.39009,0
          107.59757,16.39004,0
          107.5979,16.38988,0
          107.59791,16.38988,0
          107.59865,16.38954,0
          107.59876,16.3895,0
          107.59881,16.38947,0
          107.59998,16.38894,0
          107.60001,16.38893,0
          107.60059,16.38867,0
          107.60108,16.38841,0
          107.60111,16.38839,0
          107.6022,16.38788,0
          107.60266,16.3877,0
          107.60266,16.38769,0
          107.60267,16.38768,0
          107.60268,16.38766,0
          107.60269,16.38765,0
          107.60269,16.38764,0
          107.6027,16.38764,0
          107.60285,16.38755,0
          107.60329,16.38734,0
          107.60448,16.38681,0
          107.60529,16.38648,0
          107.60619,16.38617,0
          107.60774,16.38574,0
          107.60787,16.38571,0
          107.60792,16.38569,0
          107.60975,16.38517,0
          107.6102,16.38506,0
          107.61044,16.38499,0
          107.61057,16.38496,0
          107.61062,16.38494,0
          107.6108,16.38489,0
          107.61098,16.38483,0
          107.61134,16.38473,0
          107.61152,16.38467,0
          107.61253,16.38438,0
          107.6126,16.38437,0
          107.6135,16.38412,0
          107.6138,16.38402,0
          107.61385,16.38401,0
          107.61474,16.38372,0
          107.61516,16.3836,0
          107.61528,16.38358,0
          107.61535,16.38356,0
          107.61544,16.38356,0
          107.61545,16.38357,0
          107.61672,16.38309,0
          107.61677,16.38306,0
          107.61685,16.38304,0
          107.61805,16.38254,0
          107.61815,16.38249,0
          107.61839,16.38239,0
          107.61851,16.38233,0
          107.61907,16.38209,0
          107.61917,16.38204,0
          107.61952,16.3819,0
          107.61958,16.38186,0
          107.61969,16.38182,0
          107.62071,16.38137,0
          107.62073,16.38137,0
          107.62078,16.38134,0
          107.62105,16.38123,0
          107.62163,16.38097,0
          107.62174,16.38093,0
          107.62251,16.3806,0
          107.62259,16.38056,0
          107.62332,16.38025,0
          107.6245,16.37966,0
          107.62467,16.37956,0
          107.62526,16.37925,0
          107.62597,16.37885,0
          107.62614,16.37877,0
          107.62617,16.37875,0
          107.62663,16.3785,0
          107.6268,16.37842,0
          107.62683,16.3784,0
          107.62696,16.37833,0
          107.62699,16.37831,0
          107.62843,16.37753,0
          107.62846,16.37751,0
          107.62879,16.37734,0
          107.62946,16.37696,0
          107.63039,16.37647,0
          107.63042,16.37646,0
          107.63159,16.37587,0
          107.63221,16.3756,0
          107.63264,16.37544,0
          107.63278,16.37538,0
          107.63366,16.37508,0
          107.63451,16.37483,0
          107.63468,16.37479,0
          107.63477,16.37476,0
          107.63492,16.37473,0
          107.63517,16.37466,0
          107.63522,16.37465,0
          107.63532,16.37462,0
          107.63538,16.37461,0
          107.6354,16.3746,0
          107.63631,16.37437,0
          107.63647,16.37434,0
          107.63649,16.37433,0
          107.64048,16.37333,0
          107.64197,16.37292,0
          107.64335,16.37249,0
          107.64406,16.37224,0
          107.64411,16.37223,0
          107.64423,16.37218,0
          107.64441,16.37213,0
          107.64488,16.37197,0
          107.64493,16.37196,0
          107.64497,16.37194,0
          107.64502,16.37193,0
          107.64512,16.37189,0
          107.64562,16.37172,0
          107.64563,16.37172,0
          107.64565,16.37171,0
          107.64644,16.37143,0
          107.64651,16.37141,0
          107.64653,16.3714,0
          107.64686,16.37129,0
          107.64704,16.37124,0
          107.64706,16.37123,0
          107.64757,16.37106,0
          107.64792,16.37093,0
          107.64794,16.37092,0
          107.6481,16.37087,0
          107.64812,16.37086,0
          107.6483,16.37081,0
          107.64845,16.37075,0
          107.64848,16.37075,0
          107.64863,16.3707,0
          107.64865,16.37069,0
          107.64951,16.37039,0
          107.64971,16.37031,0
          107.64992,16.37024,0
          107.65038,16.37005,0
          107.65053,16.37,0
          107.65141,16.36957,0
          107.65205,16.36923,0
          107.65252,16.36895,0
          107.65283,16.36874,0
          107.65285,16.36872,0
          107.65298,16.36863,0
          107.65308,16.36857,0
          107.65345,16.36829,0
          107.65428,16.3676,0
          107.6543,16.36759,0
          107.65439,16.36751,0
          107.65481,16.36709,0
          107.65483,16.36708,0
          107.65494,16.36696,0
          107.65496,16.36695,0
          107.65507,16.36683,0
          107.6551,16.36681,0
          107.65558,16.3663,0
          107.6556,16.36629,0
          107.65561,16.36627,0
          107.65581,16.36602,0
          107.65582,16.366,0
          107.65594,16.36586,0
          107.65636,16.36529,0
          107.65637,16.36527,0
          107.65646,16.36514,0
          107.65654,16.36504,0
          107.65668,16.36482,0
          107.65674,16.36475,0
          107.65678,16.36467,0
          107.65687,16.36454,0
          107.65688,16.36452,0
          107.65697,16.36439,0
          107.65698,16.36437,0
          107.65699,16.36436,0
          107.65735,16.36379,0
          107.65737,16.36375,0
          107.65745,16.36362,0
          107.65747,16.3636,0
          107.65785,16.36298,0
          107.65794,16.36285,0
          107.65834,16.36221,0
          107.65843,16.36208,0
          107.65851,16.36194,0
          107.65891,16.36131,0
          107.65893,16.36129,0
          107.65901,16.36116,0
          107.65903,16.36114,0
          107.65912,16.36098,0
          107.6596,16.36024,0
          107.65962,16.36022,0
          107.65967,16.36014,0
          107.65971,16.36009,0
          107.65972,16.36007,0
          107.65981,16.35994,0
          107.65983,16.35992,0
          107.65992,16.35979,0
          107.65993,16.35978,0
          107.66015,16.35948,0
          107.66025,16.35936,0
          107.66026,16.35934,0
          107.66034,16.35924,0
          107.66037,16.35922,0
          107.6605,16.35906,0
          107.66073,16.35881,0
          107.66073,16.3588,0
          107.66075,16.35879,0
          107.66086,16.35867,0
          107.66087,16.35865,0
          107.661,16.35852,0
          107.66112,16.35838,0
          107.66148,16.358,0
          107.6615,16.35799,0
          107.6617,16.35779,0
          107.66175,16.35775,0
          107.66177,16.35773,0
          107.66186,16.35766,0
          107.66191,16.35761,0
          107.66194,16.35759,0
          107.66237,16.35723,0
          107.66243,16.35719,0
          107.66325,16.35657,0
          107.66326,16.35656,0
          107.66454,16.35559,0
          107.66457,16.35556,0
          107.66483,16.35536,0
          107.66487,16.35534,0
          107.66498,16.35525,0
          107.66502,16.35523,0
          107.66557,16.35481,0
          107.66561,16.35479,0
          107.66591,16.35457,0
          107.66602,16.35448,0
          107.66635,16.35424,0
          107.66693,16.35378,0
          107.66842,16.35268,0
          107.66844,16.35267,0
          107.66856,16.35257,0
          107.66871,16.35246,0
          107.66885,16.35234,0
          107.66929,16.352,0
          107.66939,16.35191,0
          107.66954,16.3518,0
          107.66957,16.35177,0
          107.66986,16.35153,0
          107.66989,16.35151,0
          107.66996,16.35144,0
          107.67,16.35141,0
          107.67097,16.35056,0
          107.671,16.35054,0
          107.6711,16.35044,0
          107.67237,16.34937,0
          107.6725,16.34925,0
          107.67261,16.34916,0
          107.67261,16.34915,0
          107.67264,16.34913,0
          107.67337,16.3485,0
          107.67338,16.3485,0
          107.67348,16.34841,0
          107.67352,16.34838,0
          107.67357,16.34833,0
          107.67359,16.34832,0
          107.67429,16.34771,0
          107.67436,16.34764,0
          107.67523,16.34688,0
          107.67525,16.34687,0
          107.67591,16.34628,0
          107.67592,16.34628,0
          107.67621,16.34602,0
          107.67677,16.34557,0
          107.67679,16.34555,0
          107.67685,16.34551,0
          107.67738,16.34508,0
          107.67743,16.34503,0
          107.67749,16.34499,0
          107.67751,16.34497,0
          107.67792,16.34465,0
          107.67794,16.34463,0
          107.67935,16.34357,0
          107.6794,16.34354,0
          107.67942,16.34352,0
          107.68005,16.34305,0
          107.68014,16.34299,0
          107.6802,16.34294,0
          107.68035,16.34284,0
          107.68044,16.34277,0
          107.68046,16.34276,0
          107.68089,16.34245,0
          107.68095,16.3424,0
          107.68106,16.34233,0
          107.68149,16.34202,0
          107.68151,16.342,0
          107.68208,16.34158,0
          107.6821,16.34156,0
          107.68233,16.34139,0
          107.68237,16.34135,0
          107.6824,16.34134,0
          107.68248,16.34128,0
          107.68248,16.34127,0
          107.68267,16.34113,0
          107.68269,16.34112,0
          107.68295,16.34093,0
          107.68307,16.34083,0
          107.68326,16.34069,0
          107.68328,16.34067,0
          107.68351,16.34051,0
          107.68356,16.34047,0
          107.68358,16.34046,0
          107.68401,16.34015,0
          107.68405,16.34011,0
          107.68411,16.34007,0
          107.68412,16.34007,0
          107.68431,16.33993,0
          107.68433,16.33991,0
          107.68456,16.33974,0
          107.68471,16.33964,0
          107.68555,16.33903,0
          107.68561,16.33898,0
          107.68623,16.33858,0
          107.68698,16.33804,0
          107.68709,16.33797,0
          107.68713,16.33793,0
          107.68755,16.33757,0
          107.68759,16.33753,0
          107.68773,16.33742,0
          107.68784,16.33735,0
          107.68803,16.3372,0
          107.68863,16.33677,0
          107.68865,16.33675,0
          107.68937,16.33622,0
          107.68941,16.33615,0
          107.68944,16.33612,0
          107.69068,16.33523,0
          107.69094,16.33502,0
          107.69097,16.33499,0
          107.69377,16.33295,0
          107.69479,16.33217,0
          107.6948,16.33217,0
          107.69596,16.33135,0
          107.69717,16.33043,0
          107.69725,16.33036,0
          107.69804,16.32974,0
          107.69804,16.32973,0
          107.69833,16.32951,0
          107.69833,16.3295,0
          107.69851,16.32935,0
          107.69888,16.32901,0
          107.69914,16.32879,0
          107.69918,16.32877,0
          107.69919,16.32876,0
          107.69921,16.32876,0
          107.69978,16.32822,0
          107.70024,16.32776,0
          107.7003,16.32769,0
          107.70033,16.32767,0
          107.70084,16.32715,0
          107.70089,16.32711,0
          107.70096,16.32703,0
          107.70164,16.32635,0
          107.70171,16.32629,0
          107.7023,16.32571,0
          107.70232,16.3257,0
          107.70243,16.32558,0
          107.70417,16.32383,0
          107.70441,16.32356,0
          107.70459,16.32338,0
          107.7046,16.32338,0
          107.70485,16.32311,0
          107.70498,16.32299,0
          107.70498,16.32298,0
          107.70534,16.32262,0
          107.70536,16.32259,0
          107.70537,16.32259,0
          107.70629,16.3217,0
          107.7063,16.3217,0
          107.70664,16.32137,0
          107.70758,16.3204,0
          107.70759,16.3204,0
          107.70761,16.32037,0
          107.70786,16.32011,0
          107.70805,16.31993,0
          107.70843,16.31953,0
          107.70918,16.31879,0
          107.7101,16.31784,0
          107.71055,16.3174,0
          107.71056,16.31736,0
          107.71056,16.31734,0
          107.71057,16.31732,0
          107.71057,16.31731,0
          107.71102,16.31687,0
          107.71102,16.31686,0
          107.71111,16.31677,0
          107.71114,16.31675,0
          107.71121,16.31667,0
          107.71129,16.3166,0
          107.71168,16.31622,0
          107.7117,16.31621,0
          107.71181,16.31609,0
          107.71194,16.31597,0
          107.71203,16.31587,0
          107.7122,16.3157,0
          107.71227,16.31564,0
          107.71324,16.31467,0
          107.7142,16.31367,0
          107.71421,16.31365,0
          107.71583,16.31203,0
          107.71586,16.31201,0
          107.71587,16.312,0
          107.71591,16.31198,0
          107.71595,16.31198,0
          107.7162,16.31174,0
          107.71665,16.31127,0
          107.71669,16.31124,0
          107.71686,16.31106,0
          107.71741,16.31053,0
          107.71747,16.31046,0
          107.71764,16.3103,0
          107.71764,16.31029,0
          107.71788,16.31001,0
          107.71789,16.30999,0
          107.71796,16.30991,0
          107.71816,16.30963,0
          107.71817,16.30962,0
          107.71846,16.30909,0
          107.71866,16.30859,0
          107.71872,16.30835,0
          107.71883,16.30778,0
          107.71883,16.30776,0
          107.71882,16.30775,0
          107.71882,16.30773,0
          107.71881,16.30771,0
          107.71879,16.30715,0
          107.71877,16.307,0
          107.71876,16.30696,0
          107.71873,16.30672,0
          107.7187,16.3066,0
          107.71868,16.30648,0
          107.71856,16.30608,0
          107.71843,16.30572,0
          107.71836,16.30558,0
          107.71834,16.30555,0
          107.71828,16.30543,0
          107.71779,16.30468,0
          107.71774,16.30458,0
          107.71773,16.30455,0
          107.71772,16.30454,0
          107.71772,16.30451,0
          107.71771,16.30449,0
          107.71685,16.30333,0
          107.71634,16.30258,0
          107.71633,16.30256,0
          107.71624,16.30243,0
          107.71622,16.30241,0
          107.71613,16.30228,0
          107.71612,16.30226,0
          107.71464,16.30021,0
          107.71459,16.30013,0
          107.71354,16.29874,0
          107.71321,16.29826,0
          107.71281,16.29757,0
          107.7128,16.29756,0
          107.71256,16.29705,0
          107.7125,16.29694,0
          107.71248,16.29689,0
          107.71248,16.29688,0
          107.71215,16.29608,0
          107.71189,16.29525,0
          107.7117,16.2945,0
          107.7117,16.29449,0
          107.71168,16.29441,0
          107.71156,16.29363,0
          107.71155,16.2936,0
          107.71152,16.29329,0
          107.71152,16.29249,0
          107.71144,16.29161,0
          107.71142,16.29123,0
          107.7114,16.29108,0
          107.71135,16.29018,0
          107.71133,16.28998,0
          107.71128,16.28964,0
          107.7112,16.2893,0
          107.711,16.28881,0
          107.71083,16.28846,0
          107.71075,16.28832,0
          107.71074,16.28831,0
          107.71065,16.28815,0
          107.71064,16.28814,0
          107.71044,16.28786,0
          107.71044,16.28785,0
          107.71023,16.2876,0
          107.71003,16.2874,0
          107.70975,16.28715,0
          107.70892,16.28654,0
          107.70875,16.2864,0
          107.70861,16.28627,0
          107.7086,16.28627,0
          107.70823,16.28591,0
          107.70801,16.28567,0
          107.70773,16.28531,0
          107.70747,16.28488,0
          107.7074,16.28473,0
          107.70731,16.2845,0
          107.70729,16.28442,0
          107.70728,16.28435,0
          107.70727,16.28432,0
          107.70725,16.28417,0
          107.70723,16.28383,0
          107.70723,16.28361,0
          107.70725,16.28327,0
          107.70723,16.28269,0
          107.70722,16.28257,0
          107.70722,16.28242,0
          107.70724,16.28221,0
          107.70725,16.28181,0
          107.70724,16.2817,0
          107.70724,16.28156,0
          107.70722,16.28132,0
          107.70715,16.28096,0
          107.70708,16.28072,0
          107.70705,16.28066,0
          107.707,16.28053,0
          107.70694,16.2804,0
          107.70668,16.27994,0
          107.7066,16.27983,0
          107.70651,16.27969,0
          107.70629,16.27942,0
          107.7059,16.27898,0
          107.70576,16.27884,0
          107.70543,16.27847,0
          107.70476,16.27779,0
          107.70449,16.27754,0
          107.7041,16.27715,0
          107.70386,16.27693,0
          107.7038,16.27685,0
          107.70354,16.27655,0
          107.70314,16.27605,0
          107.70276,16.27565,0
          107.70262,16.27549,0
          107.70177,16.27434,0
          107.70127,16.27347,0
          107.70085,16.27267,0
          107.70063,16.27216,0
          107.69972,16.26976,0
          107.69967,16.26958,0
          107.69966,16.26958,0
          107.69961,16.26927,0
          107.69961,16.26923,0
          107.69953,16.26878,0
          107.69951,16.26848,0
          107.69951,16.26834,0
          107.69952,16.2682,0
          107.69952,16.26798,0
          107.69953,16.26779,0
          107.69953,16.267,0
          107.69955,16.26654,0
          107.69962,16.26604,0
          107.69994,16.26423,0
          107.70009,16.26353,0
          107.7001,16.26344,0
          107.70022,16.26302,0
          107.70032,16.2625,0
          107.70036,16.26219,0
          107.70037,16.26193,0
          107.70035,16.26165,0
          107.70025,16.26103,0
          107.70021,16.26093,0
          107.70016,16.26072,0
          107.70008,16.2605,0
          107.69997,16.26027,0
          107.69975,16.25993,0
          107.69947,16.25958,0
          107.69891,16.25895,0
          107.6989,16.25893,0
          107.69867,16.25865,0
          107.69863,16.25861,0
          107.69843,16.25837,0
          107.69834,16.25825,0
          107.69803,16.25789,0
          107.69785,16.25757,0
          107.69777,16.25736,0
          107.69763,16.25673,0
          107.69757,16.25638,0
          107.69751,16.25568,0
          107.69752,16.25496,0
          107.69749,16.25425,0
          107.69749,16.25395,0
          107.69746,16.25369,0
          107.69742,16.25347,0
          107.69737,16.25329,0
          107.69724,16.25297,0
          107.6971,16.25267,0
          107.69624,16.25113,0
          107.69583,16.2503,0
          107.69574,16.25016,0
          107.69569,16.25007,0
          107.69565,16.25001,0
          107.69539,16.24953,0
          107.69518,16.24903,0
          107.69505,16.24867,0
          107.69492,16.24818,0
          107.69486,16.24756,0
          107.69486,16.24655,0
          107.69485,16.24637,0
          107.69485,16.24619,0
          107.69483,16.24583,0
          107.69482,16.24578,0
          107.69483,16.24518,0
          107.69489,16.24477,0
          107.69507,16.24424,0
          107.69508,16.24422,0
          107.69521,16.24372,0
          107.69527,16.24355,0
          107.69564,16.24263,0
          107.69587,16.24228,0
          107.69611,16.24204,0
          107.69623,16.24194,0
          107.69636,16.24185,0
          107.69665,16.2417,0
          107.69672,16.24167,0
          107.69682,16.24164,0
          107.69689,16.24161,0
          107.69696,16.24159,0
          107.697,16.24159,0
          107.69707,16.24157,0
          107.69726,16.24154,0
          107.69759,16.24151,0
          107.69824,16.2415,0
          107.69838,16.24149,0
          107.69849,16.24149,0
          107.69862,16.24148,0
          107.699,16.24143,0
          107.69947,16.24129,0
          107.70051,16.24077,0
          107.70057,16.24073,0
          107.7008,16.24061,0
          107.7013,16.24032,0
          107.70175,16.24009,0
          107.70192,16.24002,0
          107.70207,16.23997,0
          107.70211,16.23995,0
          107.7023,16.2399,0
          107.70258,16.23984,0
          107.70279,16.23981,0
          107.70303,16.23979,0
          107.70313,16.23979,0
          107.70354,16.23976,0
          107.70383,16.23972,0
          107.70386,16.23972,0
          107.70396,16.2397,0
          107.70398,16.2397,0
          107.70414,16.23966,0
          107.70424,16.23962,0
          107.70443,16.23956,0
          107.70474,16.23942,0
          107.70499,16.23928,0
          107.7052,16.23913,0
          107.7055,16.23886,0
          107.70554,16.2388,0
          107.70558,16.23876,0
          107.70569,16.23862,0
          107.70585,16.23833,0
          107.70606,16.23784,0
          107.70613,16.23757,0
          107.70614,16.2375,0
          107.70615,16.23748,0
          107.70615,16.23744,0
          107.70619,16.23727,0
          107.70626,16.23704,0
          107.70635,16.23679,0
          107.70643,16.23663,0
          107.70655,16.23642,0
          107.70657,16.2364,0
          107.70671,16.23622,0
          107.70719,16.23572,0
          107.70719,16.23571,0
          107.70743,16.23545,0
          107.70744,16.23545,0
          107.70775,16.2351,0
          107.70794,16.23492,0
          107.70825,16.23465,0
          107.7085,16.23445,0
          107.70852,16.23443,0
          107.70886,16.23416,0
          107.70941,16.23381,0
          107.70941,16.2338,0
          107.70966,16.23364,0
          107.70971,16.2336,0
          107.70972,16.2336,0
          107.71015,16.23333,0
          107.71035,16.23323,0
          107.71036,16.23322,0
          107.71051,16.23314,0
          107.71052,16.23313,0
          107.71084,16.23296,0
          107.71085,16.23296,0
          107.71156,16.23257,0
          107.71176,16.23247,0
          107.71179,16.23246,0
          107.71202,16.23233,0
          107.71219,16.23225,0
          107.71235,16.23216,0
          107.71252,16.23208,0
          107.71301,16.23182,0
          107.71366,16.2314,0
          107.71406,16.23109,0
          107.71416,16.231,0
          107.71427,16.23087,0
          107.71444,16.23063,0
          107.71448,16.23055,0
          107.71451,16.23046,0
          107.7147,16.22999,0
          107.71474,16.22992,0
          107.71493,16.22951,0
          107.71498,16.22943,0
          107.71506,16.22907,0
          107.71511,16.22872,0
          107.71511,16.22865,0
          107.71562,16.22643,0
          107.71565,16.22636,0
          107.7157,16.22627,0
          107.71593,16.22572,0
          107.71618,16.22522,0
          107.71653,16.22466,0
          107.71654,16.22463,0
          107.71666,16.22442,0
          107.71681,16.2242,0
          107.71699,16.22385,0
          107.71736,16.22294,0
          107.71738,16.2229,0
          107.71754,16.22247,0
          107.71759,16.22227,0
          107.71765,16.22192,0
          107.71765,16.22185,0
          107.71767,16.22171,0
          107.71767,16.22149,0
          107.71765,16.22132,0
          107.71761,16.22078,0
          107.71761,16.2207,0
          107.71756,16.22042,0
          107.71755,16.22032,0
          107.71753,16.22024,0
          107.7175,16.22007,0
          107.71744,16.2199,0
          107.71742,16.21981,0
          107.71734,16.21956,0
          107.71734,16.21955,0
          107.71728,16.21937,0
          107.71727,16.21927,0
          107.71724,16.21918,0
          107.71722,16.21901,0
          107.71722,16.21886,0
          107.71723,16.21879,0
          107.71728,16.21859,0
          107.71728,16.21858,0
          107.71731,16.21847,0
          107.7174,16.21825,0
          107.71742,16.21818,0
          107.71792,16.21709,0
          107.71796,16.21698,0
          107.71797,16.21697,0
          107.71815,16.2165,0
          107.71815,16.21649,0
          107.71861,16.21558,0
          107.71881,16.215,0
          107.71886,16.2149,0
          107.71914,16.21426,0
          107.71921,16.21406,0
          107.71938,16.21369,0
          107.71945,16.21358,0
          107.71948,16.21352,0
          107.71976,16.21313,0
          107.71982,16.21306,0
          107.71987,16.21298,0
          107.71988,16.21297,0
          107.71996,16.21283,0
          107.72004,16.21266,0
          107.72009,16.21257,0
          107.7202,16.21234,0
          107.72041,16.21196,0
          107.72046,16.2119,0
          107.72057,16.21171,0
          107.72071,16.2115,0
          107.72081,16.21131,0
          107.72084,16.21124,0
          107.72091,16.21102,0
          107.72094,16.21085,0
          107.72094,16.21068,0
          107.72095,16.21067,0
          107.72097,16.21048,0
          107.72101,16.21028,0
          107.72105,16.21019,0
          107.72106,16.21015,0
          107.72108,16.2101,0
          107.72114,16.20998,0
          107.72123,16.20983,0
          107.72134,16.20961,0
          107.72165,16.20909,0
          107.72182,16.20877,0
          107.72211,16.20827,0
          107.72233,16.20794,0
          107.72236,16.20791,0
          107.72237,16.20789,0
          107.72241,16.20788,0
          107.72253,16.20765,0
          107.72253,16.20763,0
          107.72256,16.20758,0
          107.72276,16.20715,0
          107.72276,16.20714,0
          107.72293,16.20683,0
          107.72297,16.20678,0
          107.72301,16.20672,0
          107.72309,16.20658,0
          107.72321,16.20641,0
          107.72322,16.20641,0
          107.72356,16.20588,0
          107.72374,16.20557,0
          107.72393,16.2053,0
          107.72434,16.20465,0
          107.72479,16.20386,0
          107.72514,16.20332,0
          107.72558,16.20258,0
          107.72558,16.20257,0
          107.72617,16.20163,0
          107.7262,16.20157,0
          107.72626,16.20149,0
          107.72683,16.20045,0
          107.72698,16.20014,0
          107.72699,16.20013,0
          107.72699,16.20012,0
          107.72726,16.19952,0
          107.72737,16.19922,0
          107.72739,16.19914,0
          107.7274,16.19914,0
          107.7274,16.19912,0
          107.72747,16.19888,0
          107.72754,16.19852,0
          107.7276,16.19828,0
          107.72763,16.19799,0
          107.72764,16.19795,0
          107.72769,16.19753,0
          107.72775,16.19675,0
          107.72777,16.19494,0
          107.7278,16.19466,0
          107.72787,16.19439,0
          107.72795,16.19415,0
          107.728,16.19407,0
          107.72837,16.19333,0
          107.72846,16.19317,0
          107.7285,16.19311,0
          107.72854,16.19303,0
          107.72855,16.19302,0
          107.72855,16.19301,0
          107.72884,16.19247,0
          107.72889,16.19239,0
          107.72889,16.19237,0
          107.72893,16.19231,0
          107.72922,16.19174,0
          107.72923,16.19173,0
          107.72929,16.19161,0
          107.7293,16.19158,0
          107.72945,16.19124,0
          107.72957,16.19088,0
          107.7296,16.19072,0
          107.7296,16.19068,0
          107.72966,16.19038,0
          107.72966,16.19032,0
          107.72969,16.19014,0
          107.7297,16.19,0
          107.7297,16.1897,0
          107.72965,16.18915,0
          107.72958,16.18875,0
          107.72954,16.18858,0
          107.72947,16.18841,0
          107.72941,16.18824,0
          107.72938,16.18818,0
          107.72932,16.18808,0
          107.7293,16.18803,0
          107.72921,16.1879,0
          107.72903,16.18769,0
          107.72884,16.1875,0
          107.72867,16.18736,0
          107.72842,16.18719,0
          107.72835,16.18715,0
          107.72811,16.18698,0
          107.7279,16.18688,0
          107.72748,16.18664,0
          107.7271,16.18647,0
          107.72659,16.18615,0
          107.7265,16.18608,0
          107.72559,16.18526,0
          107.72555,16.18525,0
          107.72546,16.18519,0
          107.72539,16.18513,0
          107.72497,16.18471,0
          107.72398,16.18377,0
          107.72384,16.18365,0
          107.72374,16.18355,0
          107.72335,16.18309,0
          107.72287,16.18227,0
          107.72267,16.1818,0
          107.72261,16.18156,0
          107.72259,16.18132,0
          107.72258,16.18129,0
          107.72252,16.18021,0
          107.7225,16.17931,0
          107.72247,16.17877,0
          107.72247,16.17859,0
          107.72246,16.17841,0
          107.7224,16.17798,0
          107.72234,16.17776,0
          107.72197,16.17687,0
          107.72196,16.17686,0
          107.72181,16.17651,0
          107.72179,16.17643,0
          107.72178,16.17641,0
          107.72178,16.17636,0
          107.72179,16.17634,0
          107.72156,16.17587,0
          107.72141,16.17553,0
          107.72141,16.17552,0
          107.72127,16.17519,0
          107.72108,16.17468,0
          107.72097,16.17434,0
          107.72089,16.17415,0
          107.72078,16.17385,0
          107.72076,16.17377,0
          107.72072,16.17352,0
          107.72071,16.1734,0
          107.72072,16.17315,0
          107.72078,16.17285,0
          107.72079,16.17283,0
          107.72083,16.17266,0
          107.72086,16.17257,0
          107.72098,16.17227,0
          107.72113,16.17201,0
          107.72117,16.17196,0
          107.72143,16.17168,0
          107.72161,16.17153,0
          107.72182,16.1714,0
          107.72186,16.17137,0
          107.72187,16.17137,0
          107.72212,16.17125,0
          107.72332,16.17079,0
          107.7241,16.17047,0
          107.72503,16.17014,0
          107.7251,16.17011,0
          107.72582,16.16985,0
          107.72664,16.16953,0
          107.72683,16.16943,0
          107.72693,16.16937,0
          107.72711,16.16928,0
          107.72772,16.16889,0
          107.72811,16.16855,0
          107.72815,16.16852,0
          107.72836,16.16831,0
          107.72847,16.16817,0
          107.72855,16.16809,0
          107.72881,16.16765,0
          107.72887,16.16756,0
          107.7289,16.1675,0
          107.72891,16.16749,0
          107.72908,16.16718,0
          107.72908,16.16717,0
          107.72946,16.1664,0
          107.72962,16.16593,0
          107.72962,16.16591,0
          107.7297,16.16557,0
          107.7297,16.16554,0
          107.72976,16.16521,0
          107.72976,16.16513,0
          107.72978,16.16499,0
          107.7298,16.16469,0
          107.72978,16.16422,0
          107.72977,16.16412,0
          107.72977,16.16406,0
          107.72975,16.16386,0
          107.72973,16.16376,0
          107.7297,16.16346,0
          107.72959,16.1628,0
          107.72958,16.16269,0
          107.72953,16.16235,0
          107.72945,16.16162,0
          107.72936,16.16112,0
          107.72935,16.16109,0
          107.72934,16.16103,0
          107.72934,16.16101,0
          107.72928,16.16056,0
          107.72923,16.15955,0
          107.72926,16.15914,0
          107.72926,16.15908,0
          107.72927,16.15905,0
          107.72938,16.15843,0
          107.72947,16.15809,0
          107.72947,16.15807,0
          107.72949,16.158,0
          107.72954,16.15787,0
          107.72959,16.1577,0
          107.72979,16.15725,0
          107.73019,16.15644,0
          107.73026,16.15627,0
          107.73027,16.15627,0
          107.73039,16.15602,0
          107.73043,16.15595,0
          107.73043,16.15594,0
          107.7306,16.15562,0
          107.73089,16.15512,0
          107.73131,16.15425,0
          107.73135,16.15418,0
          107.73136,16.15417,0
          107.73138,16.15414,0
          107.7314,16.15409,0
          107.73167,16.15354,0
          107.73167,16.15352,0
          107.73172,16.15344,0
          107.73174,16.15338,0
          107.73176,16.15335,0
          107.73183,16.15321,0
          107.73184,16.1532,0
          107.73188,16.15311,0
          107.73196,16.15296,0
          107.73199,16.15289,0
          107.73225,16.15239,0
          107.7323,16.15231,0
          107.73274,16.15144,0
          107.73292,16.15111,0
          107.7332,16.15068,0
          107.73341,16.15043,0
          107.73409,16.14982,0
          107.73415,16.14979,0
          107.73447,16.1496,0
          107.73448,16.14959,0
          107.73457,16.14955,0
          107.73463,16.14951,0
          107.73481,16.14942,0
          107.73524,16.14926,0
          107.73568,16.14914,0
          107.7358,16.14913,0
          107.73643,16.14903,0
          107.74034,16.14863,0
          107.74045,16.14861,0
          107.74058,16.1486,0
          107.7419,16.14843,0
          107.74194,16.14843,0
          107.7423,16.14837,0
          107.74238,16.14835,0
          107.74286,16.14827,0
          107.74311,16.14821,0
          107.74312,16.14821,0
          107.74385,16.14807,0
          107.74386,16.14806,0
          107.74534,16.14774,0
          107.74549,16.1477,0
          107.7456,16.14768,0
          107.74567,16.14766,0
          107.74604,16.14758,0
          107.74614,16.14755,0
          107.7464,16.14749,0
          107.74642,16.14749,0
          107.74669,16.14742,0
          107.74676,16.14741,0
          107.74747,16.14724,0
          107.74748,16.14724,0
          107.74785,16.14715,0
          107.74786,16.14715,0
          107.74851,16.147,0
          107.74857,16.14698,0
          107.74858,16.14698,0
          107.74875,16.14693,0
          107.74876,16.14693,0
          107.7488,16.14692,0
          107.74904,16.14683,0
          107.7491,16.1468,0
          107.74911,16.1468,0
          107.74974,16.14656,0
          107.74981,16.14654,0
          107.75047,16.14628,0
          107.75051,16.14627,0
          107.75061,16.14623,0
          107.75065,16.14622,0
          107.75188,16.14575,0
          107.75189,16.14575,0
          107.75195,16.14573,0
          107.75196,16.14572,0
          107.75216,16.14565,0
          107.75223,16.14562,0
          107.75224,16.14562,0
          107.7524,16.14555,0
          107.75241,16.14555,0
          107.75327,16.14522,0
          107.7536,16.14508,0
          107.75378,16.14502,0
          107.75379,16.14501,0
          107.75381,16.145,0
          107.75382,16.145,0
          107.75578,16.14424,0
          107.75582,16.14422,0
          107.7564,16.144,0
          107.75644,16.14398,0
          107.75648,16.14397,0
          107.75657,16.14393,0
          107.75677,16.14386,0
          107.75678,16.14386,0
          107.75741,16.14364,0
          107.75745,16.14363,0
          107.75763,16.14356,0
          107.75764,16.14356,0
          107.75795,16.14345,0
          107.75797,16.14344,0
          107.75798,16.14343,0
          107.75828,16.14332,0
          107.7583,16.14332,0
          107.75831,16.14331,0
          107.75893,16.14308,0
          107.75894,16.14307,0
          107.7592,16.14297,0
          107.75922,16.14297,0
          107.75926,16.14295,0
          107.75927,16.14294,0
          107.75991,16.14268,0
          107.75993,16.14268,0
          107.76075,16.14234,0
          107.76076,16.14234,0
          107.76089,16.14228,0
          107.76092,16.14227,0
          107.76107,16.1422,0
          107.76108,16.1422,0
          107.7617,16.14194,0
          107.76173,16.14194,0
          107.76204,16.1418,0
          107.76214,16.14177,0
          107.76512,16.14059,0
          107.76522,16.14054,0
          107.76526,16.14053,0
          107.76547,16.14045,0
          107.76598,16.14021,0
          107.76633,16.14003,0
          107.76641,16.13998,0
          107.76645,16.13996,0
          107.76651,16.13992,0
          107.76657,16.13989,0
          107.76677,16.13975,0
          107.76679,16.13973,0
          107.76721,16.13945,0
          107.76738,16.13931,0
          107.76764,16.13913,0
          107.7677,16.1391,0
          107.76809,16.13884,0
          107.76826,16.13875,0
          107.76841,16.13864,0
          107.76848,16.13861,0
          107.76857,16.13855,0
          107.76892,16.13835,0
          107.76975,16.13797,0
          107.76985,16.13794,0
          107.77024,16.13777,0
          107.77033,16.13774,0
          107.77063,16.13762,0
          107.77069,16.13759,0
          107.77076,16.13757,0
          107.77093,16.13749,0
          107.77099,16.13747,0
          107.77199,16.13701,0
          107.77208,16.13696,0
          107.77212,16.13695,0
          107.77228,16.13687,0
          107.77229,16.13687,0
          107.77254,16.13674,0
          107.77262,16.13671,0
          107.77267,16.13668,0
          107.77274,16.13665,0
          107.77311,16.13645,0
          107.77316,16.13643,0
          107.77321,16.1364,0
          107.77384,16.13609,0
          107.77401,16.13603,0
          107.77412,16.13598,0
          107.77413,16.13598,0
          107.7743,16.13592,0
          107.7743,16.13591,0
          107.77442,16.13588,0
          107.77476,16.13582,0
          107.77489,16.13581,0
          107.77494,16.13582,0
          107.77502,16.13581,0
          107.77533,16.13584,0
          107.77559,16.1359,0
          107.77578,16.13596,0
          107.77602,16.13606,0
          107.77612,16.13611,0
          107.7774,16.13686,0
          107.77757,16.13695,0
          107.77801,16.13722,0
          107.77829,16.13737,0
          107.77863,16.13753,0
          107.77872,16.13756,0
          107.77903,16.13764,0
          107.77904,16.13764,0
          107.77912,16.13766,0
          107.77941,16.13769,0
          107.77949,16.13768,0
          107.7796,16.13768,0
          107.77986,16.13765,0
          107.78008,16.13761,0
          107.7804,16.13751,0
          107.78066,16.13737,0
          107.78069,16.13736,0
          107.7809,16.13724,0
          107.78097,16.13718,0
          107.78112,16.13709,0
          107.78113,16.13708,0
          107.78121,16.13703,0
          107.78126,16.13699,0
          107.78128,16.13698,0
          107.78184,16.13662,0
          107.78194,16.13657,0
          107.78202,16.13652,0
          107.78205,16.13651,0
          107.78209,16.13649,0
          107.78241,16.13629,0
          107.78247,16.13624,0
          107.78249,16.13623,0
          107.78256,16.13617,0
          107.78266,16.13612,0
          107.78266,16.13611,0
          107.78294,16.13595,0
          107.78298,16.13594,0
          107.78315,16.13588,0
          107.78335,16.13584,0
          107.7836,16.13581,0
          107.78372,16.13582,0
          107.78387,16.13582,0
          107.78399,16.13583,0
          107.78409,16.13583,0
          107.78447,16.13592,0
          107.78453,16.13595,0
          107.78474,16.13602,0
          107.785,16.13612,0
          107.78516,16.1362,0
          107.78526,16.13624,0
          107.78543,16.13633,0
          107.78551,16.13638,0
          107.7862,16.13676,0
          107.78626,16.1368,0
          107.78629,16.13681,0
          107.78653,16.13693,0
          107.78706,16.13717,0
          107.78726,16.13724,0
          107.78755,16.13731,0
          107.78786,16.13734,0
          107.7881,16.13733,0
          107.78836,16.1373,0
          107.78881,16.13719,0
          107.78889,16.13716,0
          107.78897,16.13714,0
          107.78941,16.13695,0
          107.78985,16.13678,0
          107.78986,16.13677,0
          107.79011,16.13669,0
          107.79057,16.13661,0
          107.79081,16.13661,0
          107.791,16.13662,0
          107.79112,16.13664,0
          107.7912,16.13666,0
          107.79123,16.13666,0
          107.79165,16.1368,0
          107.79191,16.1369,0
          107.79202,16.13695,0
          107.79208,16.13697,0
          107.79243,16.13712,0
          107.79252,16.13715,0
          107.79278,16.13726,0
          107.79279,16.13726,0
          107.79309,16.13741,0
          107.79312,16.13742,0
          107.79313,16.13742,0
          107.79378,16.13775,0
          107.79393,16.13781,0
          107.79409,16.13786,0
          107.79414,16.13787,0
          107.79414,16.13788,0
          107.79425,16.13791,0
          107.79447,16.13795,0
          107.79451,16.13795,0
          107.79454,16.13796,0
          107.79504,16.13795,0
          107.79525,16.13792,0
          107.7953,16.1379,0
          107.79597,16.13773,0
          107.79615,16.13767,0
          107.79648,16.13758,0
          107.79666,16.13752,0
          107.79668,16.13751,0
          107.79669,16.13751,0
          107.7977,16.1372,0
          107.7981,16.13706,0
          107.79811,16.13706,0
          107.79815,16.13704,0
          107.79826,16.13701,0
          107.79828,16.137,0
          107.79887,16.13682,0
          107.79897,16.13678,0
          107.79899,16.13678,0
          107.799,16.13677,0
          107.79958,16.1366,0
          107.79959,16.1366,0
          107.79971,16.13656,0
          107.79972,16.13655,0
          107.79986,16.13651,0
          107.79988,16.1365,0
          107.79989,16.13649,0
          107.79998,16.13647,0
          107.80004,16.13645,0
          107.80006,16.13644,0
          107.80007,16.13643,0
          107.80024,16.13638,0
          107.80025,16.13638,0
          107.80029,16.13636,0
          107.80039,16.13633,0
          107.80041,16.13632,0
          107.80043,16.13632,0
          107.8011,16.1361,0
          107.80118,16.13608,0
          107.80146,16.13599,0
          107.80148,16.13598,0
          107.80153,16.13597,0
          107.80165,16.13593,0
          107.80166,16.13593,0
          107.80182,16.1359,0
          107.80184,16.13589,0
          107.80203,16.13586,0
          107.80216,16.13583,0
          107.80256,16.1358,0
          107.80267,16.1358,0
          107.80294,16.13578,0
          107.80301,16.13578,0
          107.80315,16.13577,0
          107.80322,16.13577,0
          107.80365,16.13573,0
          107.80368,16.13572,0
          107.80376,16.13571,0
          107.80389,16.13568,0
          107.80417,16.1356,0
          107.80442,16.1355,0
          107.80443,16.1355,0
          107.80524,16.13512,0
          107.80526,16.13512,0
          107.80555,16.135,0
          107.80578,16.13492,0
          107.80613,16.13484,0
          107.80651,16.1348,0
          107.80672,16.13479,0
          107.80676,16.13478,0
          107.8079,16.13475,0
          107.80818,16.13473,0
          107.8082,16.13472,0
          107.80893,16.13468,0
          107.80895,16.13467,0
          107.81045,16.13461,0
          107.8105,16.1346,0
          107.81086,16.1346,0
          107.81099,16.13462,0
          107.81112,16.13463,0
          107.81138,16.13469,0
          107.81165,16.13477,0
          107.81166,16.13478,0
          107.81182,16.13486,0
          107.81188,16.13488,0
          107.81209,16.13505,0
          107.81212,16.13507,0
          107.81224,16.13521,0
          107.81231,16.13528,0
          107.81235,16.13535,0
          107.81239,16.1354,0
          107.81247,16.13553,0
          107.8127,16.13598,0
          107.81271,16.13601,0
          107.81273,16.13604,0
          107.81286,16.13631,0
          107.81288,16.13634,0
          107.81289,16.13637,0
          107.81297,16.13653,0
          107.81377,16.13788,0
          107.81379,16.13794,0
          107.81394,16.1382,0
          107.81428,16.13884,0
          107.81468,16.13955,0
          107.81486,16.1398,0
          107.81501,16.13999,0
          107.8152,16.14018,0
          107.8154,16.14034,0
          107.81542,16.14035,0
          107.81553,16.14043,0
          107.81567,16.14052,0
          107.81589,16.14064,0
          107.81595,16.14068,0
          107.81642,16.14089,0
          107.81687,16.14107,0
          107.81692,16.14108,0
          107.81738,16.14127,0
          107.81762,16.14135,0
          107.81812,16.14159,0
          107.81829,16.14166,0
          107.81876,16.14189,0
          107.81961,16.14223,0
          107.81982,16.14233,0
          107.82085,16.14276,0
          107.82086,16.14277,0
          107.82114,16.14288,0
          107.82138,16.14295,0
          107.82175,16.143,0
          107.82221,16.14304,0
          107.82253,16.14304,0
          107.82329,16.14294,0
          107.82377,16.14284,0
          107.82379,16.14284,0
          107.8239,16.14281,0
          107.82542,16.14251,0
          107.82544,16.14251,0
          107.82617,16.14236,0
          107.82676,16.1423,0
          107.82718,16.1423,0
          107.82762,16.14233,0
          107.82765,16.14234,0
          107.82802,16.14239,0
          107.82804,16.14239,0
          107.82877,16.1425,0
          107.82894,16.14254,0
          107.82896,16.14254,0
          107.82931,16.14261,0
          107.82932,16.14261,0
          107.82944,16.14264,0
          107.8295,16.14264,0
          107.82951,16.14265,0
          107.83005,16.14271,0
          107.83007,16.14271,0
          107.83013,16.14272,0
          107.83043,16.14274,0
          107.83132,16.14288,0
          107.83134,16.14288,0
          107.83205,16.1431,0
          107.83208,16.1431,0
          107.83213,16.14313,0
          107.83247,16.14326,0
          107.83258,16.14329,0
          107.83316,16.14349,0
          107.83318,16.1435,0
          107.83354,16.1436,0
          107.83372,16.14366,0
          107.83382,16.14368,0
          107.83383,16.14369,0
          107.83392,16.14371,0
          107.83471,16.14396,0
          107.83472,16.14396,0
          107.83484,16.144,0
        </coordinates>
      </LineString>
    </Placemark>
    <Placemark>
      <name>16.507230 107.356200</name>
      <styleUrl>#icon-1899-DB4436-nodesc</styleUrl>
      <Point>
        <coordinates>
          107.356672,16.5076513,0
        </coordinates>
      </Point>
    </Placemark>
    <Placemark>
      <name>16.144050 107.836510</name>
      <styleUrl>#icon-1899-DB4436-nodesc</styleUrl>
      <Point>
        <coordinates>
          107.8348422,16.1440024,0
        </coordinates>
      </Point>
    </Placemark>
  </Document>
</kml>
