<?xml version="1.0" encoding="UTF-8"?>
<kml xmlns="http://www.opengis.net/kml/2.2">
  <Document>
    <name>goithau-52</name>
    <Style id="icon-1899-DB4436-nodesc-normal">
      <IconStyle>
        <color>ff3644db</color>
        <scale>1</scale>
        <Icon>
          <href>https://www.gstatic.com/mapspro/images/stock/503-wht-blank_maps.png</href>
        </Icon>
        <hotSpot x="32" xunits="pixels" y="64" yunits="insetPixels"/>
      </IconStyle>
      <LabelStyle>
        <scale>0</scale>
      </LabelStyle>
      <BalloonStyle>
        <text><![CDATA[<h3>$[name]</h3>]]></text>
      </BalloonStyle>
    </Style>
    <Style id="icon-1899-DB4436-nodesc-highlight">
      <IconStyle>
        <color>ff3644db</color>
        <scale>1</scale>
        <Icon>
          <href>https://www.gstatic.com/mapspro/images/stock/503-wht-blank_maps.png</href>
        </Icon>
        <hotSpot x="32" xunits="pixels" y="64" yunits="insetPixels"/>
      </IconStyle>
      <LabelStyle>
        <scale>1</scale>
      </LabelStyle>
      <BalloonStyle>
        <text><![CDATA[<h3>$[name]</h3>]]></text>
      </BalloonStyle>
    </Style>
    <StyleMap id="icon-1899-DB4436-nodesc">
      <Pair>
        <key>normal</key>
        <styleUrl>#icon-1899-DB4436-nodesc-normal</styleUrl>
      </Pair>
      <Pair>
        <key>highlight</key>
        <styleUrl>#icon-1899-DB4436-nodesc-highlight</styleUrl>
      </Pair>
    </StyleMap>
    <Style id="line-1267FF-5000-nodesc-normal">
      <LineStyle>
        <color>ffff6712</color>
        <width>5</width>
      </LineStyle>
      <BalloonStyle>
        <text><![CDATA[<h3>$[name]</h3>]]></text>
      </BalloonStyle>
    </Style>
    <Style id="line-1267FF-5000-nodesc-highlight">
      <LineStyle>
        <color>ffff6712</color>
        <width>7.5</width>
      </LineStyle>
      <BalloonStyle>
        <text><![CDATA[<h3>$[name]</h3>]]></text>
      </BalloonStyle>
    </Style>
    <StyleMap id="line-1267FF-5000-nodesc">
      <Pair>
        <key>normal</key>
        <styleUrl>#line-1267FF-5000-nodesc-normal</styleUrl>
      </Pair>
      <Pair>
        <key>highlight</key>
        <styleUrl>#line-1267FF-5000-nodesc-highlight</styleUrl>
      </Pair>
    </StyleMap>
    <Placemark>
      <name>goithau-52</name>
      <styleUrl>#line-1267FF-5000-nodesc</styleUrl>
      <LineString>
        <tessellate>1</tessellate>
        <coordinates>
          108.7586,11.40027,0
          108.75852,11.40019,0
          108.75811,11.39983,0
          108.75804,11.39976,0
          108.75798,11.39971,0
          108.75791,11.39964,0
          108.75784,11.39959,0
          108.75771,11.39946,0
          108.75757,11.39934,0
          108.7571,11.39891,0
          108.75696,11.39879,0
          108.7569,11.39873,0
          108.75655,11.39843,0
          108.75649,11.39837,0
          108.75622,11.39813,0
          108.75615,11.39806,0
          108.7558,11.39775,0
          108.75523,11.39718,0
          108.7551,11.39706,0
          108.75465,11.39661,0
          108.75459,11.39654,0
          108.75446,11.39642,0
          108.7542,11.39616,0
          108.75413,11.3961,0
          108.75407,11.39603,0
          108.75381,11.39578,0
          108.75375,11.39571,0
          108.75368,11.39565,0
          108.75137,11.39334,0
          108.75042,11.39244,0
          108.75032,11.39236,0
          108.74945,11.39154,0
          108.7494,11.39148,0
          108.74839,11.39049,0
          108.74807,11.39015,0
          108.74686,11.38879,0
          108.74682,11.38875,0
          108.74662,11.38852,0
          108.74653,11.38843,0
          108.7463,11.38813,0
          108.74595,11.38771,0
          108.74589,11.38763,0
          108.74551,11.38718,0
          108.74497,11.38645,0
          108.74475,11.38617,0
          108.74434,11.38562,0
          108.74431,11.38559,0
          108.74372,11.38473,0
          108.7437,11.38471,0
          108.7437,11.3847,0
          108.74324,11.38397,0
          108.74304,11.38367,0
          108.74295,11.38352,0
          108.74294,11.38351,0
          108.7422,11.38225,0
          108.74168,11.38129,0
          108.74133,11.38058,0
          108.74132,11.38057,0
          108.74129,11.38049,0
          108.74086,11.37959,0
          108.74076,11.37936,0
          108.7405,11.37882,0
          108.7401,11.37787,0
          108.73998,11.37755,0
          108.73995,11.37745,0
          108.73968,11.37676,0
          108.73967,11.37671,0
          108.73932,11.37568,0
          108.73922,11.37535,0
          108.73921,11.37533,0
          108.73884,11.37406,0
          108.73845,11.37258,0
          108.73841,11.37238,0
          108.73839,11.37224,0
          108.73825,11.37153,0
          108.73795,11.36977,0
          108.73775,11.36847,0
          108.73771,11.36812,0
          108.73769,11.36802,0
          108.73715,11.36403,0
          108.73715,11.364,0
          108.73714,11.36397,0
          108.73676,11.3611,0
          108.73676,11.36109,0
          108.73669,11.3606,0
          108.73669,11.36056,0
          108.73667,11.36042,0
          108.73666,11.36038,0
          108.73658,11.35971,0
          108.73657,11.35966,0
          108.73648,11.35896,0
          108.73624,11.35733,0
          108.73552,11.35186,0
          108.73551,11.35171,0
          108.73549,11.35158,0
          108.73548,11.35157,0
          108.73536,11.35069,0
          108.73535,11.35054,0
          108.73458,11.34498,0
          108.73458,11.34497,0
          108.73455,11.34479,0
          108.73442,11.34376,0
          108.73442,11.34372,0
          108.73425,11.34258,0
          108.734,11.34071,0
          108.73398,11.3406,0
          108.73374,11.33869,0
          108.7337,11.33852,0
          108.73348,11.33707,0
          108.73348,11.33706,0
          108.73323,11.33575,0
          108.73294,11.33446,0
          108.73281,11.33394,0
          108.73276,11.33377,0
          108.73276,11.33375,0
          108.73262,11.33325,0
          108.73258,11.33307,0
          108.73239,11.33238,0
          108.73238,11.33236,0
          108.73175,11.33038,0
          108.73081,11.32797,0
          108.72863,11.3228,0
          108.72853,11.32259,0
          108.72775,11.32074,0
          108.72775,11.32073,0
          108.72686,11.31865,0
          108.72677,11.31842,0
          108.7264,11.3176,0
          108.72623,11.31717,0
          108.72617,11.31704,0
          108.72616,11.31701,0
          108.72476,11.31371,0
          108.72475,11.31368,0
          108.72364,11.31105,0
          108.72313,11.3099,0
          108.72312,11.30987,0
          108.72255,11.30854,0
          108.72156,11.30606,0
          108.72068,11.30392,0
          108.72065,11.30386,0
          108.72015,11.30257,0
          108.71827,11.29796,0
          108.7181,11.2975,0
          108.71794,11.29716,0
          108.71753,11.29617,0
          108.71706,11.29494,0
          108.71661,11.29385,0
          108.7164,11.29328,0
          108.7162,11.2928,0
          108.71583,11.29186,0
          108.71582,11.29184,0
          108.71535,11.29069,0
          108.71429,11.28823,0
          108.71365,11.28667,0
          108.71353,11.28633,0
          108.7135,11.28622,0
          108.71341,11.2858,0
          108.71328,11.28533,0
          108.7132,11.28513,0
          108.71319,11.28512,0
          108.7131,11.28496,0
          108.71309,11.28493,0
          108.71289,11.28467,0
          108.71288,11.28466,0
          108.71246,11.28415,0
          108.71221,11.28382,0
          108.71185,11.28332,0
          108.7115,11.28291,0
          108.71117,11.28254,0
          108.71098,11.28236,0
          108.7108,11.28216,0
          108.71054,11.28189,0
          108.71014,11.28151,0
          108.70986,11.28126,0
          108.7092,11.28071,0
          108.70871,11.28037,0
          108.70812,11.27998,0
          108.70706,11.27933,0
          108.70662,11.27901,0
          108.70637,11.2788,0
          108.70622,11.2787,0
          108.70607,11.27859,0
          108.70557,11.27829,0
          108.70512,11.27804,0
          108.7048,11.27788,0
          108.70474,11.27786,0
          108.70456,11.27777,0
          108.70446,11.27774,0
          108.70418,11.27764,0
          108.7034,11.27733,0
          108.70327,11.27727,0
          108.70285,11.27705,0
          108.70262,11.27692,0
          108.70207,11.27663,0
          108.70004,11.27543,0
          108.6986,11.27461,0
          108.69783,11.27419,0
          108.69767,11.27411,0
          108.69703,11.27376,0
          108.69617,11.27332,0
          108.69571,11.27312,0
          108.6957,11.27311,0
          108.69554,11.27305,0
          108.69492,11.27279,0
          108.69303,11.27213,0
          108.69209,11.27184,0
          108.69208,11.27184,0
          108.69134,11.27162,0
          108.69122,11.27157,0
          108.68981,11.27111,0
          108.68953,11.27103,0
          108.68948,11.27102,0
          108.68946,11.27102,0
          108.68839,11.27083,0
          108.6883,11.27082,0
          108.68826,11.27081,0
          108.68822,11.27081,0
          108.68804,11.27078,0
          108.68745,11.2707,0
          108.68717,11.27065,0
          108.68714,11.27065,0
          108.68679,11.27059,0
          108.68501,11.27021,0
          108.68411,11.27,0
          108.68394,11.26997,0
          108.68393,11.26997,0
          108.68322,11.26981,0
          108.6832,11.26981,0
          108.68304,11.26977,0
          108.68301,11.26977,0
          108.68179,11.2695,0
          108.68174,11.26948,0
          108.68161,11.26946,0
          108.68149,11.26943,0
          108.68036,11.26919,0
          108.67992,11.26908,0
          108.67905,11.26891,0
          108.67892,11.26888,0
          108.67889,11.26887,0
          108.67886,11.26887,0
          108.67827,11.26874,0
          108.6773,11.2685,0
          108.67575,11.26819,0
          108.67414,11.26784,0
          108.6706,11.26699,0
          108.66962,11.26673,0
          108.66884,11.2665,0
          108.66879,11.26649,0
          108.66754,11.26611,0
          108.66643,11.26575,0
          108.66625,11.26567,0
          108.66343,11.26464,0
          108.66233,11.26417,0
          108.6622,11.26412,0
          108.66191,11.26399,0
          108.65915,11.26268,0
          108.65736,11.26177,0
          108.65729,11.26174,0
          108.65429,11.26023,0
          108.65409,11.26014,0
          108.65194,11.25909,0
          108.64873,11.25743,0
          108.64724,11.25672,0
          108.64585,11.256,0
          108.64568,11.25592,0
          108.64446,11.25528,0
          108.64297,11.25453,0
          108.64035,11.25314,0
          108.63999,11.25298,0
          108.6391,11.25252,0
          108.63894,11.25243,0
          108.63877,11.25235,0
          108.63748,11.25166,0
          108.63483,11.2503,0
          108.63039,11.24795,0
          108.62878,11.24706,0
          108.62831,11.24682,0
          108.62814,11.24674,0
          108.62699,11.24616,0
          108.62506,11.24515,0
          108.62477,11.24499,0
          108.62474,11.24498,0
          108.62457,11.2449,0
          108.62424,11.24473,0
          108.62335,11.24435,0
          108.62132,11.24359,0
          108.62041,11.24332,0
          108.61949,11.24308,0
          108.61833,11.24287,0
          108.61661,11.24268,0
          108.61494,11.24257,0
          108.61436,11.24259,0
          108.61399,11.24259,0
          108.61337,11.24261,0
          108.61123,11.24283,0
          108.61095,11.24288,0
          108.61091,11.24288,0
          108.60926,11.24318,0
          108.60709,11.24364,0
          108.60702,11.24365,0
          108.60666,11.24373,0
          108.60648,11.24376,0
          108.60469,11.24414,0
          108.60437,11.24422,0
          108.60422,11.24424,0
          108.59733,11.24565,0
          108.59724,11.24566,0
          108.59518,11.24611,0
          108.59482,11.24618,0
          108.59392,11.24638,0
          108.5882,11.24756,0
          108.58804,11.2476,0
          108.58098,11.24906,0
          108.5808,11.24909,0
          108.57991,11.24928,0
          108.57403,11.25037,0
          108.57385,11.25041,0
          108.56053,11.25295,0
          108.56017,11.25301,0
          108.55621,11.25376,0
          108.55603,11.2538,0
          108.55513,11.25396,0
          108.55495,11.254,0
          108.55459,11.25406,0
          108.55441,11.2541,0
          108.55044,11.25483,0
          108.55026,11.25487,0
          108.5481,11.25527,0
          108.53972,11.25674,0
          108.53953,11.25678,0
          108.52126,11.25985,0
          108.52117,11.25987,0
          108.51718,11.26053,0
          108.51069,11.26142,0
          108.50532,11.26208,0
          108.50191,11.26246,0
          108.5013,11.26254,0
          108.50126,11.26254,0
          108.50111,11.26256,0
          108.50108,11.26257,0
          108.50105,11.26257,0
          108.50093,11.26259,0
          108.49837,11.26288,0
          108.49634,11.26314,0
          108.49629,11.26314,0
          108.49618,11.26316,0
          108.49616,11.26316,0
          108.49319,11.2635,0
          108.49317,11.26351,0
          108.49209,11.26363,0
          108.49206,11.26364,0
          108.49108,11.26377,0
          108.4907,11.26381,0
          108.4903,11.26384,0
          108.48597,11.26435,0
          108.48594,11.26435,0
          108.48526,11.26443,0
          108.48525,11.26444,0
          108.48397,11.26458,0
          108.48388,11.2646,0
          108.47983,11.26503,0
          108.47886,11.26512,0
          108.47868,11.26513,0
          108.4785,11.26515,0
          108.47832,11.26516,0
          108.478,11.26519,0
          108.47579,11.2653,0
          108.47098,11.26531,0
          108.46712,11.26503,0
          108.46391,11.26469,0
          108.45825,11.26393,0
          108.4581,11.26392,0
          108.45625,11.26368,0
          108.45614,11.26367,0
          108.45443,11.26344,0
          108.45357,11.26334,0
          108.45299,11.26326,0
          108.45279,11.26324,0
          108.45158,11.26308,0
          108.45152,11.26308,0
          108.45053,11.26294,0
          108.44957,11.26282,0
          108.44952,11.26281,0
          108.44884,11.26272,0
          108.44879,11.26272,0
          108.44861,11.26269,0
          108.44825,11.26265,0
          108.44807,11.26262,0
          108.44508,11.26224,0
          108.44497,11.26223,0
          108.44261,11.26193,0
          108.44209,11.2619,0
          108.43348,11.26084,0
          108.43334,11.26083,0
          108.43298,11.26079,0
          108.43279,11.26076,0
          108.43238,11.26072,0
          108.43225,11.2607,0
          108.43006,11.26045,0
          108.42988,11.26042,0
          108.4277,11.26017,0
          108.42765,11.26017,0
          108.42385,11.25972,0
          108.4118,11.25855,0
          108.41162,11.25854,0
          108.40961,11.25834,0
          108.40928,11.2583,0
          108.40505,11.25789,0
          108.40487,11.25788,0
          108.39964,11.25738,0
          108.39958,11.25738,0
          108.39946,11.25737,0
          108.3994,11.25736,0
          108.39416,11.25685,0
          108.39411,11.25684,0
          108.39398,11.25683,0
          108.39392,11.25682,0
          108.39337,11.25677,0
          108.39333,11.25676,0
          108.39234,11.25667,0
          108.39228,11.25666,0
          108.3921,11.25665,0
          108.3885,11.2563,0
          108.38431,11.25584,0
          108.38425,11.25583,0
          108.38407,11.25582,0
          108.38315,11.25571,0
          108.38298,11.2557,0
          108.37897,11.25524,0
          108.37885,11.25522,0
          108.37696,11.255,0
          108.37678,11.25497,0
          108.37539,11.2548,0
          108.37521,11.25477,0
          108.37514,11.25477,0
          108.37156,11.25432,0
          108.37085,11.25422,0
          108.37055,11.25419,0
          108.36827,11.2539,0
          108.36826,11.2539,0
          108.36682,11.25372,0
          108.3668,11.25372,0
          108.36584,11.25359,0
          108.36581,11.25359,0
          108.3614,11.25304,0
          108.36136,11.25304,0
          108.36135,11.25303,0
          108.35861,11.25268,0
          108.35807,11.25262,0
          108.35799,11.2526,0
          108.35717,11.2525,0
          108.35716,11.2525,0
          108.35526,11.25226,0
          108.35503,11.25224,0
          108.35462,11.25218,0
          108.35226,11.25189,0
          108.35225,11.25189,0
          108.34953,11.25155,0
          108.34952,11.25155,0
          108.34653,11.25114,0
          108.34338,11.25079,0
          108.34138,11.25054,0
          108.34136,11.25053,0
          108.34047,11.25043,0
          108.34029,11.2504,0
          108.33464,11.24973,0
          108.33446,11.2497,0
          108.3317,11.24938,0
          108.33118,11.24933,0
          108.331,11.2493,0
          108.32863,11.24904,0
          108.32667,11.24879,0
          108.31801,11.24783,0
          108.3175,11.24776,0
          108.31728,11.24774,0
          108.31324,11.24724,0
          108.30908,11.24677,0
          108.3089,11.24674,0
          108.30663,11.24648,0
          108.30503,11.24625,0
          108.30484,11.24623,0
          108.30309,11.24597,0
          108.30307,11.24597,0
          108.30176,11.2457,0
          108.30159,11.24567,0
          108.30158,11.24566,0
          108.29919,11.24506,0
          108.297,11.24438,0
          108.29508,11.24366,0
          108.29274,11.24262,0
          108.29054,11.24148,0
          108.28872,11.24043,0
          108.2869,11.23923,0
          108.28615,11.23868,0
          108.286,11.23858,0
          108.2854,11.23814,0
          108.28387,11.23695,0
          108.28313,11.23634,0
          108.2814,11.23485,0
          108.28012,11.23372,0
          108.27958,11.23326,0
          108.27938,11.23308,0
          108.27934,11.23306,0
          108.27857,11.23235,0
          108.27843,11.23223,0
          108.27833,11.23213,0
          108.27666,11.23068,0
          108.27663,11.23066,0
          108.2757,11.22984,0
          108.2756,11.22976,0
          108.27543,11.2296,0
          108.27373,11.22811,0
          108.27187,11.22652,0
          108.26793,11.22304,0
          108.26776,11.22288,0
          108.26225,11.21807,0
          108.26214,11.21798,0
          108.26056,11.21655,0
          108.25725,11.21363,0
          108.25304,11.20985,0
          108.25294,11.20977,0
          108.25285,11.20968,0
          108.24963,11.20683,0
          108.24944,11.20667,0
          108.24931,11.20655,0
          108.24862,11.20595,0
          108.24774,11.20515,0
          108.24753,11.20497,0
          108.24532,11.20296,0
          108.24518,11.20284,0
          108.24371,11.20149,0
          108.2422,11.20017,0
          108.23918,11.19744,0
          108.23637,11.19496,0
          108.23623,11.19485,0
          108.23256,11.19159,0
          108.23242,11.19148,0
          108.23021,11.18958,0
          108.23007,11.18947,0
          108.22993,11.18935,0
          108.2298,11.18923,0
          108.22842,11.18804,0
          108.22839,11.18801,0
          108.22828,11.18792,0
          108.22815,11.1878,0
          108.22413,11.18438,0
          108.22405,11.18432,0
          108.22178,11.18242,0
          108.22118,11.1819,0
          108.22108,11.18182,0
          108.21925,11.18025,0
          108.2192,11.1802,0
          108.2165,11.1779,0
          108.21646,11.17786,0
          108.21632,11.17775,0
          108.21479,11.17645,0
          108.21465,11.17634,0
          108.21067,11.17297,0
          108.21049,11.17281,0
          108.20648,11.16942,0
          108.20325,11.16691,0
          108.20203,11.16599,0
          108.20077,11.16507,0
          108.19701,11.16255,0
          108.19548,11.16156,0
          108.19523,11.16141,0
          108.18963,11.15781,0
          108.18947,11.15772,0
          108.18871,11.15722,0
          108.18824,11.15693,0
          108.18794,11.15673,0
          108.18763,11.15654,0
          108.18118,11.15241,0
          108.1791,11.15087,0
          108.17709,11.14902,0
          108.17662,11.14852,0
          108.17615,11.14804,0
          108.17529,11.14702,0
          108.1743,11.14574,0
          108.1742,11.14562,0
          108.17228,11.14269,0
          108.16626,11.13321,0
          108.16618,11.1331,0
          108.16161,11.12591,0
          108.161,11.12498,0
          108.15971,11.1229,0
          108.15962,11.12277,0
          108.15798,11.12021,0
          108.15794,11.12016,0
          108.15771,11.1198,0
          108.15687,11.11861,0
          108.15684,11.11856,0
          108.1554,11.11674,0
          108.15383,11.11498,0
          108.15178,11.11281,0
          108.15155,11.11259,0
          108.15051,11.11153,0
          108.14972,11.1107,0
          108.14955,11.11054,0
          108.1489,11.10986,0
          108.14612,11.10705,0
          108.14524,11.10613,0
          108.14408,11.10497,0
          108.14232,11.10315,0
          108.14142,11.10225,0
          108.1413,11.10211,0
          108.13737,11.09808,0
          108.13725,11.09795,0
          108.13648,11.09717,0
          108.13636,11.09704,0
          108.13508,11.09576,0
          108.135,11.09569,0
          108.13445,11.09512,0
          108.1344,11.09506,0
          108.13397,11.09466,0
          108.13307,11.09376,0
          108.13294,11.09364,0
          108.13281,11.09351,0
          108.13267,11.09339,0
          108.13254,11.09327,0
          108.13241,11.09314,0
          108.13238,11.09312,0
          108.13237,11.0931,0
          108.13231,11.09305,0
          108.13226,11.09299,0
          108.13216,11.09289,0
          108.13161,11.0924,0
          108.13141,11.09221,0
          108.13128,11.0921,0
          108.13064,11.0915,0
          108.13032,11.09122,0
          108.13028,11.09118,0
          108.12998,11.09092,0
          108.12946,11.09044,0
          108.12783,11.08901,0
          108.12773,11.08893,0
          108.12736,11.0886,0
          108.12696,11.08827,0
          108.12692,11.08823,0
          108.12601,11.08746,0
          108.12599,11.08745,0
          108.12553,11.08709,0
          108.12507,11.08671,0
          108.124,11.08588,0
          108.12385,11.08575,0
          108.1217,11.08404,0
          108.12127,11.08371,0
          108.12114,11.0836,0
          108.1204,11.08302,0
          108.12027,11.08291,0
          108.12001,11.08271,0
          108.11715,11.08041,0
          108.11592,11.07935,0
          108.11377,11.07737,0
          108.11315,11.07675,0
          108.11315,11.07674,0
          108.1129,11.07649,0
          108.1125,11.07611,0
          108.11099,11.07445,0
          108.11057,11.07395,0
          108.11051,11.07389,0
          108.11038,11.07372,0
          108.11013,11.07343,0
          108.10894,11.07198,0
          108.10872,11.07168,0
          108.10869,11.07165,0
          108.10822,11.07101,0
          108.1081,11.07086,0
          108.10758,11.07017,0
          108.10758,11.07016,0
          108.10741,11.06993,0
          108.10725,11.06973,0
          108.10693,11.06929,0
          108.1068,11.0691,0
          108.10677,11.06905,0
          108.10605,11.06807,0
          108.10547,11.06731,0
          108.10527,11.06701,0
          108.10355,11.06464,0
          108.10349,11.06453,0
          108.10349,11.06452,0
          108.10346,11.06449,0
          108.10294,11.0638,0
          108.10292,11.06376,0
          108.1029,11.06374,0
          108.1028,11.06362,0
          108.10202,11.06257,0
          108.10182,11.06233,0
          108.10182,11.06232,0
          108.10119,11.06156,0
          108.10103,11.06134,0
          108.10061,11.0608,0
          108.09975,11.05981,0
          108.09975,11.0598,0
          108.09964,11.05966,0
          108.09887,11.05878,0
          108.09874,11.05865,0
          108.0985,11.05835,0
          108.09809,11.05794,0
          108.09764,11.05743,0
          108.09726,11.05705,0
          108.09689,11.05666,0
          108.09569,11.05544,0
          108.09535,11.05513,0
          108.09443,11.05424,0
          108.09241,11.05245,0
          108.09156,11.05173,0
          108.09134,11.05157,0
          108.09068,11.05101,0
          108.0893,11.04993,0
          108.0889,11.04963,0
          108.08838,11.04926,0
          108.08794,11.04892,0
          108.08684,11.04814,0
          108.08604,11.0476,0
          108.08563,11.04731,0
          108.08514,11.04699,0
          108.08513,11.04699,0
          108.08426,11.04642,0
          108.08379,11.04613,0
          108.08296,11.04566,0
          108.08172,11.04489,0
          108.08073,11.04432,0
          108.08061,11.04424,0
          108.08017,11.044,0
          108.07956,11.04364,0
          108.07788,11.04272,0
          108.07646,11.04191,0
          108.0763,11.04181,0
          108.07561,11.04142,0
          108.07553,11.04138,0
          108.0755,11.04136,0
          108.07544,11.04133,0
          108.07455,11.04082,0
          108.07439,11.04074,0
          108.07439,11.04073,0
          108.07268,11.0398,0
          108.07168,11.03923,0
          108.07151,11.03912,0
          108.07134,11.03902,0
          108.07126,11.03898,0
          108.07102,11.03884,0
          108.06985,11.0382,0
          108.06915,11.03779,0
          108.06878,11.0376,0
          108.06352,11.03468,0
          108.06155,11.03356,0
          108.06146,11.03352,0
          108.06146,11.03351,0
          108.06018,11.03282,0
          108.06018,11.03281,0
          108.05997,11.03269,0
          108.05906,11.03221,0
          108.05905,11.03221,0
          108.05873,11.03203,0
          108.05857,11.03195,0
          108.05841,11.03186,0
          108.05796,11.03163,0
          108.05777,11.03152,0
          108.05776,11.03152,0
          108.05681,11.03098,0
          108.0566,11.03085,0
          108.0565,11.0308,0
          108.0565,11.03079,0
          108.05507,11.03,0
          108.05506,11.02999,0
          108.05331,11.02904,0
          108.05111,11.0278,0
          108.04565,11.02484,0
          108.04564,11.02483,0
          108.04471,11.02431,0
          108.04453,11.02422,0
          108.04398,11.02391,0
          108.0439,11.02386,0
          108.04153,11.02253,0
          108.04119,11.02235,0
          108.03419,11.01842,0
          108.03415,11.01839,0
          108.03323,11.01789,0
          108.03228,11.01735,0
          108.03203,11.0172,0
          108.03196,11.01717,0
          108.03133,11.01681,0
          108.02957,11.01584,0
          108.02798,11.01494,0
          108.02782,11.01486,0
          108.02703,11.01441,0
          108.02578,11.01373,0
          108.02402,11.01271,0
          108.02401,11.01271,0
          108.01739,11.00898,0
          108.01597,11.00821,0
          108.01277,11.0064,0
          108.01258,11.0063,0
          108.01245,11.00622,0
          108.01046,11.00509,0
          108.01023,11.00497,0
          108.00959,11.00461,0
          108.00943,11.00453,0
          108.00914,11.00436,0
          108.00895,11.00426,0
          108.00804,11.00374,0
          108.00784,11.00364,0
          108.00578,11.00247,0
          108.0055,11.00232,0
          108.00546,11.00229,0
          108.00499,11.00201,0
          108.00467,11.00183,0
          108.00366,11.00117,0
          108.00346,11.00102,0
          108.00247,11.00035,0
          108.00139,10.99949,0
          108.0008,10.99899,0
          108.00003,10.99831,0
          107.99963,10.99791,0
          107.99918,10.99748,0
          107.99901,10.99729,0
          107.99894,10.99723,0
          107.9978,10.99594,0
          107.99736,10.99539,0
          107.99691,10.9948,0
          107.99688,10.99477,0
          107.9968,10.99465,0
          107.99628,10.99394,0
          107.99568,10.99304,0
          107.99514,10.99217,0
          107.9946,10.99118,0
          107.99399,10.98994,0
          107.99382,10.98955,0
          107.99374,10.98939,0
          107.99336,10.98845,0
          107.99301,10.98754,0
          107.99257,10.98618,0
          107.99206,10.98434,0
          107.99111,10.98059,0
          107.991,10.98021,0
          107.99092,10.97986,0
          107.9909,10.97979,0
          107.99082,10.97944,0
          107.99041,10.97787,0
          107.99039,10.97776,0
          107.99036,10.97766,0
          107.98974,10.97526,0
          107.98971,10.97512,0
          107.98937,10.97376,0
          107.9893,10.97351,0
          107.98884,10.97166,0
          107.98853,10.97048,0
          107.98809,10.96871,0
          107.98744,10.96621,0
          107.98743,10.96619,0
          107.98619,10.96158,0
          107.98617,10.96152,0
          107.98585,10.96034,0
          107.9858,10.96013,0
          107.98457,10.95561,0
          107.98447,10.9552,0
          107.98353,10.95181,0
          107.98313,10.9503,0
          107.9831,10.95021,0
          107.98204,10.94629,0
          107.98169,10.9452,0
          107.98169,10.94519,0
          107.98148,10.94465,0
          107.98126,10.94413,0
          107.98105,10.94371,0
          107.98082,10.94328,0
          107.98052,10.94275,0
          107.98009,10.9421,0
          107.97988,10.9418,0
          107.97969,10.94155,0
          107.97896,10.94067,0
          107.97861,10.94028,0
          107.97691,10.9385,0
          107.97616,10.93776,0
          107.96408,10.9255,0
          107.96396,10.92537,0
          107.9623,10.92369,0
          107.96221,10.92361,0
          107.96165,10.92306,0
          107.96152,10.92294,0
          107.96139,10.92281,0
          107.96016,10.9217,0
          107.9592,10.9209,0
          107.95863,10.92045,0
          107.95716,10.91937,0
          107.95716,10.91936,0
          107.95566,10.91836,0
          107.95549,10.91826,0
          107.95503,10.91797,0
          107.95471,10.91779,0
          107.95413,10.91743,0
          107.95408,10.91739,0
          107.95397,10.91733,0
          107.95382,10.91723,0
          107.95366,10.91714,0
          107.95252,10.91644,0
          107.95212,10.91618,0
          107.9518,10.916,0
          107.95055,10.91521,0
          107.94871,10.9141,0
          107.94816,10.91375,0
          107.948,10.91366,0
          107.94361,10.91096,0
          107.94353,10.91092,0
          107.94338,10.91082,0
          107.94215,10.91007,0
          107.94214,10.91006,0
          107.9412,10.90948,0
          107.94109,10.90944,0
          107.941,10.9094,0
          107.94022,10.90894,0
          107.9395,10.90849,0
          107.9394,10.90842,0
          107.93917,10.90829,0
          107.93865,10.90795,0
          107.9384,10.90781,0
          107.93784,10.90747,0
          107.93775,10.90741,0
          107.93759,10.90733,0
          107.93737,10.9072,0
          107.93725,10.90711,0
          107.93716,10.90706,0
          107.93706,10.90699,0
          107.93643,10.90662,0
          107.93614,10.90643,0
          107.93557,10.90608,0
          107.93498,10.90574,0
          107.93487,10.90566,0
          107.93309,10.90454,0
          107.93304,10.9045,0
          107.9328,10.90436,0
          107.93251,10.90417,0
          107.9322,10.90399,0
          107.93203,10.9039,0
          107.93196,10.90385,0
          107.93052,10.90297,0
          107.93048,10.90294,0
          107.93021,10.90279,0
          107.92945,10.90232,0
          107.92943,10.90231,0
          107.9294,10.90228,0
          107.92897,10.90202,0
          107.92881,10.90193,0
          107.9287,10.90186,0
          107.92866,10.90183,0
          107.9283,10.90162,0
          107.92792,10.90137,0
          107.92722,10.90097,0
          107.92694,10.9008,0
          107.92647,10.90054,0
          107.92646,10.90053,0
          107.9264,10.90049,0
          107.92631,10.90045,0
          107.9263,10.90044,0
          107.92624,10.90041,0
          107.92594,10.90024,0
          107.92427,10.89934,0
          107.92351,10.89897,0
          107.92263,10.89852,0
          107.92193,10.89821,0
          107.92128,10.89789,0
          107.92111,10.89782,0
          107.91887,10.89682,0
          107.91684,10.89603,0
          107.91666,10.89595,0
          107.91489,10.89531,0
          107.91418,10.89508,0
          107.91402,10.89502,0
          107.91401,10.89502,0
          107.91303,10.89469,0
          107.91174,10.8943,0
          107.91163,10.89426,0
          107.91043,10.89396,0
          107.90916,10.89362,0
          107.90806,10.89335,0
          107.90755,10.89325,0
          107.90682,10.89309,0
          107.90662,10.89304,0
          107.90545,10.89279,0
          107.90496,10.89271,0
          107.90269,10.89228,0
          107.90227,10.89219,0
          107.90159,10.89202,0
          107.9002,10.89153,0
          107.90002,10.89145,0
          107.89986,10.89139,0
          107.89964,10.89129,0
          107.89892,10.89094,0
          107.89886,10.8909,0
          107.89862,10.89077,0
          107.89854,10.89072,0
          107.89787,10.89034,0
          107.89601,10.88899,0
          107.89573,10.88874,0
          107.89428,10.8876,0
          107.89416,10.88749,0
          107.89287,10.88646,0
          107.89207,10.88587,0
          107.89174,10.88565,0
          107.89153,10.88552,0
          107.89032,10.88473,0
          107.88921,10.88404,0
          107.88797,10.88333,0
          107.8859,10.88208,0
          107.88577,10.88201,0
          107.88409,10.88103,0
          107.88394,10.88092,0
          107.88287,10.8803,0
          107.88227,10.87993,0
          107.88109,10.87928,0
          107.87942,10.87846,0
          107.87808,10.87787,0
          107.87662,10.87732,0
          107.87478,10.8767,0
          107.87436,10.87657,0
          107.87347,10.87633,0
          107.87342,10.87631,0
          107.87315,10.87624,0
          107.87244,10.87603,0
          107.87172,10.8758,0
          107.87104,10.87565,0
          107.86926,10.87512,0
          107.86925,10.87512,0
          107.86908,10.87507,0
          107.86891,10.87503,0
          107.8689,10.87502,0
          107.8638,10.87359,0
          107.86371,10.87357,0
          107.8633,10.87345,0
          107.86138,10.87295,0
          107.86136,10.87294,0
          107.86119,10.8729,0
          107.86118,10.8729,0
          107.86083,10.8728,0
          107.86082,10.8728,0
          107.86042,10.8727,0
          107.85922,10.87244,0
          107.85886,10.87239,0
          107.85885,10.87239,0
          107.85581,10.87195,0
          107.85425,10.87177,0
          107.85408,10.87174,0
          107.85232,10.87155,0
          107.85208,10.87151,0
          107.84986,10.87126,0
          107.84975,10.87124,0
          107.84964,10.87123,0
          107.8495,10.87121,0
          107.84871,10.87113,0
          107.84856,10.87111,0
          107.84832,10.87109,0
          107.84686,10.87092,0
          107.84622,10.87083,0
          107.84523,10.87072,0
          107.84487,10.87069,0
          107.84469,10.87066,0
          107.8445,10.87064,0
          107.84423,10.8706,0
          107.84379,10.87055,0
          107.84378,10.87054,0
          107.8424,10.87034,0
          107.84168,10.87021,0
          107.84147,10.87018,0
          107.84035,10.86994,0
          107.84007,10.86989,0
          107.83993,10.86985,0
          107.83904,10.86966,0
          107.83856,10.86954,0
          107.83839,10.86949,0
          107.83755,10.86928,0
          107.83751,10.86926,0
          107.83746,10.86924,0
          107.83718,10.86917,0
          107.83521,10.86856,0
          107.83262,10.86779,0
          107.83261,10.86778,0
          107.83222,10.86767,0
          107.83039,10.86709,0
          107.8302,10.86704,0
          107.83011,10.86701,0
          107.83002,10.86699,0
          107.82886,10.86663,0
          107.82871,10.86659,0
          107.82768,10.86628,0
          107.82747,10.86621,0
          107.82575,10.86574,0
          107.82505,10.86557,0
          107.82489,10.86554,0
          107.82468,10.86548,0
          107.82291,10.8651,0
          107.822,10.86495,0
          107.82177,10.86492,0
          107.82125,10.86483,0
          107.82108,10.86481,0
          107.82091,10.86478,0
          107.8209,10.86478,0
          107.81996,10.86465,0
          107.81841,10.86449,0
          107.81836,10.86448,0
          107.81744,10.86441,0
          107.81599,10.86434,0
          107.81525,10.86432,0
          107.81488,10.86432,0
          107.8147,10.86431,0
          107.81452,10.86431,0
          107.81433,10.8643,0
          107.81415,10.8643,0
          107.81213,10.86437,0
          107.81086,10.86444,0
          107.81067,10.86444,0
          107.80679,10.86468,0
          107.80665,10.86468,0
          107.80496,10.86479,0
          107.80448,10.86481,0
          107.8042,10.86483,0
          107.80411,10.86483,0
          107.80329,10.86488,0
          107.8032,10.86488,0
          107.80211,10.865,0
          107.80001,10.86513,0
          107.79919,10.86516,0
          107.79761,10.86515,0
          107.79659,10.86509,0
          107.79575,10.86497,0
          107.79498,10.86489,0
          107.79363,10.86467,0
          107.79361,10.86466,0
          107.79204,10.86433,0
          107.79096,10.86404,0
          107.79079,10.864,0
          107.78979,10.86373,0
          107.78717,10.86294,0
          107.78712,10.86292,0
          107.7871,10.86292,0
          107.78583,10.86259,0
          107.78486,10.86228,0
          107.78291,10.86171,0
          107.78252,10.86158,0
          107.78242,10.86154,0
          107.78129,10.86122,0
          107.78113,10.86118,0
          107.78028,10.86092,0
          107.77928,10.86059,0
          107.7792,10.86057,0
          107.77753,10.86007,0
          107.77745,10.86005,0
          107.77491,10.85927,0
          107.77481,10.85925,0
          107.77466,10.8592,0
          107.7732,10.85881,0
          107.77235,10.85863,0
          107.77201,10.85858,0
          107.77183,10.85856,0
          107.77165,10.85853,0
          107.77063,10.85842,0
          107.77001,10.85838,0
          107.76974,10.85837,0
          107.76884,10.85836,0
          107.76873,10.85837,0
          107.76857,10.85837,0
          107.7676,10.85842,0
          107.7665,10.85854,0
          107.76604,10.85862,0
          107.76603,10.85862,0
          107.76544,10.85872,0
          107.76517,10.85879,0
          107.76505,10.85881,0
          107.76326,10.85922,0
          107.76093,10.85972,0
          107.75955,10.85998,0
          107.75886,10.86008,0
          107.75867,10.8601,0
          107.75849,10.86011,0
          107.75812,10.86015,0
          107.7574,10.8602,0
          107.75642,10.86024,0
          107.75631,10.86024,0
          107.75624,10.86025,0
          107.75605,10.86025,0
          107.75575,10.86027,0
          107.75557,10.86027,0
          107.75551,10.86028,0
          107.75514,10.86029,0
          107.75502,10.8603,0
          107.75483,10.8603,0
          107.75368,10.86035,0
          107.75356,10.86036,0
          107.75349,10.86036,0
          107.75258,10.8604,0
          107.75246,10.8604,0
          107.74892,10.86055,0
          107.7488,10.86055,0
          107.74654,10.86064,0
          107.74642,10.86065,0
          107.74544,10.86069,0
          107.74533,10.86069,0
          107.74475,10.86072,0
          107.74466,10.86072,0
          107.74398,10.86075,0
          107.74386,10.86075,0
          107.74379,10.86076,0
          107.74361,10.86076,0
          107.7435,10.86077,0
          107.74322,10.86078,0
          107.74299,10.8608,0
          107.74236,10.86081,0
          107.7418,10.86084,0
          107.74167,10.86084,0
          107.74162,10.86085,0
          107.7411,10.86088,0
          107.74052,10.86089,0
          107.73837,10.86099,0
          107.73819,10.86099,0
          107.73302,10.8612,0
          107.73288,10.8612,0
          107.73283,10.86121,0
          107.73228,10.86123,0
          107.73215,10.86123,0
          107.73211,10.86124,0
          107.73173,10.86125,0
          107.73156,10.86126,0
          107.73137,10.86126,0
          107.73093,10.86128,0
          107.73082,10.86128,0
          107.73001,10.86132,0
          107.7299,10.86132,0
          107.72922,10.86135,0
          107.72899,10.86135,0
          107.72643,10.86145,0
          107.72611,10.86147,0
          107.72589,10.86147,0
          107.72523,10.86151,0
          107.72194,10.86165,0
          107.72176,10.86165,0
          107.72103,10.86168,0
          107.72099,10.86169,0
          107.71916,10.86176,0
          107.71883,10.86178,0
          107.71842,10.86179,0
          107.71791,10.86182,0
          107.71773,10.86182,0
          107.71737,10.86184,0
          107.717,10.86185,0
          107.71696,10.86186,0
          107.71627,10.86189,0
          107.71608,10.86189,0
          107.71572,10.86191,0
          107.71554,10.86191,0
          107.7155,10.86192,0
          107.71444,10.86193,0
          107.7144,10.86194,0
          107.71372,10.86194,0
          107.71276,10.86192,0
          107.71164,10.86185,0
          107.71143,10.86182,0
          107.7113,10.86181,0
          107.71039,10.86171,0
          107.70912,10.86151,0
          107.70877,10.86144,0
          107.7084,10.86138,0
          107.70623,10.86095,0
          107.70458,10.86068,0
          107.70389,10.8606,0
          107.70354,10.86055,0
          107.70294,10.86048,0
          107.70291,10.86048,0
          107.70276,10.86046,0
          107.70094,10.86029,0
          107.70075,10.86028,0
          107.70058,10.86026,0
          107.69692,10.85996,0
          107.69654,10.85994,0
          107.69633,10.85991,0
          107.69526,10.85979,0
          107.69492,10.85978,0
          107.69474,10.85976,0
          107.69348,10.85967,0
          107.69308,10.85965,0
          107.68952,10.85938,0
          107.68943,10.85938,0
          107.68852,10.8593,0
          107.68834,10.85929,0
          107.68815,10.85927,0
          107.68797,10.85926,0
          107.6864,10.85912,0
          107.68633,10.85911,0
          107.68524,10.85902,0
          107.68505,10.85901,0
          107.68469,10.85897,0
          107.68323,10.85886,0
          107.68317,10.85886,0
          107.68305,10.85884,0
          107.68249,10.85882,0
          107.68129,10.85871,0
          107.68049,10.85866,0
          107.67955,10.85864,0
          107.6782,10.85859,0
          107.67721,10.85858,0
          107.67465,10.85865,0
          107.67322,10.85874,0
          107.67222,10.85883,0
          107.67215,10.85883,0
          107.67201,10.85884,0
          107.67087,10.85897,0
          107.67076,10.85899,0
          107.67073,10.85899,0
          107.66923,10.85917,0
          107.66799,10.85935,0
          107.66497,10.85995,0
          107.66474,10.85999,0
          107.66463,10.86002,0
          107.66424,10.86008,0
          107.66401,10.86013,0
          107.66388,10.86015,0
          107.66348,10.86023,0
          107.66337,10.86026,0
          107.66232,10.86047,0
          107.66174,10.8606,0
          107.66158,10.86063,0
          107.66156,10.86064,0
          107.65965,10.86102,0
          107.65958,10.86103,0
          107.65951,10.86105,0
          107.65798,10.86137,0
          107.6579,10.86138,0
          107.65602,10.86177,0
          107.65594,10.86178,0
          107.65562,10.86184,0
          107.65475,10.86203,0
          107.65364,10.86225,0
          107.65334,10.86232,0
          107.65326,10.86233,0
          107.6522,10.86255,0
          107.65219,10.86256,0
          107.65083,10.86284,0
          107.65077,10.86286,0
          107.65075,10.86286,0
          107.64867,10.86329,0
          107.6486,10.8633,0
          107.64631,10.86377,0
          107.64627,10.86377,0
          107.64591,10.86385,0
          107.64545,10.86394,0
          107.64537,10.86396,0
          107.64491,10.86405,0
          107.64483,10.86406,0
          107.64275,10.86449,0
          107.64268,10.8645,0
          107.64124,10.86479,0
          107.64107,10.86483,0
          107.64089,10.86486,0
          107.6406,10.86492,0
          107.64053,10.86494,0
          107.64035,10.86497,0
          107.63963,10.86512,0
          107.63961,10.86512,0
          107.63775,10.86552,0
          107.63763,10.86555,0
          107.6375,10.86557,0
          107.63397,10.86629,0
          107.63389,10.8663,0
          107.63137,10.8668,0
          107.63129,10.86681,0
          107.63094,10.86689,0
          107.63092,10.86689,0
          107.62948,10.86719,0
          107.6293,10.86722,0
          107.62679,10.86774,0
          107.62661,10.86777,0
          107.62536,10.86804,0
          107.62518,10.86807,0
          107.62482,10.86815,0
          107.62446,10.86822,0
          107.62411,10.8683,0
          107.6241,10.8683,0
          107.62359,10.86841,0
          107.62321,10.86848,0
          107.62303,10.86852,0
          107.62285,10.86855,0
          107.62105,10.86892,0
          107.62088,10.86895,0
          107.6207,10.86899,0
          107.62052,10.86902,0
          107.6205,10.86903,0
          107.61898,10.86933,0
          107.61891,10.86935,0
          107.6189,10.86935,0
          107.61747,10.86963,0
          107.61747,10.86964,0
          107.61693,10.86974,0
          107.61635,10.86986,0
          107.61544,10.87,0
          107.61512,10.87004,0
          107.61494,10.87007,0
          107.6149,10.87008,0
          107.61422,10.87015,0
          107.61417,10.87015,0
          107.61403,10.87016,0
          107.61385,10.87018,0
          107.61312,10.87023,0
          107.61308,10.87024,0
          107.61293,10.87024,0
          107.61257,10.87026,0
          107.61239,10.87028,0
          107.61202,10.8703,0
          107.61147,10.8703,0
          107.61129,10.87031,0
          107.6111,10.87031,0
          107.61056,10.87028,0
          107.61037,10.87028,0
          107.60982,10.87025,0
          107.60977,10.87025,0
          107.60783,10.87005,0
          107.60691,10.86992,0
          107.60673,10.8699,0
          107.60619,10.86982,0
          107.60582,10.86978,0
          107.60493,10.86965,0
          107.60474,10.86963,0
          107.60347,10.86943,0
          107.60315,10.86939,0
          107.60312,10.86938,0
          107.60207,10.86922,0
          107.60203,10.86921,0
          107.5999,10.86888,0
          107.59986,10.86888,0
          107.59809,10.8686,0
          107.59805,10.8686,0
          107.59328,10.86785,0
          107.59314,10.86782,0
          107.5928,10.86779,0
          107.58904,10.86723,0
          107.589,10.86723,0
          107.58846,10.86714,0
          107.58828,10.86712,0
          107.58664,10.86687,0
          107.58501,10.86669,0
          107.58431,10.8666,0
          107.58321,10.86651,0
          107.58318,10.86651,0
          107.58281,10.86648,0
          107.58137,10.86643,0
          107.58118,10.86643,0
          107.58063,10.86641,0
          107.58043,10.86641,0
          107.5803,10.8664,0
          107.58008,10.86641,0
          107.57972,10.86641,0
          107.57935,10.86642,0
          107.5788,10.86642,0
          107.57878,10.86643,0
          107.57841,10.86643,0
          107.57807,10.86644,0
          107.57752,10.86644,0
          107.57731,10.86645,0
          107.57617,10.86646,0
          107.57493,10.8665,0
          107.57459,10.8665,0
          107.57224,10.86656,0
          107.57209,10.86657,0
          107.56953,10.86663,0
          107.56916,10.86663,0
          107.56898,10.86664,0
          107.56816,10.86666,0
          107.56788,10.86666,0
          107.56697,10.86669,0
          107.56678,10.86669,0
          107.5666,10.8667,0
          107.5655,10.86672,0
          107.56542,10.86673,0
          107.56212,10.8668,0
          107.56202,10.86681,0
          107.56001,10.86684,0
          107.55901,10.86687,0
          107.55868,10.86687,0
          107.55856,10.86688,0
          107.5539,10.86698,0
          107.55371,10.86699,0
          107.55023,10.86705,0
          107.55007,10.86706,0
          107.54926,10.86707,0
          107.54747,10.86712,0
          107.54731,10.86713,0
          107.54475,10.8672,0
          107.54454,10.8672,0
          107.54328,10.86725,0
          107.54223,10.86734,0
          107.54201,10.86737,0
          107.54199,10.86737,0
          107.54115,10.86747,0
          107.54058,10.86755,0
          107.54043,10.86758,0
          107.53981,10.86766,0
          107.53843,10.86793,0
          107.53674,10.86832,0
          107.53529,10.86872,0
          107.53397,10.86913,0
          107.5326,10.86965,0
          107.53253,10.86968,0
          107.53202,10.86987,0
          107.53195,10.8699,0
          107.5317,10.86999,0
          107.53038,10.87051,0
          107.53034,10.87052,0
          107.52936,10.87091,0
          107.52932,10.87092,0
          107.52851,10.87124,0
          107.52847,10.87126,0
          107.5263,10.87211,0
          107.52626,10.87212,0
          107.52435,10.87287,0
          107.52418,10.87293,0
          107.52068,10.87431,0
          107.52061,10.87433,0
          107.51899,10.87497,0
          107.51898,10.87497,0
          107.518,10.87537,0
          107.51785,10.87542,0
          107.51592,10.87619,0
          107.51573,10.87626,0
          107.51474,10.87666,0
          107.51403,10.87693,0
          107.51301,10.87734,0
          107.51284,10.8774,0
          107.51269,10.87746,0
          107.51267,10.87747,0
          107.51201,10.87773,0
          107.51199,10.87774,0
          107.50963,10.87866,0
          107.50943,10.87873,0
          107.50912,10.87886,0
          107.50776,10.87938,0
          107.50773,10.8794,0
          107.50639,10.87991,0
          107.50536,10.88028,0
          107.50461,10.88053,0
          107.50456,10.88054,0
          107.50328,10.88089,0
          107.50197,10.88121,0
          107.50147,10.88132,0
          107.50121,10.88137,0
          107.50096,10.88143,0
          107.49959,10.88168,0
          107.4995,10.88169,0
          107.49927,10.88174,0
          107.49887,10.88179,0
          107.49876,10.88181,0
          107.49865,10.88182,0
          107.498,10.88192,0
          107.49781,10.88194,0
          107.49201,10.88273,0
          107.49196,10.88274,0
          107.48884,10.88316,0
          107.48866,10.88319,0
          107.48848,10.88321,0
          107.4883,10.88324,0
          107.4882,10.88325,0
          107.48721,10.88339,0
          107.48648,10.88348,0
          107.4863,10.88351,0
          107.48576,10.88358,0
          107.48565,10.8836,0
          107.48467,10.88373,0
          107.48449,10.88376,0
          107.48376,10.88385,0
          107.48366,10.88387,0
          107.4834,10.8839,0
          107.48125,10.8842,0
          107.48124,10.8842,0
          107.48037,10.88433,0
          107.48034,10.88433,0
          107.4768,10.88482,0
          107.47448,10.88517,0
          107.47374,10.88527,0
          107.47294,10.88541,0
          107.47255,10.88551,0
          107.47186,10.88566,0
          107.47184,10.88567,0
          107.47118,10.88584,0
          107.47102,10.88589,0
          107.47096,10.8859,0
          107.47066,10.88599,0
          107.4706,10.886,0
          107.47034,10.88608,0
          107.46918,10.88648,0
          107.46819,10.88685,0
          107.46818,10.88685,0
          107.46791,10.88697,0
          107.46785,10.88699,0
          107.46769,10.88707,0
          107.46718,10.88728,0
          107.46707,10.88733,0
          107.46701,10.88735,0
          107.46685,10.88743,0
          107.46676,10.88746,0
          107.4664,10.88762,0
          107.46635,10.88765,0
          107.46501,10.88824,0
          107.4649,10.88828,0
          107.46383,10.88875,0
          107.46367,10.88883,0
          107.46306,10.8891,0
          107.46301,10.88913,0
          107.46284,10.8892,0
          107.46267,10.88928,0
          107.46223,10.88947,0
          107.46201,10.88958,0
          107.4619,10.88962,0
          107.46156,10.88977,0
          107.46151,10.8898,0
          107.46074,10.89015,0
          107.46073,10.89015,0
          107.46067,10.89017,0
          107.45572,10.89237,0
          107.45567,10.8924,0
          107.4555,10.89247,0
          107.45506,10.89267,0
          107.455,10.89269,0
          107.45389,10.89319,0
          107.45383,10.89321,0
          107.45342,10.89339,0
          107.45337,10.89342,0
          107.45171,10.89414,0
          107.45166,10.89417,0
          107.45138,10.89429,0
          107.45132,10.89431,0
          107.45097,10.89447,0
          107.45071,10.89458,0
          107.45064,10.89462,0
          107.45047,10.89469,0
          107.44771,10.89592,0
          107.44765,10.89595,0
          107.44764,10.89596,0
          107.44681,10.89633,0
          107.44671,10.89637,0
          107.44665,10.8964,0
          107.44664,10.8964,0
          107.44582,10.89677,0
          107.4458,10.89677,0
          107.44504,10.89711,0
          107.44504,10.89712,0
          107.44498,10.89714,0
          107.44497,10.89715,0
          107.44348,10.89779,0
          107.44313,10.89795,0
          107.44281,10.89808,0
          107.44203,10.89842,0
          107.44197,10.89845,0
          107.44196,10.89845,0
          107.44179,10.89853,0
          107.44169,10.89857,0
          107.44163,10.89859,0
          107.44162,10.8986,0
          107.44152,10.89864,0
          107.44147,10.89867,0
          107.44145,10.89867,0
          107.44119,10.89879,0
          107.44113,10.89881,0
          107.44112,10.89882,0
          107.44094,10.8989,0
          107.44079,10.89895,0
          107.44078,10.89895,0
          107.44045,10.89907,0
          107.44043,10.89908,0
          107.44036,10.8991,0
          107.44009,10.8992,0
          107.43999,10.89923,0
          107.43995,10.89925,0
          107.43993,10.89925,0
          107.43992,10.89926,0
          107.43982,10.89928,0
          107.43976,10.8993,0
          107.43974,10.89931,0
          107.43964,10.89934,0
          107.43958,10.89935,0
          107.43957,10.89936,0
          107.43956,10.89936,0
          107.43911,10.89948,0
          107.43905,10.8995,0
          107.43903,10.8995,0
          107.43875,10.89957,0
          107.43868,10.89958,0
          107.43816,10.89971,0
          107.43802,10.89974,0
          107.4378,10.89977,0
          107.43745,10.89983,0
          107.43649,10.89994,0
          107.43628,10.89997,0
          107.43612,10.89998,0
          107.43573,10.90002,0
          107.43531,10.90004,0
          107.43521,10.90005,0
          107.43485,10.90006,0
          107.43411,10.90006,0
          107.43393,10.90005,0
          107.43265,10.90004,0
          107.42877,10.8999,0
          107.42859,10.8999,0
          107.42822,10.89988,0
          107.42801,10.89988,0
          107.42485,10.89976,0
          107.42477,10.89975,0
          107.41906,10.89958,0
          107.41896,10.89957,0
          107.41609,10.89949,0
          107.41582,10.89949,0
          107.41143,10.89932,0
          107.41125,10.89932,0
          107.41088,10.8993,0
          107.40569,10.89914,0
          107.40557,10.89913,0
          107.40539,10.89913,0
          107.40195,10.89901,0
          107.40187,10.899,0
          107.40172,10.899,0
          107.40157,10.89899,0
          107.40102,10.89898,0
          107.40084,10.89897,0
          107.40073,10.89897,0
          107.39992,10.89892,0
          107.39978,10.8989,0
          107.39963,10.89889,0
          107.39867,10.89879,0
          107.39841,10.89877,0
          107.39768,10.89867,0
          107.39735,10.89861,0
          107.39732,10.89861,0
          107.39648,10.89845,0
          107.39636,10.89842,0
          107.39554,10.89827,0
          107.39481,10.89808,0
          107.39325,10.89763,0
          107.39321,10.89761,0
          107.39251,10.89738,0
          107.39186,10.89712,0
          107.3918,10.8971,0
          107.39093,10.89676,0
          107.38698,10.89498,0
          107.38681,10.89491,0
          107.38665,10.89483,0
          107.38226,10.89286,0
          107.38188,10.89268,0
          107.38138,10.89246,0
          107.38122,10.89238,0
          107.37999,10.89183,0
          107.37989,10.89178,0
          107.37831,10.89107,0
          107.37828,10.89105,0
          107.37735,10.89063,0
          107.37718,10.89056,0
          107.37645,10.89022,0
          107.37568,10.88988,0
          107.37557,10.88982,0
          107.37545,10.88977,0
          107.37396,10.88909,0
          107.37276,10.88859,0
          107.36842,10.88667,0
          107.36775,10.88634,0
          107.36742,10.88619,0
          107.36709,10.88602,0
          107.36676,10.88588,0
          107.36658,10.88579,0
          107.36577,10.88542,0
          107.36576,10.88542,0
          107.36526,10.88516,0
          107.36482,10.88496,0
          107.36372,10.88452,0
          107.36119,10.88333,0
          107.36077,10.88311,0
          107.36069,10.88308,0
          107.36019,10.88286,0
          107.36003,10.88278,0
          107.35986,10.88271,0
          107.35402,10.88008,0
          107.35303,10.87962,0
          107.35219,10.87925,0
          107.35207,10.87919,0
          107.3494,10.878,0
          107.3492,10.87792,0
          107.34853,10.87763,0
          107.34751,10.87722,0
          107.34675,10.87693,0
          107.34666,10.87689,0
          107.34539,10.87643,0
          107.3429,10.87563,0
          107.34143,10.87522,0
          107.33993,10.87485,0
          107.33952,10.87474,0
          107.33552,10.87377,0
          107.3355,10.87376,0
          107.33535,10.87373,0
          107.33453,10.87353,0
          107.33453,10.87352,0
          107.33222,10.87296,0
          107.33222,10.87295,0
          107.33186,10.87287,0
          107.33098,10.87265,0
          107.33098,10.87264,0
          107.32583,10.87138,0
          107.32582,10.87138,0
          107.32192,10.87041,0
          107.32156,10.87033,0
          107.32144,10.87029,0
          107.31969,10.86986,0
          107.31937,10.86979,0
          107.31915,10.86973,0
          107.31407,10.8685,0
          107.3087,10.86716,0
          107.30816,10.86704,0
          107.30799,10.86699,0
          107.30788,10.86697,0
          107.30781,10.86695,0
          107.30746,10.86687,0
          107.30704,10.86676,0
          107.30644,10.86664,0
          107.30626,10.86661,0
          107.30506,10.86636,0
          107.30501,10.86636,0
          107.30368,10.86614,0
          107.30156,10.86588,0
          107.29979,10.86574,0
          107.29772,10.86565,0
          107.29498,10.8656,0
          107.29477,10.86559,0
          107.29457,10.86559,0
          107.29402,10.86557,0
          107.29329,10.86556,0
          107.29311,10.86555,0
          107.29018,10.86548,0
          107.28981,10.86548,0
          107.28963,10.86547,0
          107.2889,10.86546,0
          107.28871,10.86545,0
          107.28789,10.86543,0
          107.28477,10.8654,0
          107.28014,10.86528,0
          107.28003,10.86527,0
          107.2797,10.86527,0
          107.27695,10.86519,0
          107.27622,10.86518,0
          107.27604,10.86517,0
          107.27567,10.86517,0
          107.27549,10.86516,0
          107.27073,10.86507,0
          107.27054,10.86506,0
          107.27036,10.86506,0
          107.27018,10.86505,0
          107.26981,10.86505,0
          107.26633,10.86497,0
          107.26597,10.86497,0
          107.26578,10.86496,0
          107.26432,10.86493,0
          107.26413,10.86492,0
          107.26395,10.86492,0
          107.26285,10.86488,0
          107.26194,10.86483,0
          107.26176,10.86481,0
          107.26129,10.86478,0
          107.26121,10.86478,0
          107.26038,10.86471,0
          107.25939,10.86458,0
          107.25805,10.86437,0
          107.25705,10.86418,0
          107.25704,10.86418,0
          107.25615,10.86399,0
          107.25597,10.86394,0
          107.25585,10.86392,0
          107.25538,10.8638,0
          107.25358,10.86329,0
          107.25264,10.86299,0
          107.25257,10.86296,0
          107.25247,10.86293,0
          107.2511,10.86242,0
          107.25098,10.86238,0
          107.25093,10.86235,0
          107.25008,10.86201,0
          107.24727,10.86083,0
          107.24549,10.86003,0
          107.24532,10.85996,0
          107.24441,10.85955,0
          107.24433,10.85952,0
          107.24302,10.85896,0
          107.24292,10.85891,0
          107.2429,10.85891,0
          107.23997,10.85768,0
          107.23984,10.85762,0
          107.23916,10.85734,0
          107.23914,10.85734,0
          107.23896,10.85727,0
          107.23879,10.85719,0
          107.23844,10.85705,0
          107.23827,10.85697,0
          107.23791,10.85683,0
          107.23788,10.85681,0
          107.23564,10.85586,0
          107.23557,10.85584,0
          107.23525,10.8557,0
          107.23477,10.85553,0
          107.2346,10.85545,0
          107.23459,10.85545,0
          107.23092,10.8539,0
          107.23091,10.85389,0
          107.23058,10.85375,0
          107.23042,10.85371,0
          107.22997,10.85353,0
          107.22911,10.85316,0
          107.22896,10.85309,0
          107.22799,10.85268,0
          107.22795,10.85266,0
          107.22762,10.85252,0
          107.22747,10.85245,0
          107.22745,10.85245,0
          107.22488,10.85133,0
          107.2248,10.8513,0
          107.22402,10.85097,0
          107.22353,10.85074,0
          107.2234,10.85069,0
          107.22196,10.85003,0
          107.2217,10.8499,0
          107.22073,10.84948,0
          107.22069,10.84947,0
          107.22069,10.84946,0
          107.21972,10.84906,0
          107.21969,10.84904,0
          107.21963,10.84902,0
          107.2182,10.84843,0
          107.21817,10.84841,0
          107.21658,10.84775,0
          107.21652,10.84773,0
          107.21649,10.84771,0
          107.21138,10.84561,0
          107.21134,10.84559,0
          107.21012,10.84507,0
          107.21004,10.84503,0
          107.20998,10.84501,0
          107.20891,10.84456,0
          107.20884,10.84452,0
          107.20878,10.8445,0
          107.20708,10.84377,0
          107.20697,10.84373,0
          107.20681,10.84366,0
          107.20665,10.8436,0
          107.20664,10.84359,0
          107.2065,10.84354,0
          107.20647,10.84352,0
          107.2045,10.84271,0
          107.20266,10.84209,0
          107.20262,10.84208,0
          107.20257,10.84206,0
          107.20187,10.84183,0
          107.20092,10.84155,0
          107.20091,10.84155,0
          107.20082,10.84152,0
          107.20079,10.84152,0
          107.20061,10.84147,0
          107.20043,10.84143,0
          107.2,10.84132,0
          107.19957,10.84123,0
          107.19955,10.84122,0
          107.19949,10.84121,0
          107.19856,10.841,0
          107.1985,10.84099,0
          107.19848,10.84099,0
          107.19844,10.84098,0
          107.19717,10.84076,0
          107.19687,10.84072,0
          107.19651,10.84066,0
          107.19649,10.84065,0
          107.1961,10.84059,0
          107.19594,10.84056,0
          107.19525,10.84047,0
          107.19524,10.84047,0
          107.19522,10.84046,0
          107.19488,10.84043,0
          107.19486,10.84043,0
          107.19476,10.84042,0
          107.1947,10.84041,0
          107.19467,10.84041,0
          107.19433,10.84038,0
          107.19415,10.84037,0
          107.194,10.84035,0
          107.19345,10.8403,0
          107.19166,10.84006,0
          107.19162,10.84006,0
          107.18967,10.83983,0
          107.18964,10.83983,0
          107.18892,10.83973,0
          107.18891,10.83973,0
          107.18821,10.83964,0
          107.1882,10.83964,0
          107.18818,10.83963,0
          107.18766,10.83957,0
          107.18764,10.83957,0
          107.18728,10.83953,0
          107.18709,10.8395,0
          107.186,10.83938,0
          107.1853,10.83929,0
          107.18527,10.83929,0
          107.18403,10.83914,0
          107.184,10.83914,0
          107.18131,10.83882,0
          107.18128,10.83881,0
          107.17934,10.83858,0
          107.17928,10.83857,0
          107.17913,10.83856,0
          107.17837,10.83847,0
          107.17818,10.83844,0
          107.17716,10.83833,0
          107.17696,10.8383,0
          107.17582,10.83819,0
          107.17498,10.83814,0
          107.1749,10.83813,0
          107.17484,10.83813,0
          107.17455,10.8381,0
          107.17241,10.83801,0
          107.17036,10.838,0
          107.16802,10.83808,0
          107.16747,10.83811,0
          107.16729,10.83811,0
          107.167,10.83813,0
          107.16656,10.83814,0
          107.16546,10.8382,0
          107.16509,10.83821,0
          107.16473,10.83823,0
          107.16454,10.83823,0
          107.15407,10.8387,0
          107.15393,10.8387,0
          107.15265,10.83876,0
          107.15247,10.83876,0
          107.15192,10.83879,0
          107.15177,10.83879,0
          107.1512,10.83882,0
          107.151,10.83882,0
          107.14717,10.839,0
          107.14588,10.83909,0
          107.1457,10.83911,0
          107.14538,10.83913,0
          107.14389,10.8393,0
          107.14387,10.8393,0
          107.1437,10.83934,0
          107.14208,10.83964,0
          107.14205,10.83965,0
          107.14066,10.83997,0
          107.14054,10.84001,0
          107.14041,10.84004,0
          107.1402,10.8401,0
          107.13906,10.84048,0
          107.13841,10.84071,0
          107.13756,10.84104,0
          107.1375,10.84107,0
          107.13703,10.84127,0
          107.13699,10.84128,0
          107.13672,10.8414,0
          107.13626,10.84163,0
          107.13623,10.84165,0
          107.13544,10.84204,0
          107.13541,10.84205,0
          107.13492,10.84229,0
          107.13405,10.84277,0
          107.1332,10.84328,0
          107.13194,10.844,0
          107.13161,10.8442,0
          107.13083,10.84463,0
          107.13068,10.84472,0
          107.13067,10.84472,0
          107.12988,10.84517,0
          107.12987,10.84517,0
          107.12973,10.84526,0
          107.12972,10.84526,0
          107.12939,10.84546,0
          107.12928,10.84552,0
          107.12917,10.84559,0
          107.12796,10.84627,0
          107.12782,10.84634,0
          107.12675,10.84703,0
          107.12443,10.84834,0
          107.12275,10.84932,0
          107.12266,10.84938,0
          107.12249,10.84948,0
          107.12232,10.84957,0
          107.11834,10.85191,0
          107.11691,10.85271,0
          107.11645,10.85301,0
          107.11613,10.85319,0
          107.11557,10.85353,0
          107.1153,10.85372,0
          107.11508,10.8539,0
          107.11496,10.85402,0
          107.11479,10.85421,0
          107.11471,10.85431,0
          107.11462,10.85445,0
          107.11461,10.85446,0
          107.11441,10.85485,0
          107.11409,10.8556,0
          107.11335,10.85756,0
          107.11327,10.85767,0
          107.1131,10.85796,0
          107.11282,10.85835,0
          107.11267,10.85851,0
          107.11241,10.85873,0
          107.11239,10.85874,0
          107.11214,10.85891,0
          107.11213,10.85891,0
          107.1121,10.85893,0
          107.11191,10.85904,0
          107.11168,10.85914,0
          107.11165,10.85915,0
          107.11163,10.85916,0
          107.1113,10.85926,0
          107.11106,10.85931,0
          107.11092,10.85933,0
          107.11047,10.85935,0
          107.11017,10.85932,0
          107.10985,10.85926,0
          107.10984,10.85926,0
          107.10955,10.85916,0
          107.10938,10.85909,0
          107.10921,10.85901,0
          107.10901,10.8589,0
          107.10886,10.85879,0
          107.10882,10.85877,0
          107.10871,10.85869,0
          107.1085,10.8585,0
          107.10825,10.85824,0
          107.10801,10.85789,0
          107.10787,10.85763,0
          107.10772,10.85721,0
          107.10767,10.85704,0
          107.10763,10.85686,0
          107.10758,10.85635,0
          107.10758,10.85596,0
          107.10761,10.85554,0
          107.10762,10.85522,0
          107.10763,10.85507,0
          107.10764,10.85501,0
          107.10764,10.85453,0
          107.10763,10.85427,0
          107.10757,10.85399,0
          107.10756,10.85397,0
          107.10745,10.85366,0
          107.10744,10.85366,0
          107.10723,10.85326,0
          107.10718,10.85318,0
          107.10716,10.85317,0
          107.10703,10.85299,0
          107.10695,10.8529,0
          107.10694,10.8529,0
          107.10665,10.85258,0
          107.10659,10.85247,0
          107.10658,10.85246,0
          107.10657,10.85243,0
          107.10658,10.85242,0
          107.10658,10.85239,0
          107.10535,10.85126,0
          107.10438,10.85044,0
          107.10106,10.84778,0
          107.10078,10.84759,0
          107.09888,10.84605,0
          107.09874,10.84593,0
          107.09617,10.8439,0
          107.09528,10.84316,0
          107.09391,10.84215,0
          107.09097,10.83984,0
          107.09086,10.83974,0
          107.09071,10.83963,0
          107.08646,10.83622,0
          107.08632,10.8361,0
          107.0852,10.8352,0
          107.08477,10.83483,0
          107.08467,10.83475,0
          107.08275,10.8331,0
          107.08262,10.83298,0
          107.08248,10.83287,0
          107.08189,10.83236,0
          107.08126,10.83178,0
          107.08112,10.83166,0
          107.07845,10.8292,0
          107.07831,10.82908,0
          107.07818,10.82895,0
          107.07731,10.82814,0
          107.07725,10.82809,0
          107.07448,10.82553,0
          107.07441,10.82547,0
          107.07434,10.8254,0
          107.07272,10.82392,0
          107.06949,10.82091,0
          107.06943,10.82086,0
          107.06514,10.81684,0
          107.065,10.8167,0
          107.05891,10.81099,0
          107.05848,10.81062,0
          107.05807,10.81021,0
          107.05789,10.81005,0
          107.05723,10.80942,0
          107.05716,10.80936,0
          107.05505,10.80737,0
          107.05271,10.80521,0
          107.05257,10.80509,0
          107.05179,10.80438,0
          107.051,10.80372,0
          107.05052,10.80329,0
          107.05028,10.8031,0
          107.04825,10.8014,0
          107.04821,10.80136,0
          107.04811,10.80129,0
          107.04589,10.79957,0
          107.04578,10.7995,0
          107.04459,10.79862,0
          107.04323,10.79765,0
          107.04079,10.79602,0
          107.03834,10.79447,0
          107.03038,10.7896,0
          107.03029,10.78954,0
          107.02967,10.78916,0
          107.02952,10.78906,0
          107.02936,10.78897,0
          107.02921,10.78887,0
          107.02905,10.78878,0
          107.0289,10.78868,0
          107.02874,10.78859,0
          107.02859,10.78849,0
          107.02781,10.78801,0
          107.02766,10.78791,0
          107.0275,10.78782,0
          107.02735,10.78772,0
          107.02719,10.78763,0
          107.02704,10.78753,0
          107.02688,10.78744,0
          107.02673,10.78734,0
          107.02657,10.78725,0
          107.02642,10.78715,0
          107.01593,10.78074,0
          107.01567,10.78057,0
          107.0154,10.78041,0
          107.01273,10.77874,0
          107.01265,10.77868,0
          107.01242,10.77855,0
          107.01227,10.77845,0
          107.0091,10.77658,0
          107.00796,10.77599,0
          107.00685,10.77544,0
          107.00591,10.775,0
          107.00496,10.7746,0
          107.00405,10.77424,0
          107.00331,10.77398,0
          107.00316,10.77392,0
          107.00113,10.7733,0
          107.00018,10.77305,0
          106.99923,10.77282,0
          106.99732,10.77239,0
          106.98565,10.76995,0
          106.98512,10.76983,0
          106.97575,10.76787,0
          106.97541,10.76781,0
          106.97515,10.76775,0
          106.97181,10.76706,0
          106.97175,10.76704,0
          106.97008,10.76671,0
          106.96834,10.76633,0
          106.96761,10.7662,0
          106.96755,10.76618,0
          106.96667,10.76602,0
          106.96559,10.76579,0
          106.965,10.76571,0
          106.96359,10.76555,0
          106.96345,10.76554,0
          106.9634,10.76553,0
          106.96145,10.7654,0
          106.9612,10.7654,0
          106.96075,10.76538,0
          106.95987,10.76538,0
          106.9596,10.76539,0
          106.95899,10.76539,0
          106.95786,10.76543,0
          106.95776,10.76544,0
          106.95769,10.76544,0
          106.95762,10.76545,0
          106.95678,10.76551,0
          106.95555,10.76565,0
          106.95466,10.76578,0
          106.95448,10.7658,0
          106.95412,10.76586,0
          106.95402,10.76587,0
          106.95237,10.76618,0
          106.95156,10.76636,0
          106.95094,10.76651,0
          106.94633,10.76776,0
          106.94578,10.7679,0
          106.94578,10.76791,0
          106.94524,10.76806,0
          106.94455,10.76823,0
          106.94205,10.76893,0
          106.94202,10.76893,0
          106.94151,10.76907,0
          106.94149,10.76908,0
          106.94148,10.76908,0
          106.93919,10.7697,0
          106.93814,10.77,0
          106.93797,10.77006,0
          106.93796,10.77006,0
          106.93592,10.77069,0
          106.9338,10.77143,0
          106.93196,10.77212,0
          106.93014,10.77287,0
          106.91939,10.77756,0
          106.91911,10.77769,0
          106.91409,10.77989,0
          106.91406,10.7799,0
          106.9079,10.78255,0
          106.90715,10.78284,0
          106.90568,10.78337,0
          106.90391,10.78392,0
          106.90389,10.78392,0
          106.90356,10.78402,0
          106.90161,10.78449,0
          106.90151,10.78452,0
          106.90089,10.78465,0
          106.90088,10.78465,0
          106.90071,10.78469,0
          106.89398,10.78599,0
          106.89391,10.786,0
          106.89387,10.78601,0
          106.89241,10.78628,0
          106.89093,10.78651,0
          106.88976,10.78667,0
          106.88878,10.78676,0
          106.88674,10.78687,0
          106.88544,10.78688,0
          106.88296,10.78684,0
          106.88168,10.78679,0
          106.88046,10.78676,0
          106.87923,10.78675,0
          106.8778,10.78678,0
          106.87748,10.78677,0
          106.8774,10.78678,0
          106.87718,10.78677,0
          106.87632,10.78677,0
          106.87391,10.78669,0
          106.87172,10.78659,0
          106.87133,10.78655,0
          106.86929,10.78647,0
          106.86829,10.78641,0
          106.86735,10.78638,0
          106.86683,10.78635,0
          106.86389,10.78623,0
          106.86371,10.78623,0
          106.86353,10.78622,0
          106.86208,10.78618,0
          106.86164,10.78621,0
          106.85971,10.78612,0
          106.85945,10.7861,0
          106.85706,10.78603,0
          106.85685,10.78603,0
          106.85581,10.78599,0
          106.85572,10.78598,0
          106.85563,10.78598,0
          106.8537,10.7859,0
          106.85225,10.78593,0
          106.85035,10.78592,0
          106.84983,10.78594,0
          106.84966,10.78594,0
          106.84965,10.78595,0
          106.84856,10.786,0
          106.84713,10.78613,0
          106.84695,10.78616,0
          106.84561,10.78633,0
          106.84496,10.78644,0
          106.84455,10.78652,0
          106.84419,10.78657,0
          106.8441,10.78659,0
          106.84401,10.7866,0
          106.84384,10.78664,0
          106.84351,10.7867,0
          106.84348,10.78671,0
          106.8433,10.78674,0
          106.84295,10.78682,0
          106.84277,10.78685,0
          106.84265,10.78688,0
          106.84259,10.78689,0
          106.84241,10.78693,0
          106.8424,10.78693,0
          106.84223,10.78697,0
          106.8403,10.78736,0
          106.83956,10.78753,0
          106.82638,10.79033,0
          106.82317,10.79094,0
          106.81952,10.79159,0
          106.81785,10.79186,0
          106.81664,10.79208,0
          106.80236,10.7945,0
          106.80227,10.79451,0
          106.8009,10.79473,0
          106.80088,10.79474,0
          106.79998,10.79489,0
          106.79983,10.79491,0
          106.79968,10.79494,0
          106.79954,10.79496,0
          106.79635,10.79553,0
          106.79616,10.79557,0
          106.79441,10.79587,0
          106.7928,10.79612,0
          106.79242,10.79617,0
          106.79211,10.79622,0
          106.79111,10.79634,0
          106.78972,10.79647,0
          106.78866,10.79653,0
          106.78787,10.79656,0
          106.78689,10.79657,0
          106.78359,10.79651,0
          106.78352,10.7965,0
          106.78073,10.79642,0
          106.78063,10.79641,0
          106.77027,10.79613,0
          106.76845,10.79606,0
          106.76827,10.79606,0
          106.76736,10.79601,0
          106.76625,10.79592,0
          106.76613,10.7959,0
          106.76595,10.79589,0
          106.76291,10.79553,0
          106.76254,10.79547,0
          106.76134,10.79524,0
          106.76025,10.79499,0
          106.75911,10.7947,0
          106.75815,10.79443,0
          106.75792,10.79435,0
          106.75769,10.7943,0
          106.75699,10.79421,0
          106.7564,10.79412,0
          106.75618,10.79408,0
          106.756,10.79404,0
          106.75571,10.79396,0
          106.75388,10.79337,0
          106.75373,10.79333,0
          106.75322,10.79314,0
          106.7532,10.79314,0
          106.75318,10.79313,0
          106.7531,10.79307,0
          106.75308,10.79306,0
          106.75299,10.79299,0
          106.75282,10.79289,0
          106.75264,10.79274,0
          106.75262,10.79273,0
          106.75256,10.79268,0
          106.75246,10.79261,0
          106.7524,10.79258,0
          106.7523,10.79254,0
          106.75228,10.79254,0
          106.75225,10.79253,0
          106.75216,10.79251,0
          106.75198,10.79245,0
          106.7518,10.79244,0
          106.7517,10.79239,0
          106.75151,10.79235,0
          106.75138,10.79235,0
          106.75126,10.79233,0
          106.75018,10.79207,0
          106.75015,10.79207,0
          106.74926,10.79188,0
          106.74916,10.79185,0
          106.74876,10.79177,0
          106.74787,10.79157,0
          106.74781,10.79156,0
          106.74753,10.79149,0
          106.74745,10.79148,0
          106.74738,10.79146,0
          106.74692,10.79136,0
          106.74672,10.79131,0
          106.74602,10.79117,0
          106.74586,10.79112,0
          106.74577,10.79111,0
          106.7454,10.79105,0
          106.74403,10.79077,0
          106.74337,10.7906,0
          106.74316,10.79057,0
          106.74266,10.79047,0
          106.74254,10.79044,0
          106.74242,10.79043,0
          106.74239,10.79043,0
          106.7416,10.79025,0
          106.74129,10.79019,0
          106.74128,10.79018,0
          106.74106,10.79015,0
          106.74088,10.79011,0
          106.74085,10.7901,0
          106.7402,10.78999,0
          106.74013,10.78997,0
          106.74012,10.78997,0
          106.73941,10.78983,0
          106.73939,10.78983,0
          106.73923,10.78979,0
          106.73921,10.78979,0
          106.73904,10.78975,0
          106.73873,10.78969,0
          106.73872,10.78969,0
          106.73853,10.78965,0
          106.73843,10.78962,0
          106.73811,10.78956,0
          106.73793,10.78952,0
          106.73789,10.78952,0
          106.73782,10.7895,0
          106.73767,10.78947,0
          106.73744,10.7894,0
          106.73704,10.78923,0
          106.7363,10.78885,0
          106.73586,10.78861,0
          106.73579,10.78858,0
          106.73551,10.78844,0
          106.73482,10.78806,0
          106.73442,10.78786,0
          106.73315,10.78717,0
          106.73279,10.787,0
          106.73258,10.78688,0
          106.73233,10.78675,0
          106.73218,10.78666,0
          106.73207,10.78657,0
          106.73178,10.78641,0
          106.73169,10.78641,0
          106.73166,10.7864,0
          106.73135,10.78623,0
          106.7309,10.78601,0
          106.73084,10.78597,0
          106.73078,10.78589,0
          106.73074,10.78577,0
          106.73053,10.7858,0
          106.72953,10.78531,0
          106.72951,10.78533,0
          106.7295,10.78533,0
          106.7295,10.78534,0
          106.72949,10.78534,0
          106.72946,10.78535,0
          106.72942,10.78537,0
          106.72932,10.78537,0
          106.72924,10.78533,0
          106.72922,10.78531,0
          106.72921,10.78531,0
          106.7292,10.7853,0
          106.72919,10.7853,0
          106.72919,10.78529,0
          106.72918,10.78529,0
          106.72916,10.78527,0
          106.72915,10.78525,0
          106.72914,10.78524,0
          106.72913,10.78522,0
          106.72912,10.78521,0
          106.72911,10.78519,0
          106.72911,10.78517,0
          106.72909,10.78511,0
          106.7291,10.78507,0
          106.72897,10.78493,0
          106.72887,10.78485,0
          106.72838,10.78459,0
          106.72815,10.78446,0
          106.72747,10.78412,0
          106.72718,10.78396,0
          106.72519,10.78293,0
          106.7264,10.78066,0
          106.72664,10.78018,0
          106.72668,10.78012,0
          106.7267,10.78007,0
          106.72673,10.78001,0
          106.72673,10.77992,0
          106.72672,10.7799,0
          106.72669,10.77986,0
          106.72667,10.77982,0
          106.72658,10.77975,0
          106.72652,10.77972,0
          106.72641,10.77965,0
          106.72626,10.77958,0
          106.72617,10.77953,0
          106.72602,10.77946,0
          106.72562,10.77929,0
          106.72497,10.77912,0
          106.72425,10.77895,0
          106.72422,10.77895,0
          106.72236,10.77855,0
          106.72199,10.77848,0
          106.72124,10.77832,0
          106.72101,10.77826,0
          106.71982,10.77801,0
          106.71961,10.77795,0
          106.71952,10.77792,0
          106.71924,10.7778,0
          106.71913,10.77774,0
          106.71904,10.7777,0
          106.71896,10.77765,0
          106.71835,10.77731,0
          106.71823,10.77723,0
          106.71811,10.77714,0
          106.71795,10.777,0
          106.71777,10.77682,0
          106.71759,10.77662,0
          106.7175,10.7765,0
          106.7174,10.77638,0
          106.71709,10.77595,0
          106.71704,10.77585,0
          106.71432,10.77733,0
          106.71423,10.77739,0
          106.71409,10.77746,0
          106.71324,10.77794,0
          106.71165,10.77879,0
          106.71164,10.77879,0
          106.71106,10.7791,0
          106.71073,10.77926,0
          106.71051,10.77938,0
          106.71045,10.77942,0
          106.70986,10.77972,0
          106.70983,10.77974,0
          106.70955,10.7799,0
          106.70952,10.77991,0
          106.70907,10.78017,0
          106.70903,10.7802,0
          106.7086,10.78045,0
          106.70839,10.78055,0
          106.70834,10.78056,0
          106.70803,10.78077,0
          106.70794,10.78082,0
          106.70789,10.78086,0
          106.70786,10.78088,0
          106.70772,10.78099,0
          106.70771,10.78099,0
          106.70764,10.78105,0
          106.70758,10.78111,0
          106.70749,10.78118,0
          106.70731,10.78136,0
          106.70718,10.78147,0
          106.70706,10.78158,0
          106.70691,10.78173,0
          106.70687,10.78176,0
          106.70679,10.78184,0
          106.70677,10.78185,0
          106.70673,10.78189,0
          106.70658,10.78202,0
          106.70653,10.78207,0
          106.70651,10.7821,0
          106.70642,10.78218,0
          106.70639,10.7822,0
          106.70532,10.7832,0
          106.70514,10.78338,0
          106.70498,10.78352,0
          106.70495,10.78359,0
          106.70492,10.78365,0
          106.7047,10.78385,0
          106.70465,10.7839,0
          106.70396,10.78452,0
          106.70394,10.78453,0
          106.70387,10.78459,0
          106.70369,10.78476,0
          106.70359,10.78464,0
          106.70334,10.78436,0
          106.70175,10.7827,0
          106.70166,10.78231,0
          106.70143,10.78147,0
          106.70105,10.78022,0
          106.70009,10.77913,0
          106.69994,10.77897,0
          106.70151,10.77751,0
          106.70179,10.77728,0
          106.70149,10.77691,0
          106.70064,10.77592,0
          106.70042,10.77568,0
          106.70004,10.77656,0
          106.69992,10.77679,0
          106.69997,10.77684,0
          106.70013,10.77702,0
        </coordinates>
      </LineString>
    </Placemark>
    <Placemark>
      <name>11.396160 108.754200</name>
      <styleUrl>#icon-1899-DB4436-nodesc</styleUrl>
      <Point>
        <coordinates>
          108.7586028,11.4002681,0
        </coordinates>
      </Point>
    </Placemark>
    <Placemark>
      <name>10.776930 106.700510</name>
      <styleUrl>#icon-1899-DB4436-nodesc</styleUrl>
      <Point>
        <coordinates>
          106.700127,10.7770181,0
        </coordinates>
      </Point>
    </Placemark>
  </Document>
</kml>
