<?xml version="1.0" encoding="UTF-8"?>
<kml xmlns="http://www.opengis.net/kml/2.2">
  <Document>
    <name>goithau-49</name>
    <Style id="icon-1899-DB4436-nodesc-normal">
      <IconStyle>
        <color>ff3644db</color>
        <scale>1</scale>
        <Icon>
          <href>https://www.gstatic.com/mapspro/images/stock/503-wht-blank_maps.png</href>
        </Icon>
        <hotSpot x="32" xunits="pixels" y="64" yunits="insetPixels"/>
      </IconStyle>
      <LabelStyle>
        <scale>0</scale>
      </LabelStyle>
      <BalloonStyle>
        <text><![CDATA[<h3>$[name]</h3>]]></text>
      </BalloonStyle>
    </Style>
    <Style id="icon-1899-DB4436-nodesc-highlight">
      <IconStyle>
        <color>ff3644db</color>
        <scale>1</scale>
        <Icon>
          <href>https://www.gstatic.com/mapspro/images/stock/503-wht-blank_maps.png</href>
        </Icon>
        <hotSpot x="32" xunits="pixels" y="64" yunits="insetPixels"/>
      </IconStyle>
      <LabelStyle>
        <scale>1</scale>
      </LabelStyle>
      <BalloonStyle>
        <text><![CDATA[<h3>$[name]</h3>]]></text>
      </BalloonStyle>
    </Style>
    <StyleMap id="icon-1899-DB4436-nodesc">
      <Pair>
        <key>normal</key>
        <styleUrl>#icon-1899-DB4436-nodesc-normal</styleUrl>
      </Pair>
      <Pair>
        <key>highlight</key>
        <styleUrl>#icon-1899-DB4436-nodesc-highlight</styleUrl>
      </Pair>
    </StyleMap>
    <Style id="line-1267FF-5000-nodesc-normal">
      <LineStyle>
        <color>ffff6712</color>
        <width>5</width>
      </LineStyle>
      <BalloonStyle>
        <text><![CDATA[<h3>$[name]</h3>]]></text>
      </BalloonStyle>
    </Style>
    <Style id="line-1267FF-5000-nodesc-highlight">
      <LineStyle>
        <color>ffff6712</color>
        <width>7.5</width>
      </LineStyle>
      <BalloonStyle>
        <text><![CDATA[<h3>$[name]</h3>]]></text>
      </BalloonStyle>
    </Style>
    <StyleMap id="line-1267FF-5000-nodesc">
      <Pair>
        <key>normal</key>
        <styleUrl>#line-1267FF-5000-nodesc-normal</styleUrl>
      </Pair>
      <Pair>
        <key>highlight</key>
        <styleUrl>#line-1267FF-5000-nodesc-highlight</styleUrl>
      </Pair>
    </StyleMap>
    <Placemark>
      <name>goithau-49</name>
      <styleUrl>#line-1267FF-5000-nodesc</styleUrl>
      <LineString>
        <tessellate>1</tessellate>
        <coordinates>
          108.7496,15.25588,0
          108.74957,15.25545,0
          108.74956,15.25542,0
          108.74944,15.25402,0
          108.74927,15.25139,0
          108.74924,15.25118,0
          108.74917,15.2505,0
          108.74917,15.25046,0
          108.74903,15.24849,0
          108.74901,15.24763,0
          108.74893,15.24657,0
          108.74884,15.24486,0
          108.74879,15.24419,0
          108.74878,15.24337,0
          108.74876,15.24284,0
          108.74876,15.24248,0
          108.74873,15.24143,0
          108.74876,15.23824,0
          108.74881,15.23681,0
          108.74881,15.23659,0
          108.74886,15.23537,0
          108.74886,15.23522,0
          108.74967,15.2207,0
          108.74968,15.22063,0
          108.74968,15.22056,0
          108.74996,15.21638,0
          108.7503,15.20972,0
          108.7503,15.20957,0
          108.75047,15.20716,0
          108.75083,15.20043,0
          108.75084,15.20007,0
          108.7509,15.19899,0
          108.75099,15.19658,0
          108.751,15.19503,0
          108.75092,15.19168,0
          108.75079,15.18841,0
          108.75029,15.17945,0
          108.75029,15.179,0
          108.7503,15.17892,0
          108.75032,15.17886,0
          108.75034,15.17878,0
          108.75034,15.17836,0
          108.75031,15.17788,0
          108.75025,15.17635,0
          108.74996,15.17168,0
          108.74995,15.17162,0
          108.74993,15.17155,0
          108.74988,15.17143,0
          108.74987,15.17138,0
          108.74987,15.17133,0
          108.74986,15.17126,0
          108.7497,15.16828,0
          108.74958,15.16518,0
          108.74954,15.16465,0
          108.74932,15.15985,0
          108.74929,15.1565,0
          108.74934,15.15481,0
          108.74936,15.15446,0
          108.74936,15.15426,0
          108.74941,15.15292,0
          108.74946,15.15218,0
          108.7495,15.15089,0
          108.74949,15.15061,0
          108.74955,15.14945,0
          108.74957,15.14927,0
          108.74957,15.14924,0
          108.74958,15.14914,0
          108.74959,15.14909,0
          108.74959,15.14896,0
          108.7496,15.14888,0
          108.7496,15.1487,0
          108.74961,15.14861,0
          108.74961,15.1485,0
          108.74963,15.14824,0
          108.74963,15.14799,0
          108.74964,15.14786,0
          108.74964,15.14772,0
          108.74967,15.14737,0
          108.74974,15.14604,0
          108.74976,15.14582,0
          108.74994,15.14245,0
          108.74997,15.14226,0
          108.74999,15.14201,0
          108.75001,15.14189,0
          108.75002,15.14179,0
          108.75002,15.1417,0
          108.75005,15.14137,0
          108.75016,15.13916,0
          108.75019,15.13884,0
          108.75026,15.13757,0
          108.75026,15.13748,0
          108.7503,15.13695,0
          108.75052,15.13291,0
          108.75053,15.13284,0
          108.75053,15.13266,0
          108.75057,15.13205,0
          108.75057,15.13194,0
          108.75064,15.13044,0
          108.75071,15.12961,0
          108.75086,15.12684,0
          108.7509,15.12637,0
          108.75092,15.12581,0
          108.75099,15.12486,0
          108.75098,15.1247,0
          108.75101,15.12439,0
          108.75111,15.12259,0
          108.75114,15.12234,0
          108.75115,15.12207,0
          108.75118,15.12193,0
          108.75129,15.12088,0
          108.75133,15.1206,0
          108.75137,15.12039,0
          108.7515,15.1199,0
          108.75154,15.11969,0
          108.75167,15.11918,0
          108.75199,15.11821,0
          108.75203,15.11812,0
          108.75261,15.11655,0
          108.75276,15.11619,0
          108.75293,15.11582,0
          108.75318,15.11541,0
          108.7533,15.11519,0
          108.75349,15.11488,0
          108.7542,15.1138,0
          108.75476,15.11303,0
          108.75483,15.11295,0
          108.7553,15.11234,0
          108.75607,15.11141,0
          108.75611,15.11135,0
          108.75693,15.11034,0
          108.75704,15.11022,0
          108.7576,15.10952,0
          108.75874,15.10815,0
          108.75878,15.10809,0
          108.75979,15.10688,0
          108.7601,15.10649,0
          108.76014,15.10646,0
          108.76156,15.10475,0
          108.7616,15.10468,0
          108.76162,15.10466,0
          108.76221,15.10396,0
          108.76263,15.10351,0
          108.76292,15.1031,0
          108.76348,15.10241,0
          108.76532,15.10022,0
          108.76616,15.09925,0
          108.76646,15.09893,0
          108.76703,15.09828,0
          108.76772,15.09754,0
          108.76777,15.09748,0
          108.76836,15.0969,0
          108.76852,15.09673,0
          108.76862,15.09664,0
          108.76875,15.09655,0
          108.76921,15.09609,0
          108.76954,15.09578,0
          108.77077,15.09468,0
          108.77117,15.09434,0
          108.77136,15.09419,0
          108.77138,15.09418,0
          108.77209,15.09359,0
          108.77214,15.09356,0
          108.7725,15.09328,0
          108.77252,15.09326,0
          108.77286,15.093,0
          108.77333,15.09267,0
          108.77337,15.09263,0
          108.77377,15.09234,0
          108.77392,15.09222,0
          108.77548,15.09111,0
          108.77578,15.09091,0
          108.7758,15.09089,0
          108.77796,15.08948,0
          108.77798,15.08946,0
          108.77985,15.0882,0
          108.78103,15.08744,0
          108.78124,15.08729,0
          108.78429,15.0853,0
          108.7874,15.0832,0
          108.7886,15.08242,0
          108.78892,15.08219,0
          108.79006,15.08145,0
          108.79078,15.08102,0
          108.7912,15.08075,0
          108.79156,15.08054,0
          108.79354,15.07947,0
          108.79357,15.07946,0
          108.79454,15.079,0
          108.79455,15.07899,0
          108.79522,15.07869,0
          108.79572,15.07845,0
          108.79654,15.07809,0
          108.79657,15.07808,0
          108.79708,15.07786,0
          108.7972,15.0778,0
          108.79809,15.07743,0
          108.79896,15.0771,0
          108.8005,15.07657,0
          108.80068,15.07652,0
          108.80127,15.07632,0
          108.80133,15.07629,0
          108.80196,15.07607,0
          108.80256,15.0759,0
          108.8052,15.07506,0
          108.80669,15.07461,0
          108.80814,15.07414,0
          108.80818,15.07412,0
          108.80846,15.07404,0
          108.80871,15.07398,0
          108.80876,15.07396,0
          108.8106,15.0734,0
          108.81062,15.0734,0
          108.81118,15.07322,0
          108.81187,15.07302,0
          108.81242,15.07284,0
          108.81372,15.07246,0
          108.81415,15.07235,0
          108.81525,15.07212,0
          108.81527,15.07211,0
          108.81638,15.07193,0
          108.81642,15.07193,0
          108.81688,15.07186,0
          108.81825,15.07171,0
          108.81833,15.07171,0
          108.81905,15.07167,0
          108.81911,15.07166,0
          108.81963,15.07164,0
          108.82055,15.07165,0
          108.82136,15.07163,0
          108.83408,15.07165,0
          108.83428,15.07154,0
          108.83436,15.07152,0
          108.8345,15.07146,0
          108.83459,15.07141,0
          108.83469,15.07133,0
          108.83474,15.07128,0
          108.83477,15.07126,0
          108.83483,15.07123,0
          108.83499,15.07092,0
          108.83523,15.07051,0
          108.83542,15.07024,0
          108.83583,15.06957,0
          108.83585,15.06953,0
          108.8368,15.06796,0
          108.83683,15.0679,0
          108.83777,15.06638,0
          108.83789,15.06621,0
          108.83893,15.06451,0
          108.83909,15.06421,0
          108.83915,15.06404,0
          108.83943,15.0635,0
          108.84002,15.06267,0
          108.84051,15.06188,0
          108.84108,15.0609,0
          108.84136,15.06046,0
          108.84144,15.06032,0
          108.84153,15.06019,0
          108.84171,15.05989,0
          108.84187,15.05959,0
          108.84273,15.05831,0
          108.84311,15.05771,0
          108.84356,15.05695,0
          108.84594,15.05323,0
          108.84615,15.05285,0
          108.84647,15.05233,0
          108.84706,15.0513,0
          108.84842,15.04874,0
          108.84854,15.04844,0
          108.8488,15.04772,0
          108.84899,15.04709,0
          108.84916,15.04659,0
          108.84976,15.0452,0
          108.85038,15.04398,0
          108.85042,15.04387,0
          108.85062,15.04343,0
          108.85071,15.04326,0
          108.85081,15.04314,0
          108.85094,15.04289,0
          108.8513,15.04208,0
          108.85232,15.03967,0
          108.8524,15.03951,0
          108.85244,15.0394,0
          108.85317,15.03767,0
          108.85316,15.03765,0
          108.85316,15.03762,0
          108.85317,15.03758,0
          108.8532,15.03752,0
          108.85326,15.03737,0
          108.85347,15.03694,0
          108.85438,15.03521,0
          108.85465,15.03464,0
          108.85717,15.02984,0
          108.85766,15.02905,0
          108.8578,15.02889,0
          108.85784,15.02882,0
          108.85799,15.02864,0
          108.85935,15.02725,0
          108.85972,15.02691,0
          108.86036,15.02624,0
          108.86063,15.02593,0
          108.86076,15.02576,0
          108.86114,15.02531,0
          108.86296,15.02335,0
          108.86321,15.02306,0
          108.86347,15.02278,0
          108.86367,15.02254,0
          108.86422,15.0218,0
          108.86434,15.0216,0
          108.86826,15.01581,0
          108.8685,15.01548,0
          108.86865,15.01525,0
          108.86901,15.01475,0
          108.86915,15.0145,0
          108.86924,15.01432,0
          108.86935,15.01406,0
          108.86956,15.01349,0
          108.86999,15.01221,0
          108.87,15.01215,0
          108.87016,15.01168,0
          108.87023,15.01151,0
          108.87055,15.01051,0
          108.87094,15.00944,0
          108.87116,15.00879,0
          108.87135,15.00811,0
          108.87176,15.007,0
          108.87224,15.0058,0
          108.87275,15.00469,0
          108.87282,15.00452,0
          108.87306,15.00401,0
          108.87329,15.00347,0
          108.87365,15.00269,0
          108.87374,15.00262,0
          108.87376,15.00255,0
          108.87394,15.0021,0
          108.87407,15.00211,0
          108.87426,15.00208,0
          108.87445,15.00203,0
          108.87474,15.00193,0
          108.87494,15.00184,0
          108.87501,15.0018,0
          108.87506,15.00176,0
          108.8753,15.0016,0
          108.87977,14.99835,0
          108.87988,14.99826,0
          108.87994,14.99822,0
          108.88009,14.9981,0
          108.88034,14.99793,0
          108.88157,14.99701,0
          108.88195,14.99668,0
          108.88239,14.99627,0
          108.88262,14.99596,0
          108.88278,14.99571,0
          108.88294,14.99534,0
          108.88305,14.99502,0
          108.88313,14.9947,0
          108.88551,14.98384,0
          108.88569,14.98309,0
          108.88581,14.98275,0
          108.88582,14.98271,0
          108.88599,14.98225,0
          108.88833,14.97692,0
          108.88837,14.97681,0
          108.88879,14.97584,0
          108.8888,14.97581,0
          108.8889,14.97561,0
          108.88893,14.97553,0
          108.88959,14.97409,0
          108.89007,14.97299,0
          108.89034,14.97233,0
          108.8907,14.97152,0
          108.89078,14.97132,0
          108.89518,14.96126,0
          108.8958,14.9599,0
          108.89582,14.95987,0
          108.90075,14.94863,0
          108.9015,14.94683,0
          108.90159,14.94659,0
          108.90174,14.94602,0
          108.90179,14.9457,0
          108.90182,14.94539,0
          108.90184,14.94505,0
          108.90184,14.94458,0
          108.90177,14.94404,0
          108.90177,14.94399,0
          108.90167,14.94354,0
          108.9016,14.94328,0
          108.90141,14.94279,0
          108.90122,14.9424,0
          108.90118,14.94234,0
          108.90118,14.94233,0
          108.90084,14.94176,0
          108.90034,14.94115,0
          108.89994,14.94074,0
          108.89959,14.94046,0
          108.89938,14.94031,0
          108.89937,14.9403,0
          108.89686,14.93844,0
          108.89672,14.93838,0
          108.89637,14.93815,0
          108.89626,14.93806,0
          108.89624,14.93805,0
          108.89611,14.93792,0
          108.89606,14.93786,0
          108.89601,14.93776,0
          108.89594,14.93753,0
          108.89592,14.9374,0
          108.89715,14.93502,0
          108.89783,14.93376,0
          108.89812,14.93325,0
          108.89832,14.93285,0
          108.89856,14.93244,0
          108.90005,14.92956,0
          108.90062,14.92856,0
          108.90083,14.9281,0
          108.90225,14.92549,0
          108.90301,14.92402,0
          108.90458,14.92109,0
          108.90508,14.92012,0
          108.90531,14.91971,0
          108.90663,14.91718,0
          108.90737,14.91591,0
          108.90808,14.91453,0
          108.90858,14.91361,0
          108.90963,14.91157,0
          108.91055,14.90986,0
          108.91095,14.90907,0
          108.91188,14.90737,0
          108.91241,14.90629,0
          108.91264,14.90586,0
          108.91268,14.90577,0
          108.91268,14.90576,0
          108.91326,14.90455,0
          108.9134,14.90423,0
          108.91356,14.90392,0
          108.91392,14.90314,0
          108.91413,14.90275,0
          108.91432,14.90237,0
          108.91441,14.90214,0
          108.91457,14.90179,0
          108.91467,14.90161,0
          108.91521,14.90047,0
          108.91605,14.8988,0
          108.91612,14.89864,0
          108.91791,14.89497,0
          108.91792,14.89497,0
          108.91935,14.89196,0
          108.91986,14.89096,0
          108.91986,14.89095,0
          108.92073,14.88917,0
          108.92092,14.88881,0
          108.92135,14.88793,0
          108.92144,14.88772,0
          108.92193,14.88676,0
          108.92218,14.88622,0
          108.92243,14.88562,0
          108.92297,14.8845,0
          108.92305,14.88436,0
          108.92332,14.88383,0
          108.92347,14.88347,0
          108.92429,14.88184,0
          108.92541,14.87952,0
          108.92554,14.87923,0
          108.92633,14.87759,0
          108.92666,14.87696,0
          108.92684,14.87656,0
          108.92772,14.87426,0
          108.92776,14.87414,0
          108.9294,14.8701,0
          108.92966,14.86931,0
          108.93022,14.86785,0
          108.93055,14.86704,0
          108.93059,14.86697,0
          108.93099,14.86606,0
          108.93117,14.86557,0
          108.93299,14.86119,0
          108.93447,14.8575,0
          108.93531,14.85564,0
          108.93537,14.85552,0
          108.93626,14.85353,0
          108.93656,14.85291,0
          108.93708,14.85193,0
          108.93856,14.84933,0
          108.93915,14.84815,0
          108.93942,14.84765,0
          108.93964,14.84719,0
          108.9398,14.84689,0
          108.93983,14.84678,0
          108.93991,14.84664,0
          108.94116,14.84418,0
          108.94123,14.84401,0
          108.94187,14.84269,0
          108.9424,14.84148,0
          108.94246,14.84131,0
          108.94302,14.84008,0
          108.94303,14.84005,0
          108.94326,14.83951,0
          108.94386,14.83821,0
          108.94391,14.83808,0
          108.94399,14.83794,0
          108.94405,14.83782,0
          108.9446,14.8366,0
          108.94471,14.83638,0
          108.94477,14.83633,0
          108.94482,14.83621,0
          108.94499,14.83602,0
          108.94507,14.83595,0
          108.94515,14.8359,0
          108.94525,14.83586,0
          108.94533,14.83582,0
          108.94542,14.8358,0
          108.94554,14.83576,0
          108.94556,14.83576,0
          108.94585,14.83571,0
          108.94609,14.83584,0
          108.94654,14.83598,0
          108.94687,14.8361,0
          108.94711,14.83616,0
          108.94719,14.83617,0
          108.94762,14.83625,0
          108.94778,14.83627,0
          108.94786,14.83627,0
          108.94794,14.83628,0
          108.94805,14.83628,0
          108.94815,14.83629,0
          108.94843,14.83629,0
          108.94848,14.83628,0
          108.94861,14.83628,0
          108.94881,14.83626,0
          108.94891,14.83624,0
          108.9492,14.8362,0
          108.94935,14.83617,0
          108.94997,14.83608,0
          108.9516,14.83577,0
          108.95189,14.83573,0
          108.95252,14.83562,0
          108.95304,14.83551,0
          108.95426,14.8353,0
          108.95451,14.83524,0
          108.95532,14.83498,0
          108.95594,14.83474,0
          108.95649,14.83449,0
          108.95702,14.83419,0
          108.96213,14.83094,0
          108.96225,14.83087,0
          108.96412,14.82967,0
          108.96505,14.8291,0
          108.96516,14.82902,0
          108.966,14.82848,0
          108.96612,14.82839,0
          108.96765,14.82743,0
          108.9679,14.82726,0
          108.96814,14.82712,0
          108.96816,14.8271,0
          108.96834,14.82698,0
          108.96851,14.82684,0
          108.96881,14.82657,0
          108.96913,14.8262,0
          108.96928,14.826,0
          108.96947,14.8257,0
          108.96974,14.82519,0
          108.97073,14.823,0
          108.97081,14.82284,0
          108.97149,14.82134,0
          108.97178,14.82065,0
          108.9725,14.81914,0
          108.97423,14.81536,0
          108.97423,14.81535,0
          108.97458,14.81459,0
          108.97462,14.81448,0
          108.97601,14.81145,0
          108.97604,14.81137,0
          108.97881,14.80528,0
          108.97882,14.80525,0
          108.97999,14.80267,0
          108.98002,14.80263,0
          108.98137,14.79961,0
          108.98257,14.79702,0
          108.98296,14.79613,0
          108.98317,14.79569,0
          108.98337,14.79523,0
          108.98353,14.79478,0
          108.98363,14.79446,0
          108.98363,14.79444,0
          108.98372,14.79411,0
          108.98382,14.79352,0
          108.98387,14.79303,0
          108.98458,14.78351,0
          108.98458,14.78337,0
          108.98571,14.76823,0
          108.98577,14.76773,0
          108.98581,14.76759,0
          108.98591,14.76739,0
          108.98596,14.76731,0
          108.98602,14.76724,0
          108.98618,14.76708,0
          108.98701,14.76655,0
          108.9871,14.76645,0
          108.9872,14.76637,0
          108.98735,14.76629,0
          108.98874,14.76537,0
          108.99048,14.76432,0
          108.99065,14.76424,0
          108.99065,14.76423,0
          108.99285,14.76284,0
          108.99364,14.76239,0
          108.99437,14.76193,0
          108.99527,14.7614,0
          108.99572,14.76112,0
          108.99626,14.76074,0
          108.99675,14.76042,0
          108.99693,14.76029,0
          108.99765,14.75986,0
          108.99805,14.75965,0
          108.99859,14.75934,0
          109.00024,14.7583,0
          109.00218,14.75713,0
          109.00386,14.75605,0
          109.0062,14.75473,0
          109.00769,14.75382,0
          109.01004,14.75245,0
          109.01019,14.75237,0
          109.01047,14.7522,0
          109.0108,14.75203,0
          109.0109,14.75199,0
          109.01102,14.75193,0
          109.01122,14.75185,0
          109.01301,14.7513,0
          109.01405,14.75103,0
          109.01671,14.75025,0
          109.01726,14.75011,0
          109.01985,14.74933,0
          109.02107,14.74893,0
          109.02139,14.74881,0
          109.02173,14.74864,0
          109.0224,14.74824,0
          109.02381,14.7473,0
          109.02568,14.74611,0
          109.02693,14.74537,0
          109.02711,14.74525,0
          109.02726,14.74516,0
          109.02755,14.74493,0
          109.02765,14.74487,0
          109.02773,14.74477,0
          109.02783,14.74468,0
          109.02806,14.74437,0
          109.0282,14.74416,0
          109.02844,14.74369,0
          109.02898,14.74228,0
          109.03,14.73981,0
          109.03067,14.73808,0
          109.03075,14.7379,0
          109.03091,14.73748,0
          109.03092,14.73744,0
          109.03114,14.73685,0
          109.03129,14.73633,0
          109.03135,14.736,0
          109.03141,14.73552,0
          109.03144,14.73503,0
          109.03155,14.73102,0
          109.03157,14.72876,0
          109.03169,14.72703,0
          109.03171,14.72645,0
          109.03172,14.72637,0
          109.03186,14.72302,0
          109.03186,14.72284,0
          109.03188,14.72254,0
          109.03195,14.7219,0
          109.03198,14.72182,0
          109.03201,14.72166,0
          109.03206,14.72151,0
          109.03227,14.72099,0
          109.03233,14.72088,0
          109.03364,14.7182,0
          109.03378,14.71789,0
          109.03387,14.71771,0
          109.03431,14.71692,0
          109.03458,14.71637,0
          109.03462,14.71627,0
          109.03464,14.71624,0
          109.03475,14.71586,0
          109.03479,14.71567,0
          109.03482,14.71535,0
          109.03482,14.7153,0
          109.03494,14.71461,0
          109.03507,14.71413,0
          109.03523,14.7138,0
          109.03533,14.71365,0
          109.03535,14.71361,0
          109.03561,14.7133,0
          109.03578,14.71314,0
          109.03614,14.71285,0
          109.03632,14.71273,0
          109.03649,14.71263,0
          109.03668,14.71253,0
          109.03683,14.71247,0
          109.03684,14.71247,0
          109.03702,14.71243,0
          109.03725,14.71239,0
          109.03804,14.71229,0
          109.03836,14.71227,0
          109.0386,14.71224,0
          109.03924,14.71208,0
          109.04042,14.71166,0
          109.04163,14.71116,0
          109.04205,14.71097,0
          109.04347,14.71028,0
          109.04359,14.71024,0
          109.0439,14.71012,0
          109.04424,14.71002,0
          109.04553,14.70974,0
          109.04688,14.70949,0
          109.04715,14.70948,0
          109.04736,14.7095,0
          109.04736,14.70951,0
          109.04901,14.70998,0
          109.04923,14.71001,0
          109.04945,14.71003,0
          109.04966,14.71003,0
          109.04984,14.71001,0
          109.05006,14.70997,0
          109.05044,14.70987,0
          109.05091,14.70967,0
          109.05094,14.70965,0
          109.05112,14.70956,0
          109.05129,14.70945,0
          109.05136,14.70939,0
          109.0514,14.70935,0
          109.0515,14.70927,0
          109.0517,14.70908,0
          109.05183,14.70891,0
          109.05205,14.70855,0
          109.05219,14.70834,0
          109.05231,14.70822,0
          109.05233,14.70821,0
          109.05245,14.70813,0
          109.0526,14.70807,0
          109.05272,14.70804,0
          109.05287,14.70802,0
          109.05297,14.70802,0
          109.05336,14.70799,0
          109.0535,14.70796,0
          109.05366,14.70789,0
          109.05377,14.70782,0
          109.05402,14.70761,0
          109.05469,14.70699,0
          109.05481,14.70686,0
          109.05525,14.70643,0
          109.05563,14.70602,0
          109.05574,14.70588,0
          109.05582,14.70575,0
          109.05588,14.70563,0
          109.0559,14.70556,0
          109.05593,14.70548,0
          109.05596,14.70538,0
          109.05596,14.70536,0
          109.056,14.70516,0
          109.05605,14.70423,0
          109.05609,14.70402,0
          109.0562,14.70372,0
          109.05628,14.70354,0
          109.05676,14.70294,0
          109.0569,14.7028,0
          109.05703,14.70264,0
          109.05705,14.70262,0
          109.05724,14.70236,0
          109.05761,14.70175,0
          109.05789,14.70122,0
          109.05812,14.70089,0
          109.05842,14.70061,0
          109.05978,14.69952,0
          109.06017,14.69906,0
          109.06061,14.69848,0
          109.06096,14.69795,0
          109.06106,14.69776,0
          109.0612,14.69736,0
          109.06123,14.69725,0
          109.06125,14.69706,0
          109.06125,14.6967,0
          109.06124,14.69652,0
          109.0612,14.69626,0
          109.0612,14.69624,0
          109.061,14.69558,0
          109.06084,14.69495,0
          109.06066,14.69432,0
          109.06054,14.69395,0
          109.06036,14.69354,0
          109.05977,14.69245,0
          109.05965,14.69225,0
          109.0595,14.69194,0
          109.05935,14.69158,0
          109.05929,14.691,0
          109.05927,14.69065,0
          109.05927,14.69041,0
          109.05929,14.69018,0
          109.05931,14.69007,0
          109.05931,14.68962,0
          109.05932,14.68953,0
          109.05934,14.68914,0
          109.05937,14.6888,0
          109.0594,14.68866,0
          109.0595,14.68833,0
          109.05957,14.68821,0
          109.05965,14.68805,0
          109.05985,14.68774,0
          109.06017,14.68729,0
          109.06039,14.68691,0
          109.06052,14.68662,0
          109.0606,14.68641,0
          109.06073,14.6859,0
          109.06074,14.68574,0
          109.06077,14.68547,0
          109.06076,14.6852,0
          109.06073,14.68484,0
          109.06067,14.68452,0
          109.06067,14.68451,0
          109.06062,14.68433,0
          109.05994,14.68265,0
          109.05992,14.68259,0
          109.05976,14.68222,0
          109.05949,14.68149,0
          109.05938,14.68124,0
          109.0592,14.68087,0
          109.0592,14.68086,0
          109.05906,14.68056,0
          109.05879,14.67987,0
          109.05877,14.67979,0
          109.05771,14.67716,0
          109.05753,14.67668,0
          109.05743,14.67627,0
          109.0574,14.67606,0
          109.05738,14.67584,0
          109.05738,14.67541,0
          109.05743,14.67494,0
          109.05747,14.67475,0
          109.05751,14.6746,0
          109.05759,14.67435,0
          109.0577,14.67408,0
          109.05796,14.67362,0
          109.05821,14.67327,0
          109.0584,14.67307,0
          109.05866,14.67282,0
          109.05894,14.67257,0
          109.0628,14.66933,0
          109.06361,14.66861,0
          109.06458,14.66779,0
          109.06482,14.6676,0
          109.06486,14.66755,0
          109.06512,14.66732,0
          109.0653,14.66714,0
          109.06544,14.66696,0
          109.06558,14.66675,0
          109.06573,14.66638,0
          109.06577,14.66618,0
          109.06576,14.66574,0
          109.06575,14.66569,0
          109.0657,14.66552,0
          109.06567,14.66538,0
          109.06565,14.66535,0
          109.06553,14.66501,0
          109.06551,14.66493,0
          109.06507,14.66385,0
          109.06498,14.66366,0
          109.06277,14.65854,0
          109.06271,14.65837,0
          109.06262,14.65806,0
          109.06262,14.65802,0
          109.06259,14.65786,0
          109.06257,14.65765,0
          109.06257,14.6573,0
          109.06262,14.65699,0
          109.06273,14.65659,0
          109.06284,14.65626,0
          109.06285,14.65621,0
          109.06318,14.65531,0
          109.06319,14.65529,0
          109.06377,14.65379,0
          109.06391,14.65346,0
          109.06417,14.65256,0
          109.06423,14.65225,0
          109.06425,14.65194,0
          109.06424,14.65188,0
          109.06422,14.65155,0
          109.06421,14.65152,0
          109.06417,14.65135,0
          109.06413,14.65122,0
          109.0639,14.6507,0
          109.06343,14.65003,0
          109.06317,14.64963,0
          109.06308,14.64947,0
          109.06274,14.64901,0
          109.06218,14.64819,0
          109.06191,14.64771,0
          109.06179,14.64739,0
          109.06169,14.64704,0
          109.06163,14.64679,0
          109.06158,14.64641,0
          109.06158,14.64607,0
          109.06161,14.64575,0
          109.06167,14.64542,0
          109.06176,14.64508,0
          109.06181,14.64498,0
          109.06196,14.6446,0
          109.06234,14.64384,0
          109.06236,14.64379,0
          109.06283,14.64287,0
          109.06324,14.64195,0
          109.06349,14.64126,0
          109.06377,14.64034,0
          109.06399,14.6393,0
          109.06409,14.63874,0
          109.06418,14.63796,0
          109.06422,14.6374,0
          109.06417,14.6361,0
          109.06401,14.63381,0
          109.0638,14.63132,0
          109.06369,14.63082,0
          109.0636,14.63049,0
          109.0628,14.62847,0
          109.0619,14.6263,0
          109.06189,14.62629,0
          109.06175,14.62596,0
          109.06171,14.62588,0
          109.06168,14.62579,0
          109.06139,14.62513,0
          109.06102,14.62421,0
          109.06099,14.62411,0
          109.06095,14.62394,0
          109.06093,14.62381,0
          109.06091,14.62359,0
          109.0609,14.62299,0
          109.06091,14.62258,0
          109.0609,14.62251,0
          109.06089,14.62233,0
          109.06085,14.62193,0
          109.06085,14.62185,0
          109.06081,14.62166,0
          109.06077,14.62153,0
          109.06067,14.62133,0
          109.06051,14.62106,0
          109.06028,14.62078,0
          109.06027,14.62078,0
          109.06007,14.62054,0
          109.05973,14.62018,0
          109.05952,14.61998,0
          109.0595,14.61995,0
          109.05923,14.61971,0
          109.05907,14.6196,0
          109.05892,14.61952,0
          109.05875,14.61946,0
          109.05841,14.6194,0
          109.05801,14.61935,0
          109.05745,14.61932,0
          109.05731,14.61932,0
          109.05717,14.6193,0
          109.05698,14.61926,0
          109.05682,14.61921,0
          109.0567,14.61916,0
          109.05659,14.6191,0
          109.05627,14.61888,0
          109.05613,14.61877,0
          109.05605,14.61868,0
          109.05583,14.61832,0
          109.05575,14.61812,0
          109.05571,14.61795,0
          109.05569,14.61781,0
          109.05568,14.61769,0
          109.05568,14.61741,0
          109.05574,14.6171,0
          109.0558,14.61695,0
          109.05599,14.61656,0
          109.05623,14.61617,0
          109.05627,14.61605,0
          109.0563,14.61599,0
          109.05633,14.61591,0
          109.05635,14.61575,0
          109.05634,14.61565,0
          109.05632,14.61553,0
          109.05628,14.61541,0
          109.05617,14.61518,0
          109.05504,14.61365,0
          109.05496,14.61353,0
          109.05478,14.61329,0
          109.05421,14.61241,0
          109.05337,14.61083,0
          109.05315,14.61034,0
          109.05305,14.61015,0
          109.05301,14.61006,0
          109.05299,14.61003,0
          109.05296,14.60996,0
          109.05295,14.60992,0
          109.05289,14.60974,0
          109.05288,14.60972,0
          109.05273,14.60905,0
          109.05273,14.60902,0
          109.05272,14.60898,0
          109.05272,14.60871,0
          109.05278,14.60847,0
          109.05283,14.60832,0
          109.0529,14.60816,0
          109.05295,14.60802,0
          109.05305,14.60767,0
          109.05308,14.60748,0
          109.05308,14.60745,0
          109.05309,14.60742,0
          109.05311,14.60731,0
          109.05311,14.60727,0
          109.05312,14.60724,0
          109.05326,14.60629,0
          109.05339,14.60553,0
          109.05342,14.60527,0
          109.05353,14.60472,0
          109.05357,14.60437,0
          109.05371,14.60366,0
          109.05375,14.60357,0
          109.05377,14.60328,0
          109.05381,14.60212,0
          109.05389,14.60074,0
          109.0539,14.60034,0
          109.05393,14.59989,0
          109.05393,14.59944,0
          109.05392,14.5992,0
          109.05372,14.59688,0
          109.05372,14.59683,0
          109.05367,14.5962,0
          109.05364,14.59599,0
          109.0536,14.59578,0
          109.05359,14.59576,0
          109.05352,14.59544,0
          109.05343,14.59513,0
          109.05331,14.59486,0
          109.05321,14.59467,0
          109.0531,14.59451,0
          109.05308,14.5945,0
          109.05286,14.59416,0
          109.05268,14.59392,0
          109.05228,14.59334,0
          109.05221,14.59312,0
          109.052,14.59283,0
          109.05187,14.59268,0
          109.05146,14.5921,0
          109.05119,14.59175,0
          109.04964,14.58959,0
          109.04964,14.58958,0
          109.04953,14.58944,0
          109.04933,14.58913,0
          109.04842,14.58783,0
          109.04808,14.58731,0
          109.04802,14.58716,0
          109.04797,14.587,0
          109.0479,14.58673,0
          109.04787,14.58652,0
          109.04786,14.5863,0
          109.04785,14.58622,0
          109.04786,14.58612,0
          109.04786,14.58609,0
          109.04788,14.58589,0
          109.04792,14.58567,0
          109.04825,14.58428,0
          109.04831,14.58406,0
          109.0487,14.58239,0
          109.04891,14.58158,0
          109.04912,14.58066,0
          109.04957,14.57888,0
          109.04967,14.57836,0
          109.04989,14.57739,0
          109.04995,14.57716,0
          109.04997,14.57697,0
          109.04996,14.57614,0
          109.04983,14.5744,0
          109.04976,14.57378,0
          109.04971,14.57304,0
          109.04971,14.57299,0
          109.0497,14.57286,0
          109.0497,14.57281,0
          109.04957,14.57077,0
          109.04952,14.57023,0
          109.04949,14.56955,0
          109.04918,14.5657,0
          109.04916,14.56515,0
          109.04901,14.56289,0
          109.04901,14.5625,0
          109.04893,14.56113,0
          109.0487,14.55816,0
          109.04869,14.55773,0
          109.04863,14.55656,0
          109.0486,14.55638,0
          109.04857,14.55626,0
          109.0485,14.55609,0
          109.04844,14.55599,0
          109.04841,14.55592,0
          109.04829,14.55575,0
          109.04816,14.55561,0
          109.04783,14.55533,0
          109.04765,14.55522,0
          109.04677,14.55463,0
          109.04534,14.55358,0
          109.04508,14.55337,0
          109.04476,14.55307,0
          109.04444,14.55257,0
          109.04423,14.55215,0
          109.04412,14.55186,0
          109.04396,14.55134,0
          109.04376,14.5506,0
          109.04347,14.54943,0
          109.04336,14.54907,0
          109.04319,14.54841,0
          109.04315,14.54828,0
          109.04295,14.54775,0
          109.04193,14.5439,0
          109.04179,14.54331,0
          109.04174,14.54315,0
          109.04145,14.54249,0
          109.04055,14.54109,0
          109.04013,14.54047,0
          109.03995,14.54013,0
          109.0396,14.53954,0
          109.03944,14.53932,0
          109.0394,14.53917,0
          109.03933,14.53898,0
          109.03926,14.53868,0
          109.03898,14.53678,0
          109.03895,14.53668,0
          109.03895,14.53667,0
          109.03891,14.53641,0
          109.03866,14.53542,0
          109.03855,14.53504,0
          109.0384,14.53436,0
          109.03814,14.53333,0
          109.03811,14.53287,0
          109.03816,14.53262,0
          109.03824,14.53208,0
          109.03828,14.5315,0
          109.03829,14.53071,0
          109.03831,14.53019,0
          109.03831,14.52969,0
          109.03815,14.52766,0
          109.03808,14.52716,0
          109.03798,14.52665,0
          109.03794,14.52656,0
          109.0379,14.52641,0
          109.03781,14.52618,0
          109.0377,14.52596,0
          109.03719,14.52513,0
          109.03718,14.52512,0
          109.03656,14.52423,0
          109.03518,14.52244,0
          109.03499,14.52208,0
          109.0349,14.52185,0
          109.03482,14.52135,0
          109.03482,14.52088,0
          109.03479,14.51999,0
          109.03477,14.5172,0
          109.03479,14.51665,0
          109.03478,14.51559,0
          109.03477,14.51538,0
          109.03474,14.51309,0
          109.03475,14.51169,0
          109.03474,14.51092,0
          109.03463,14.51067,0
          109.03457,14.51061,0
          109.03456,14.51059,0
          109.03454,14.51057,0
          109.03453,14.51055,0
          109.03452,14.51052,0
          109.03451,14.5105,0
          109.03451,14.51047,0
          109.0345,14.51044,0
          109.0345,14.51036,0
          109.03452,14.5103,0
          109.03455,14.51024,0
          109.03457,14.51022,0
          109.03458,14.5102,0
          109.0346,14.51018,0
          109.03462,14.51017,0
          109.03464,14.51015,0
          109.03466,14.51014,0
          109.03467,14.51013,0
          109.03468,14.51013,0
          109.03469,14.51012,0
          109.03475,14.50976,0
          109.03473,14.50953,0
          109.03472,14.50847,0
          109.03473,14.50778,0
          109.03471,14.50724,0
          109.03472,14.50678,0
          109.0347,14.50629,0
          109.0347,14.50548,0
          109.03468,14.50473,0
          109.03473,14.50271,0
          109.03466,14.50112,0
          109.03467,14.50103,0
          109.03467,14.49834,0
          109.03462,14.49521,0
          109.03462,14.49343,0
          109.0346,14.49272,0
          109.0346,14.48958,0
          109.03446,14.48762,0
          109.03445,14.48731,0
          109.03431,14.48589,0
          109.03428,14.48526,0
          109.03421,14.48465,0
          109.03403,14.48162,0
          109.03382,14.47872,0
          109.03374,14.47817,0
          109.03374,14.478,0
          109.03365,14.47626,0
          109.03365,14.47615,0
          109.03356,14.47485,0
          109.03343,14.4734,0
          109.03333,14.47299,0
          109.03326,14.4728,0
          109.03316,14.47261,0
          109.03306,14.47244,0
          109.03287,14.47218,0
          109.03246,14.47176,0
          109.0314,14.47077,0
          109.0309,14.47027,0
          109.0302,14.46951,0
          109.02956,14.46877,0
          109.0283,14.46717,0
          109.02803,14.46685,0
          109.02763,14.46634,0
          109.02751,14.46617,0
          109.02733,14.46586,0
          109.02718,14.46556,0
          109.02687,14.46482,0
          109.02685,14.46479,0
          109.02615,14.46293,0
          109.02546,14.46122,0
          109.02369,14.45664,0
          109.02332,14.45561,0
          109.02235,14.4532,0
          109.02198,14.45233,0
          109.02148,14.451,0
          109.02131,14.45061,0
          109.0211,14.45008,0
          109.02089,14.44959,0
          109.02046,14.44849,0
          109.02029,14.44801,0
          109.0201,14.4474,0
          109.01985,14.44672,0
          109.01947,14.44553,0
          109.01952,14.4455,0
          109.01952,14.44548,0
          109.01953,14.44546,0
          109.01953,14.44544,0
          109.01951,14.44538,0
          109.01948,14.44526,0
          109.01931,14.44475,0
          109.01929,14.44453,0
          109.01922,14.44405,0
          109.0192,14.44383,0
          109.01889,14.44172,0
          109.0183,14.43818,0
          109.01803,14.43696,0
          109.01789,14.436,0
          109.01788,14.43599,0
          109.01774,14.43496,0
          109.01756,14.43393,0
          109.01752,14.43325,0
          109.01725,14.43166,0
          109.01705,14.43071,0
          109.017,14.43031,0
          109.01681,14.42919,0
          109.0168,14.42918,0
          109.01679,14.42903,0
          109.01679,14.4289,0
          109.01681,14.4288,0
          109.01812,14.42705,0
          109.01891,14.42605,0
          109.01987,14.42479,0
          109.01996,14.4246,0
          109.01997,14.42449,0
          109.01995,14.42441,0
          109.01988,14.42424,0
          109.01932,14.42337,0
          109.01923,14.42321,0
          109.0176,14.42061,0
          109.01759,14.4206,0
          109.01673,14.41925,0
          109.01656,14.419,0
          109.01626,14.4185,0
          109.01613,14.41831,0
          109.01587,14.41782,0
          109.01578,14.41752,0
          109.01575,14.41738,0
          109.01573,14.41667,0
          109.01574,14.41613,0
          109.01578,14.41571,0
          109.01577,14.41285,0
          109.01574,14.41225,0
          109.01575,14.41202,0
          109.01578,14.40526,0
          109.01576,14.40506,0
          109.01574,14.40493,0
          109.0157,14.40476,0
          109.01569,14.40466,0
          109.01564,14.4044,0
          109.0156,14.40394,0
          109.01555,14.4036,0
          109.01553,14.40341,0
          109.01553,14.4033,0
          109.01556,14.40291,0
          109.01565,14.40239,0
          109.01537,14.4021,0
          109.01532,14.40202,0
          109.01538,14.40189,0
          109.01541,14.40184,0
          109.01634,14.4,0
          109.01644,14.39983,0
          109.01661,14.39948,0
          109.01693,14.39887,0
          109.0171,14.39848,0
          109.01746,14.39776,0
          109.0176,14.39755,0
          109.01778,14.39723,0
          109.01824,14.39623,0
          109.01849,14.39579,0
          109.01879,14.39522,0
          109.01881,14.39519,0
          109.01966,14.3934,0
          109.01972,14.39329,0
          109.01977,14.39318,0
          109.0198,14.3931,0
          109.02006,14.39256,0
          109.02008,14.39253,0
          109.02123,14.3901,0
          109.02186,14.38887,0
          109.02198,14.38867,0
          109.02283,14.38705,0
          109.02351,14.38557,0
          109.02352,14.38556,0
          109.02418,14.3841,0
          109.02607,14.3804,0
          109.02617,14.38018,0
          109.0263,14.37995,0
          109.027,14.37856,0
          109.02767,14.3771,0
          109.02878,14.37485,0
          109.02893,14.37444,0
          109.029,14.37412,0
          109.02912,14.37315,0
          109.02911,14.37314,0
          109.02922,14.37254,0
          109.02929,14.37228,0
          109.02936,14.37208,0
          109.0295,14.37182,0
          109.02965,14.37161,0
          109.02993,14.37132,0
          109.03057,14.37084,0
          109.03086,14.37064,0
          109.03111,14.37045,0
          109.03141,14.37016,0
          109.03155,14.36996,0
          109.03198,14.36917,0
          109.03233,14.36842,0
          109.03321,14.36675,0
          109.03375,14.3659,0
          109.03408,14.36532,0
          109.03423,14.36508,0
          109.03448,14.36464,0
          109.03476,14.36419,0
          109.03577,14.36242,0
          109.03594,14.36214,0
          109.03653,14.36103,0
          109.0367,14.36065,0
          109.03689,14.36017,0
          109.03709,14.35954,0
          109.03724,14.35897,0
          109.03732,14.35862,0
          109.03777,14.35698,0
          109.03781,14.3568,0
          109.03785,14.35668,0
          109.03838,14.35469,0
          109.03849,14.35434,0
          109.03859,14.3541,0
          109.03869,14.35389,0
          109.03884,14.35364,0
          109.03896,14.35346,0
          109.03901,14.35341,0
          109.03916,14.35318,0
          109.0402,14.35184,0
          109.04045,14.35149,0
          109.04076,14.35111,0
          109.04143,14.35022,0
          109.04145,14.3502,0
          109.04218,14.34926,0
          109.04277,14.34846,0
          109.04402,14.34688,0
          109.04455,14.34618,0
          109.04542,14.34509,0
          109.04622,14.34405,0
          109.04645,14.34377,0
          109.0478,14.34201,0
          109.04792,14.34187,0
          109.05129,14.33746,0
          109.05186,14.33675,0
          109.05231,14.33616,0
          109.05233,14.33614,0
          109.0528,14.33556,0
          109.0535,14.3346,0
          109.05412,14.33381,0
          109.05538,14.33212,0
          109.05539,14.33211,0
          109.05724,14.32964,0
          109.05733,14.32951,0
          109.0574,14.32943,0
          109.05826,14.32828,0
          109.05838,14.3281,0
          109.05867,14.3277,0
          109.05912,14.32703,0
          109.05941,14.32663,0
          109.05984,14.32596,0
          109.06027,14.32537,0
          109.06054,14.32494,0
          109.06124,14.32392,0
          109.06436,14.31923,0
          109.06455,14.31897,0
          109.06475,14.31867,0
          109.06592,14.31707,0
          109.06802,14.31397,0
          109.06888,14.31274,0
          109.069,14.31258,0
          109.06966,14.31163,0
          109.06979,14.31146,0
          109.0702,14.31081,0
          109.07158,14.30877,0
          109.07166,14.30864,0
          109.07168,14.30862,0
          109.07287,14.3068,0
          109.07299,14.30663,0
          109.073,14.30661,0
          109.07349,14.30587,0
          109.07358,14.30575,0
          109.07588,14.30235,0
          109.07636,14.30161,0
          109.07652,14.30139,0
          109.07696,14.30068,0
          109.07761,14.29973,0
          109.07779,14.29943,0
          109.0779,14.29928,0
          109.07802,14.29907,0
          109.07817,14.29876,0
          109.07824,14.29853,0
          109.07827,14.29836,0
          109.0783,14.29807,0
          109.07833,14.29717,0
          109.07836,14.29076,0
          109.07837,14.29058,0
          109.07837,14.28986,0
          109.07838,14.28969,0
          109.07838,14.28897,0
          109.07845,14.28574,0
          109.07847,14.28533,0
          109.07847,14.28486,0
          109.07852,14.28266,0
          109.07853,14.28056,0
          109.07865,14.27359,0
          109.07869,14.27252,0
          109.07869,14.27195,0
          109.07872,14.27069,0
          109.07872,14.26982,0
          109.0788,14.26756,0
          109.0788,14.26693,0
          109.07881,14.26673,0
          109.0788,14.26347,0
          109.07884,14.2616,0
          109.07885,14.25912,0
          109.07882,14.2584,0
          109.07882,14.25822,0
          109.0788,14.25787,0
          109.07895,14.25485,0
          109.079,14.25249,0
          109.07898,14.25205,0
          109.07891,14.25149,0
          109.07887,14.25127,0
          109.07877,14.25091,0
          109.07828,14.24942,0
          109.07823,14.24918,0
          109.07795,14.2482,0
          109.07748,14.24673,0
          109.07744,14.24664,0
          109.07733,14.24633,0
          109.07707,14.24582,0
          109.07684,14.24547,0
          109.07647,14.24487,0
          109.07622,14.24453,0
          109.07609,14.24438,0
          109.07593,14.24423,0
          109.07556,14.24396,0
          109.07541,14.24386,0
          109.07526,14.24377,0
          109.07467,14.24348,0
          109.07399,14.24311,0
          109.07354,14.24285,0
          109.07336,14.24273,0
          109.07316,14.24257,0
          109.07294,14.24236,0
          109.07258,14.24194,0
          109.07234,14.24156,0
          109.07219,14.24125,0
          109.07215,14.24113,0
          109.07203,14.24069,0
          109.0718,14.23944,0
          109.07175,14.23908,0
          109.07165,14.23849,0
          109.07164,14.23837,0
          109.07143,14.23718,0
          109.07135,14.23665,0
          109.07107,14.23512,0
          109.07101,14.2347,0
          109.07098,14.23456,0
          109.07092,14.23414,0
          109.07085,14.23381,0
          109.07067,14.23271,0
          109.07063,14.23253,0
          109.07052,14.23178,0
          109.07018,14.23008,0
          109.07016,14.23002,0
          109.06978,14.22859,0
          109.06921,14.22669,0
          109.06902,14.22599,0
          109.06872,14.22473,0
          109.06864,14.22432,0
          109.06861,14.22406,0
          109.06853,14.22353,0
          109.06848,14.22308,0
          109.06832,14.22196,0
          109.06832,14.22191,0
          109.06831,14.22187,0
          109.06822,14.22114,0
          109.0681,14.22033,0
          109.06803,14.22005,0
          109.06797,14.21985,0
          109.06794,14.21978,0
          109.0679,14.21966,0
          109.06789,14.21961,0
          109.06786,14.21953,0
          109.06776,14.21934,0
          109.06761,14.219,0
          109.06733,14.21848,0
          109.06727,14.21835,0
          109.06725,14.21832,0
          109.06675,14.21739,0
          109.06647,14.21683,0
          109.06635,14.21661,0
          109.06633,14.21658,0
          109.06564,14.21526,0
          109.06551,14.21497,0
          109.06528,14.21479,0
          109.06515,14.21472,0
          109.06505,14.21468,0
          109.06494,14.21465,0
          109.06394,14.21464,0
          109.06381,14.21461,0
          109.06281,14.21459,0
          109.06245,14.21456,0
          109.06204,14.21449,0
          109.06172,14.21441,0
          109.06138,14.2143,0
          109.06104,14.21417,0
          109.05878,14.21314,0
          109.05841,14.21294,0
          109.0583,14.21287,0
          109.05788,14.21257,0
          109.05737,14.21216,0
          109.05702,14.21179,0
          109.05656,14.21119,0
          109.05619,14.21063,0
          109.05547,14.20939,0
          109.05205,14.20391,0
          109.05131,14.2028,0
          109.0513,14.2028,0
          109.05082,14.20223,0
          109.0502,14.20154,0
          109.04982,14.20114,0
          109.04928,14.20064,0
          109.04776,14.19894,0
          109.04702,14.19817,0
          109.04667,14.19773,0
          109.0465,14.19755,0
          109.04609,14.19717,0
          109.04542,14.19646,0
          109.04535,14.19636,0
          109.04518,14.1962,0
          109.0448,14.19571,0
          109.04443,14.19518,0
          109.04432,14.19496,0
          109.04411,14.19459,0
          109.0438,14.19396,0
          109.04352,14.19332,0
          109.04351,14.19331,0
          109.04347,14.1932,0
          109.04343,14.19311,0
          109.04339,14.193,0
          109.04321,14.19259,0
          109.043,14.19223,0
          109.04278,14.19173,0
          109.04244,14.19089,0
          109.04213,14.19023,0
          109.04209,14.19016,0
          109.04196,14.18989,0
          109.04171,14.18931,0
          109.04159,14.18896,0
          109.04154,14.18858,0
          109.04153,14.18855,0
          109.04147,14.18816,0
          109.04132,14.18774,0
          109.04133,14.18738,0
          109.04128,14.18703,0
          109.04127,14.18676,0
          109.04122,14.18633,0
          109.04122,14.18528,0
          109.04125,14.18499,0
          109.04122,14.18424,0
          109.04122,14.18333,0
          109.04117,14.18126,0
          109.04117,14.18025,0
          109.04115,14.17961,0
          109.04116,14.17943,0
          109.04115,14.17895,0
          109.04109,14.17795,0
          109.04108,14.1779,0
          109.04099,14.17687,0
          109.04083,14.17567,0
          109.04036,14.17168,0
          109.04036,14.17139,0
          109.04021,14.16994,0
          109.04018,14.16947,0
          109.04015,14.16673,0
          109.04017,14.1662,0
          109.04029,14.16435,0
          109.04032,14.16363,0
          109.04019,14.16121,0
          109.0401,14.16008,0
          109.04007,14.15909,0
          109.04009,14.15877,0
          109.04009,14.15866,0
          109.04014,14.15819,0
          109.0402,14.15782,0
          109.04024,14.15742,0
          109.04041,14.15705,0
          109.04052,14.15671,0
          109.04067,14.15634,0
          109.04086,14.15593,0
          109.04102,14.15565,0
          109.04133,14.15516,0
          109.04147,14.15496,0
          109.04165,14.15473,0
          109.04166,14.15471,0
          109.04185,14.15448,0
          109.04202,14.1543,0
          109.04281,14.15356,0
          109.04454,14.15226,0
          109.0446,14.15222,0
          109.0446,14.1522,0
          109.04465,14.15215,0
          109.04468,14.15213,0
          109.04475,14.15207,0
          109.04483,14.15201,0
          109.04488,14.15196,0
          109.04552,14.15147,0
          109.04568,14.1513,0
          109.04571,14.15126,0
          109.04576,14.15121,0
          109.04578,14.1512,0
          109.04581,14.1512,0
          109.04582,14.15111,0
          109.04584,14.15101,0
          109.04587,14.1508,0
          109.04598,14.1474,0
          109.04592,14.14451,0
          109.04592,14.14347,0
          109.04589,14.14278,0
          109.04589,14.14249,0
          109.04587,14.14189,0
          109.04588,14.14168,0
          109.04587,14.1411,0
          109.04586,14.14092,0
          109.04582,14.13695,0
          109.04581,14.13672,0
          109.0458,14.13487,0
          109.04583,14.13289,0
          109.04579,14.12905,0
          109.04576,14.1285,0
          109.04576,14.12832,0
          109.04572,14.12771,0
          109.04569,14.12742,0
          109.04568,14.12725,0
          109.04566,14.12713,0
          109.04566,14.12703,0
          109.04509,14.12262,0
          109.04506,14.12244,0
          109.04505,14.12233,0
          109.04494,14.12155,0
          109.04485,14.12101,0
          109.04478,14.12073,0
          109.04472,14.12039,0
          109.0445,14.11947,0
          109.04414,14.11811,0
          109.04414,14.11808,0
          109.04391,14.11721,0
          109.04379,14.1167,0
          109.04296,14.11374,0
          109.04294,14.11365,0
          109.04291,14.11356,0
          109.04234,14.11141,0
          109.04204,14.11019,0
          109.04203,14.11019,0
          109.04173,14.10895,0
          109.04168,14.10881,0
          109.04156,14.10839,0
          109.04148,14.10806,0
          109.04135,14.10744,0
          109.03892,14.09826,0
          109.03881,14.09789,0
          109.03857,14.09698,0
          109.03857,14.09697,0
          109.03814,14.09533,0
          109.03782,14.09388,0
          109.0377,14.09326,0
          109.03754,14.09256,0
          109.03747,14.09206,0
          109.03745,14.09176,0
          109.03745,14.09156,0
          109.03748,14.09115,0
          109.03769,14.09023,0
          109.0381,14.08878,0
          109.03833,14.08784,0
          109.03841,14.08756,0
          109.03861,14.08674,0
          109.03908,14.08514,0
          109.03946,14.08358,0
          109.04022,14.08086,0
          109.04039,14.08017,0
          109.04126,14.07712,0
          109.04256,14.07218,0
          109.04281,14.07092,0
          109.04289,14.07061,0
          109.04289,14.0706,0
          109.04329,14.06916,0
          109.04329,14.06915,0
          109.04475,14.0636,0
          109.04501,14.06253,0
          109.04517,14.06197,0
          109.04525,14.06181,0
          109.04546,14.06095,0
          109.04592,14.05924,0
          109.04614,14.05834,0
          109.04614,14.05831,0
          109.0463,14.05768,0
          109.04663,14.0559,0
          109.04673,14.05529,0
          109.04822,14.0473,0
          109.04823,14.0472,0
          109.04988,14.03806,0
          109.04992,14.03788,0
          109.05001,14.03735,0
          109.05039,14.03541,0
          109.05039,14.03538,0
          109.05042,14.03523,0
          109.05043,14.03521,0
          109.05261,14.02396,0
          109.05268,14.02354,0
          109.05373,14.01814,0
          109.05373,14.01813,0
          109.05399,14.01691,0
          109.05399,14.0169,0
          109.05401,14.01678,0
          109.05404,14.01666,0
          109.05429,14.01544,0
          109.05429,14.01543,0
          109.05449,14.01425,0
          109.05465,14.0136,0
          109.05467,14.01354,0
          109.0547,14.01347,0
          109.0547,14.01334,0
          109.05473,14.01324,0
          109.05476,14.01306,0
          109.05481,14.01283,0
          109.05481,14.01281,0
          109.05486,14.01259,0
          109.0549,14.01251,0
          109.05515,14.01123,0
          109.05533,14.01041,0
          109.05555,14.00924,0
          109.05567,14.0087,0
          109.05612,14.00644,0
          109.05624,14.00574,0
          109.05633,14.0051,0
          109.05639,14.0049,0
          109.05647,14.00448,0
          109.05671,14.00341,0
          109.05686,14.00249,0
          109.05761,13.99875,0
          109.05777,13.99782,0
          109.05783,13.99759,0
          109.05808,13.9964,0
          109.05823,13.99553,0
          109.05836,13.99489,0
          109.05854,13.99388,0
          109.05874,13.99297,0
          109.059,13.99165,0
          109.05902,13.99157,0
          109.05912,13.99103,0
          109.05946,13.98944,0
          109.05953,13.98897,0
          109.05988,13.98717,0
          109.0603,13.98523,0
          109.06032,13.98508,0
          109.06032,13.98506,0
          109.06036,13.98477,0
          109.06041,13.98456,0
          109.06049,13.98413,0
          109.06057,13.98383,0
          109.06063,13.98348,0
          109.06074,13.983,0
          109.06085,13.98243,0
          109.06092,13.98217,0
          109.06104,13.98163,0
          109.06108,13.98155,0
          109.0611,13.9815,0
          109.06114,13.98146,0
          109.06113,13.98109,0
          109.06115,13.98096,0
          109.06117,13.98074,0
          109.0613,13.98,0
          109.06154,13.97886,0
          109.06154,13.97885,0
          109.06155,13.97883,0
          109.06223,13.97558,0
          109.06244,13.97445,0
          109.06245,13.97442,0
          109.06266,13.97333,0
          109.06318,13.97033,0
          109.06347,13.9689,0
          109.06352,13.96859,0
          109.06364,13.96801,0
          109.06371,13.96777,0
          109.06381,13.96749,0
          109.0639,13.9673,0
          109.06429,13.96664,0
          109.06432,13.9666,0
          109.06467,13.96603,0
          109.06495,13.9656,0
          109.0657,13.9643,0
          109.06591,13.96401,0
          109.06634,13.96331,0
          109.06652,13.96299,0
          109.06716,13.96194,0
          109.06733,13.96168,0
          109.06741,13.96154,0
          109.06792,13.9608,0
          109.06897,13.95914,0
          109.06935,13.9584,0
          109.07161,13.95481,0
          109.0717,13.95468,0
          109.07235,13.9536,0
          109.07235,13.95359,0
          109.0745,13.9501,0
          109.07498,13.94929,0
          109.07513,13.94906,0
          109.07516,13.949,0
          109.07535,13.94874,0
          109.0754,13.94856,0
          109.07614,13.94742,0
          109.07711,13.94583,0
          109.07727,13.94552,0
          109.07736,13.94537,0
          109.07775,13.94463,0
          109.0797,13.94113,0
          109.07986,13.94087,0
          109.08077,13.93928,0
          109.081,13.93893,0
          109.08114,13.93883,0
          109.08131,13.93864,0
          109.08156,13.93858,0
          109.08171,13.93857,0
          109.08185,13.93857,0
          109.08198,13.93858,0
          109.08237,13.93863,0
          109.08244,13.93863,0
          109.08268,13.93867,0
          109.08273,13.93869,0
          109.08496,13.93889,0
          109.08565,13.93898,0
          109.08752,13.93916,0
          109.08782,13.93917,0
          109.08811,13.93916,0
          109.0883,13.93914,0
          109.0888,13.93902,0
          109.08928,13.93885,0
          109.08954,13.93871,0
          109.08984,13.93853,0
          109.0901,13.93833,0
          109.09012,13.93832,0
          109.0975,13.93145,0
          109.09839,13.93059,0
          109.09899,13.93005,0
          109.09906,13.92997,0
          109.09982,13.9293,0
          109.10191,13.92731,0
          109.1022,13.92705,0
          109.10383,13.92551,0
          109.10394,13.92542,0
          109.10756,13.92205,0
          109.10786,13.92179,0
          109.1095,13.92027,0
          109.10965,13.92012,0
          109.10988,13.91986,0
          109.11004,13.9197,0
          109.11049,13.91917,0
          109.11246,13.91649,0
          109.11323,13.9154,0
          109.11342,13.9151,0
          109.11394,13.9144,0
          109.11396,13.91436,0
          109.11512,13.91273,0
          109.11513,13.91272,0
          109.11534,13.91242,0
          109.1159,13.91167,0
          109.11625,13.91117,0
          109.11651,13.91082,0
          109.11661,13.91067,0
          109.11703,13.91014,0
          109.11769,13.90918,0
          109.11809,13.9085,0
          109.11828,13.90809,0
          109.11843,13.90768,0
          109.11853,13.90733,0
          109.1186,13.90695,0
          109.11882,13.90553,0
          109.11889,13.90496,0
          109.11892,13.9046,0
          109.11912,13.90333,0
          109.11924,13.90228,0
          109.11967,13.89904,0
          109.11996,13.89731,0
          109.11996,13.89728,0
          109.12034,13.89512,0
          109.12033,13.89492,0
          109.12036,13.89469,0
          109.12121,13.88981,0
          109.12126,13.88957,0
          109.12126,13.88955,0
          109.12132,13.88921,0
          109.12137,13.88885,0
          109.12146,13.88838,0
          109.12156,13.88796,0
          109.12173,13.88739,0
          109.12181,13.88706,0
          109.12235,13.88564,0
          109.12235,13.88555,0
          109.12239,13.88544,0
          109.1224,13.88538,0
          109.12263,13.88455,0
          109.12269,13.88442,0
          109.12262,13.88435,0
          109.1226,13.88432,0
          109.1226,13.88422,0
          109.12262,13.88419,0
          109.12266,13.88415,0
          109.12269,13.88413,0
          109.12272,13.88412,0
          109.12279,13.88412,0
          109.12283,13.88399,0
          109.12294,13.88378,0
          109.12312,13.88326,0
          109.12319,13.88298,0
          109.12327,13.88274,0
          109.12346,13.88202,0
          109.12365,13.88117,0
          109.12385,13.88047,0
          109.12427,13.87856,0
          109.12445,13.87735,0
          109.12449,13.87719,0
          109.12451,13.87705,0
          109.1245,13.8763,0
          109.12446,13.87578,0
          109.12442,13.87553,0
          109.12441,13.87508,0
          109.12431,13.87403,0
          109.1243,13.87348,0
          109.12429,13.87335,0
          109.12432,13.87311,0
          109.12432,13.87297,0
          109.12435,13.87288,0
          109.12451,13.87254,0
          109.1253,13.87137,0
          109.12638,13.87008,0
          109.12761,13.86851,0
          109.12785,13.86826,0
          109.12797,13.86816,0
          109.12798,13.86816,0
          109.12818,13.868,0
          109.12879,13.86768,0
          109.12911,13.86749,0
          109.12916,13.86745,0
          109.12926,13.8674,0
          109.12937,13.86728,0
          109.12952,13.86703,0
          109.12972,13.8666,0
          109.13023,13.86526,0
          109.13026,13.8652,0
          109.13029,13.86516,0
          109.13033,13.86507,0
          109.1313,13.86256,0
          109.13256,13.85917,0
          109.1333,13.85693,0
          109.13369,13.85582,0
          109.13452,13.8537,0
          109.13458,13.85352,0
          109.13464,13.85338,0
          109.13464,13.85337,0
          109.13485,13.85287,0
          109.13502,13.85236,0
          109.1356,13.85077,0
          109.13605,13.84946,0
          109.1364,13.84861,0
          109.13788,13.84449,0
          109.13823,13.84362,0
          109.13909,13.84124,0
          109.13978,13.83941,0
          109.13978,13.8394,0
          109.13984,13.8392,0
          109.14084,13.83664,0
          109.141,13.83617,0
          109.14101,13.83616,0
          109.14103,13.83609,0
          109.14263,13.83198,0
          109.14267,13.83191,0
          109.14278,13.83164,0
          109.14284,13.83147,0
          109.14285,13.83143,0
          109.14309,13.8308,0
          109.14314,13.83063,0
          109.1432,13.83046,0
          109.14363,13.82896,0
          109.14391,13.82805,0
          109.1443,13.82666,0
          109.14526,13.82344,0
          109.14552,13.82263,0
          109.14571,13.8218,0
          109.14591,13.82109,0
          109.14595,13.82091,0
          109.14618,13.82013,0
          109.14622,13.81993,0
          109.14625,13.81982,0
          109.14635,13.81985,0
          109.14606,13.82086,0
          109.1459,13.82151,0
          109.14584,13.82171,0
          109.14582,13.82181,0
          109.1456,13.82264,0
          109.14437,13.82668,0
          109.14409,13.82777,0
          109.14372,13.82895,0
          109.14339,13.83016,0
          109.14319,13.83074,0
        </coordinates>
      </LineString>
    </Placemark>
    <Placemark>
      <name>15.255450 108.749570</name>
      <styleUrl>#icon-1899-DB4436-nodesc</styleUrl>
      <Point>
        <coordinates>
          108.7496035,15.2558831,0
        </coordinates>
      </Point>
    </Placemark>
    <Placemark>
      <name>13.830800 109.143090</name>
      <styleUrl>#icon-1899-DB4436-nodesc</styleUrl>
      <Point>
        <coordinates>
          109.1431927,13.8307428,0
        </coordinates>
      </Point>
    </Placemark>
  </Document>
</kml>
