<?xml version="1.0" encoding="UTF-8"?>
<kml xmlns="http://www.opengis.net/kml/2.2">
  <Document>
    <name>hcm</name>
    <Style id="icon-1899-DB4436-nodesc-normal">
      <IconStyle>
        <color>ff3644db</color>
        <scale>1</scale>
        <Icon>
          <href>https://www.gstatic.com/mapspro/images/stock/503-wht-blank_maps.png</href>
        </Icon>
        <hotSpot x="32" xunits="pixels" y="64" yunits="insetPixels"/>
      </IconStyle>
      <LabelStyle>
        <scale>0</scale>
      </LabelStyle>
      <BalloonStyle>
        <text><![CDATA[<h3>$[name]</h3>]]></text>
      </BalloonStyle>
    </Style>
    <Style id="icon-1899-DB4436-nodesc-highlight">
      <IconStyle>
        <color>ff3644db</color>
        <scale>1</scale>
        <Icon>
          <href>https://www.gstatic.com/mapspro/images/stock/503-wht-blank_maps.png</href>
        </Icon>
        <hotSpot x="32" xunits="pixels" y="64" yunits="insetPixels"/>
      </IconStyle>
      <LabelStyle>
        <scale>1</scale>
      </LabelStyle>
      <BalloonStyle>
        <text><![CDATA[<h3>$[name]</h3>]]></text>
      </BalloonStyle>
    </Style>
    <StyleMap id="icon-1899-DB4436-nodesc">
      <Pair>
        <key>normal</key>
        <styleUrl>#icon-1899-DB4436-nodesc-normal</styleUrl>
      </Pair>
      <Pair>
        <key>highlight</key>
        <styleUrl>#icon-1899-DB4436-nodesc-highlight</styleUrl>
      </Pair>
    </StyleMap>
    <Style id="line-1267FF-5000-nodesc-normal">
      <LineStyle>
        <color>ffff6712</color>
        <width>5</width>
      </LineStyle>
      <BalloonStyle>
        <text><![CDATA[<h3>$[name]</h3>]]></text>
      </BalloonStyle>
    </Style>
    <Style id="line-1267FF-5000-nodesc-highlight">
      <LineStyle>
        <color>ffff6712</color>
        <width>7.5</width>
      </LineStyle>
      <BalloonStyle>
        <text><![CDATA[<h3>$[name]</h3>]]></text>
      </BalloonStyle>
    </Style>
    <StyleMap id="line-1267FF-5000-nodesc">
      <Pair>
        <key>normal</key>
        <styleUrl>#line-1267FF-5000-nodesc-normal</styleUrl>
      </Pair>
      <Pair>
        <key>highlight</key>
        <styleUrl>#line-1267FF-5000-nodesc-highlight</styleUrl>
      </Pair>
    </StyleMap>
    <Placemark>
      <name>hcm</name>
      <styleUrl>#line-1267FF-5000-nodesc</styleUrl>
      <LineString>
        <tessellate>1</tessellate>
        <coordinates>
          106.82711,10.91196,0
          106.82727,10.91204,0
          106.82729,10.91204,0
          106.8273,10.91203,0
          106.82733,10.91202,0
          106.82735,10.912,0
          106.82738,10.91198,0
          106.82742,10.91194,0
          106.82747,10.91194,0
          106.82773,10.91209,0
          106.82786,10.91215,0
          106.82804,10.9117,0
          106.82816,10.91134,0
          106.82836,10.91088,0
          106.82846,10.91059,0
          106.82847,10.91058,0
          106.82873,10.9099,0
          106.82873,10.90989,0
          106.82876,10.90983,0
          106.82943,10.90811,0
          106.82943,10.9081,0
          106.82976,10.90722,0
          106.82976,10.90721,0
          106.83002,10.9065,0
          106.83011,10.90629,0
          106.83015,10.90625,0
          106.83018,10.90621,0
          106.8303,10.90611,0
          106.8311,10.90552,0
          106.83118,10.90547,0
          106.83133,10.90536,0
          106.83135,10.90535,0
          106.83148,10.90521,0
          106.83148,10.9052,0
          106.83151,10.90517,0
          106.83155,10.90511,0
          106.83157,10.90507,0
          106.83172,10.90456,0
          106.83182,10.90411,0
          106.83184,10.90394,0
          106.83184,10.90384,0
          106.83185,10.90374,0
          106.83185,10.90356,0
          106.83184,10.9035,0
          106.83185,10.90344,0
          106.83185,10.90334,0
          106.83184,10.90323,0
          106.83183,10.90267,0
          106.83182,10.90263,0
          106.83172,10.90078,0
          106.83167,10.9005,0
          106.83159,10.90019,0
          106.83151,10.89981,0
          106.83139,10.89933,0
          106.83136,10.89929,0
          106.83131,10.89919,0
          106.83123,10.89909,0
          106.83112,10.89897,0
          106.83102,10.89889,0
          106.83093,10.89884,0
          106.83087,10.89878,0
          106.83085,10.89877,0
          106.83084,10.89874,0
          106.83084,10.89871,0
          106.83004,10.89848,0
          106.82997,10.89845,0
          106.82897,10.8981,0
          106.82871,10.89803,0
          106.8286,10.89799,0
          106.82842,10.89795,0
          106.82838,10.89795,0
          106.82835,10.89794,0
          106.82818,10.89794,0
          106.82809,10.89795,0
          106.82798,10.89797,0
          106.82784,10.89801,0
          106.82762,10.89806,0
          106.82656,10.89836,0
          106.82644,10.8984,0
          106.82606,10.89877,0
          106.826,10.8988,0
          106.82593,10.8988,0
          106.8259,10.89879,0
          106.82588,10.89877,0
          106.82585,10.89875,0
          106.82578,10.89864,0
          106.82574,10.89852,0
          106.82619,10.89834,0
          106.82751,10.89797,0
          106.82767,10.89785,0
          106.82772,10.89774,0
          106.82773,10.89768,0
          106.82773,10.89762,0
          106.82772,10.89758,0
          106.82771,10.89751,0
          106.82767,10.89746,0
          106.82756,10.89735,0
          106.82748,10.89729,0
          106.82746,10.89728,0
          106.82738,10.89721,0
          106.82726,10.89713,0
          106.82719,10.89705,0
          106.82709,10.89695,0
          106.82652,10.89654,0
          106.82646,10.89648,0
          106.82572,10.8959,0
          106.8254,10.89562,0
          106.82489,10.89514,0
          106.82448,10.8947,0
          106.82429,10.89448,0
          106.82316,10.89298,0
          106.82293,10.89265,0
          106.82292,10.89263,0
          106.821,10.89001,0
          106.82088,10.88986,0
          106.82069,10.88959,0
          106.82057,10.88944,0
          106.82055,10.88938,0
          106.82019,10.88887,0
          106.81957,10.88805,0
          106.81825,10.88623,0
          106.8178,10.88566,0
          106.81649,10.88388,0
          106.81637,10.8837,0
          106.81596,10.88315,0
          106.8159,10.88308,0
          106.81589,10.88306,0
          106.81521,10.88213,0
          106.8152,10.88211,0
          106.81284,10.87895,0
          106.81276,10.87883,0
          106.81221,10.87814,0
          106.81066,10.87611,0
          106.80998,10.87514,0
          106.80979,10.8749,0
          106.80873,10.87339,0
          106.80683,10.87082,0
          106.80583,10.86956,0
          106.80539,10.86911,0
          106.80453,10.8683,0
          106.80397,10.86783,0
          106.80365,10.86758,0
          106.80363,10.86756,0
          106.80337,10.86736,0
          106.80324,10.86729,0
          106.80286,10.86702,0
          106.80281,10.86699,0
          106.80269,10.8669,0
          106.80143,10.86615,0
          106.80091,10.86586,0
          106.79871,10.86455,0
          106.79868,10.86454,0
          106.79481,10.86229,0
          106.79467,10.86219,0
          106.79428,10.86195,0
          106.79398,10.86175,0
          106.79383,10.86166,0
          106.79359,10.8615,0
          106.79352,10.86146,0
          106.79348,10.86143,0
          106.79337,10.86137,0
          106.79303,10.86116,0
          106.79216,10.86067,0
          106.79201,10.86057,0
          106.79093,10.85996,0
          106.78897,10.85877,0
          106.78792,10.85817,0
          106.78776,10.85806,0
          106.78788,10.85788,0
          106.78855,10.85677,0
          106.78901,10.85597,0
          106.78924,10.85563,0
          106.78939,10.85548,0
          106.78956,10.85534,0
          106.78974,10.85524,0
          106.78987,10.85519,0
          106.79032,10.85505,0
          106.79351,10.85419,0
          106.79391,10.8541,0
          106.7956,10.85363,0
          106.79593,10.85351,0
          106.79614,10.8534,0
          106.79634,10.85328,0
          106.79653,10.85312,0
          106.79672,10.85293,0
          106.79787,10.85188,0
          106.79792,10.85182,0
          106.79809,10.85166,0
          106.79814,10.85162,0
          106.80245,10.84748,0
          106.80247,10.84747,0
          106.80273,10.84721,0
          106.80319,10.84678,0
          106.80329,10.8467,0
          106.80332,10.84666,0
          106.80383,10.84616,0
          106.80384,10.84616,0
          106.80422,10.84578,0
          106.80506,10.84499,0
          106.80506,10.84494,0
          106.80508,10.84492,0
          106.80509,10.8449,0
          106.80673,10.84333,0
          106.80674,10.84333,0
          106.80681,10.84331,0
          106.80685,10.84328,0
          106.80703,10.8431,0
          106.80705,10.84309,0
          106.8073,10.84285,0
          106.80742,10.84272,0
          106.80748,10.84267,0
          106.80753,10.84262,0
          106.80756,10.84261,0
          106.80757,10.84261,0
          106.80835,10.84186,0
          106.80841,10.84181,0
          106.80842,10.84179,0
          106.80846,10.84173,0
          106.80902,10.8412,0
          106.80905,10.84118,0
          106.80906,10.84118,0
          106.8095,10.84076,0
          106.8095,10.84075,0
          106.80951,10.84072,0
          106.81001,10.84025,0
          106.81007,10.84022,0
          106.81086,10.83947,0
          106.81085,10.83939,0
          106.81087,10.83933,0
          106.81088,10.83928,0
          106.81089,10.83868,0
          106.8109,10.83859,0
          106.8109,10.8385,0
          106.80972,10.83727,0
          106.80938,10.83688,0
          106.80881,10.83616,0
          106.80879,10.83615,0
          106.80878,10.83614,0
          106.80775,10.8348,0
          106.80734,10.83415,0
          106.80727,10.83409,0
          106.80661,10.83309,0
          106.80659,10.83307,0
          106.80643,10.83281,0
          106.80555,10.83148,0
          106.80532,10.83117,0
          106.80524,10.83109,0
          106.80505,10.83085,0
          106.80438,10.83011,0
          106.80427,10.83,0
          106.80352,10.82938,0
          106.80189,10.8282,0
          106.80176,10.82812,0
          106.80128,10.82776,0
          106.80122,10.8277,0
          106.80056,10.82724,0
          106.80054,10.82723,0
          106.79693,10.82457,0
          106.79677,10.82447,0
          106.79536,10.82345,0
          106.79518,10.82333,0
          106.79513,10.82334,0
          106.7951,10.82333,0
          106.79506,10.82331,0
          106.79487,10.82317,0
          106.79486,10.82315,0
          106.79486,10.82309,0
          106.79462,10.8229,0
          106.79444,10.82277,0
          106.79432,10.8227,0
          106.79282,10.8216,0
          106.79271,10.82153,0
          106.79252,10.82139,0
          106.79246,10.82139,0
          106.79242,10.82138,0
          106.79237,10.82135,0
          106.79151,10.82073,0
          106.79137,10.82064,0
          106.79127,10.82056,0
          106.79113,10.82047,0
          106.79103,10.82039,0
          106.79091,10.82024,0
          106.79087,10.82013,0
          106.79084,10.82007,0
          106.79078,10.81988,0
          106.79076,10.81976,0
          106.79076,10.81967,0
          106.79075,10.81961,0
          106.79079,10.81946,0
          106.7908,10.8194,0
          106.79083,10.81932,0
          106.7911,10.81885,0
          106.79119,10.81852,0
          106.79126,10.81818,0
          106.79173,10.8149,0
          106.79173,10.81488,0
          106.79191,10.81357,0
          106.79193,10.81349,0
          106.79195,10.81316,0
          106.79197,10.81302,0
          106.79193,10.81149,0
          106.79198,10.80939,0
          106.79197,10.80932,0
          106.79199,10.80894,0
          106.79206,10.80522,0
          106.79209,10.80488,0
          106.79207,10.80486,0
          106.79206,10.80484,0
          106.79204,10.80483,0
          106.79203,10.80481,0
          106.79203,10.80479,0
          106.79202,10.80476,0
          106.79202,10.80474,0
          106.79201,10.80472,0
          106.79201,10.80469,0
          106.79202,10.80467,0
          106.79202,10.80465,0
          106.79203,10.80464,0
          106.79203,10.80463,0
          106.79205,10.80459,0
          106.79207,10.80457,0
          106.79207,10.80404,0
          106.79208,10.80396,0
          106.79208,10.8031,0
          106.79217,10.80005,0
          106.79226,10.7947,0
          106.79229,10.79419,0
          106.79228,10.79402,0
          106.7923,10.79282,0
          106.79233,10.79236,0
          106.79233,10.7919,0
          106.79234,10.79168,0
          106.79233,10.7912,0
          106.79229,10.79116,0
          106.79228,10.79114,0
          106.79227,10.79113,0
          106.79225,10.79107,0
          106.79225,10.79094,0
          106.79226,10.79091,0
          106.79227,10.79089,0
          106.79227,10.79088,0
          106.79229,10.79085,0
          106.79231,10.79083,0
          106.79233,10.7908,0
          106.79235,10.79079,0
          106.79237,10.79077,0
          106.79243,10.79073,0
          106.79249,10.79071,0
          106.79253,10.79071,0
          106.79256,10.7907,0
          106.79259,10.79071,0
          106.79262,10.79071,0
          106.79269,10.79073,0
          106.79272,10.79075,0
          106.79274,10.79077,0
          106.79277,10.79079,0
          106.79279,10.79081,0
          106.7928,10.79084,0
          106.79282,10.79086,0
          106.79282,10.79088,0
          106.79283,10.79091,0
          106.79283,10.79093,0
          106.79284,10.79094,0
          106.79284,10.79104,0
          106.79281,10.79113,0
          106.79279,10.79115,0
          106.79277,10.79118,0
          106.79275,10.7912,0
          106.79274,10.79147,0
          106.79273,10.79152,0
          106.79271,10.79215,0
          106.79272,10.79251,0
          106.79275,10.79255,0
          106.79287,10.79281,0
          106.7929,10.7929,0
          106.79295,10.79298,0
          106.79301,10.79305,0
          106.79307,10.79309,0
          106.79321,10.79316,0
          106.79334,10.7932,0
          106.7935,10.79322,0
          106.79418,10.79324,0
          106.79435,10.7933,0
          106.79456,10.79343,0
          106.79463,10.79344,0
          106.79473,10.79352,0
          106.79485,10.79365,0
          106.79527,10.79406,0
          106.79541,10.79422,0
          106.79583,10.79461,0
          106.79598,10.79472,0
          106.79604,10.79474,0
          106.79605,10.79475,0
          106.79612,10.79476,0
          106.79633,10.79488,0
          106.79642,10.7949,0
          106.7965,10.79493,0
          106.79657,10.79494,0
          106.79664,10.79496,0
          106.79674,10.79497,0
          106.79683,10.79499,0
          106.79717,10.79501,0
          106.79869,10.79481,0
          106.79972,10.79464,0
          106.80303,10.79422,0
          106.80308,10.79423,0
          106.80314,10.79425,0
          106.80316,10.79427,0
          106.80707,10.79359,0
          106.80714,10.79357,0
          106.81666,10.79194,0
          106.81669,10.79193,0
          106.82292,10.79089,0
          106.82685,10.79012,0
          106.84421,10.78647,0
          106.84649,10.7861,0
          106.84669,10.78608,0
          106.84703,10.78603,0
          106.84923,10.78585,0
          106.84967,10.78583,0
          106.84985,10.78583,0
          106.85081,10.78578,0
          106.85301,10.78578,0
          106.85326,10.7858,0
          106.85564,10.78589,0
          106.85572,10.7859,0
          106.86163,10.78608,0
          106.86209,10.78608,0
          106.86685,10.78625,0
          106.87179,10.78649,0
          106.87197,10.78649,0
          106.87482,10.78662,0
          106.875,10.78662,0
          106.8757,10.78666,0
          106.87729,10.78669,0
          106.87925,10.78664,0
          106.88068,10.78665,0
          106.88437,10.78676,0
          106.8863,10.78677,0
          106.88814,10.78669,0
          106.89008,10.78651,0
          106.89116,10.78637,0
          106.89377,10.78591,0
          106.89379,10.78591,0
          106.89938,10.78482,0
          106.8998,10.78475,0
          106.90108,10.7845,0
          106.90301,10.78405,0
          106.90438,10.78367,0
          106.9051,10.78345,0
          106.90663,10.78293,0
          106.90688,10.78283,0
          106.90722,10.78271,0
          106.90973,10.78166,0
          106.9198,10.77727,0
          106.92031,10.77703,0
          106.9208,10.77682,0
          106.92204,10.77608,0
          106.92238,10.77589,0
          106.92286,10.77566,0
          106.92356,10.77536,0
          106.92395,10.77513,0
          106.92414,10.775,0
          106.92429,10.77487,0
          106.92448,10.77468,0
          106.92467,10.77443,0
          106.92484,10.77413,0
          106.92493,10.77385,0
          106.92494,10.77383,0
          106.92499,10.77357,0
          106.92505,10.77312,0
          106.92506,10.7731,0
          106.92518,10.77185,0
          106.92518,10.77147,0
          106.92517,10.77136,0
          106.92517,10.77132,0
          106.92514,10.77109,0
          106.92511,10.77097,0
          106.92511,10.77096,0
          106.925,10.77065,0
          106.92491,10.77046,0
          106.92482,10.7703,0
          106.92481,10.77027,0
          106.92472,10.77015,0
          106.9247,10.77011,0
          106.92456,10.76993,0
          106.92424,10.76961,0
          106.92422,10.7696,0
          106.92397,10.7694,0
          106.92387,10.7693,0
          106.92377,10.76917,0
          106.92337,10.76899,0
          106.92334,10.76897,0
          106.92322,10.76895,0
          106.92312,10.76892,0
          106.92235,10.76859,0
          106.92234,10.76859,0
          106.92234,10.7686,0
          106.92229,10.7686,0
          106.92229,10.76859,0
          106.92227,10.76859,0
          106.92226,10.76858,0
          106.92225,10.76858,0
          106.92225,10.76857,0
          106.92224,10.76857,0
          106.92223,10.76856,0
          106.92223,10.76855,0
          106.92222,10.76855,0
          106.92222,10.76854,0
          106.92221,10.76853,0
          106.92221,10.76851,0
          106.9222,10.7685,0
          106.9222,10.76847,0
          106.92221,10.76846,0
          106.92221,10.76844,0
          106.92222,10.76843,0
          106.92222,10.76842,0
          106.92223,10.76842,0
          106.92223,10.76841,0
          106.92224,10.76841,0
          106.92224,10.7684,0
          106.92225,10.7684,0
          106.92225,10.76839,0
          106.92226,10.76839,0
          106.92227,10.76838,0
          106.92237,10.76806,0
          106.92301,10.76225,0
          106.92302,10.76209,0
          106.92325,10.75997,0
          106.92326,10.75979,0
          106.9233,10.75943,0
          106.92335,10.75833,0
          106.92342,10.75757,0
          106.92341,10.75757,0
          106.9234,10.75756,0
          106.92339,10.75756,0
          106.92338,10.75755,0
          106.92337,10.75755,0
          106.92337,10.75754,0
          106.92336,10.75754,0
          106.92336,10.75753,0
          106.92335,10.75753,0
          106.92335,10.75752,0
          106.92334,10.75751,0
          106.92327,10.75749,0
          106.92312,10.75739,0
          106.92274,10.75728,0
          106.92221,10.75709,0
          106.92209,10.75702,0
          106.92208,10.75701,0
          106.92198,10.75696,0
          106.92181,10.75683,0
          106.92141,10.75649,0
          106.92106,10.75624,0
          106.92089,10.75614,0
          106.92076,10.75608,0
          106.92075,10.75608,0
          106.92054,10.756,0
          106.9205,10.75598,0
          106.91984,10.75577,0
          106.9198,10.75575,0
          106.91923,10.75556,0
          106.91921,10.75556,0
          106.91904,10.75551,0
          106.9188,10.75546,0
          106.91833,10.75546,0
          106.91809,10.7555,0
          106.91799,10.75551,0
          106.91745,10.75562,0
          106.91743,10.75563,0
          106.91724,10.75568,0
          106.91678,10.75575,0
          106.91646,10.75578,0
          106.91637,10.75578,0
          106.91624,10.75577,0
          106.91614,10.75577,0
          106.9159,10.75572,0
          106.91583,10.7557,0
          106.91573,10.75566,0
          106.91557,10.75558,0
          106.91549,10.75552,0
          106.9154,10.75547,0
          106.91526,10.75537,0
          106.91499,10.75504,0
          106.91475,10.75481,0
          106.91464,10.75472,0
          106.91454,10.75462,0
          106.91438,10.75443,0
          106.91414,10.75417,0
          106.91404,10.7541,0
          106.91403,10.75409,0
          106.91387,10.75398,0
          106.91377,10.75392,0
          106.91342,10.75377,0
          106.91313,10.75368,0
          106.91304,10.75367,0
          106.91298,10.75365,0
          106.91277,10.75363,0
          106.91252,10.75356,0
          106.91139,10.75331,0
          106.9107,10.75312,0
          106.91062,10.75308,0
          106.91041,10.75301,0
          106.91017,10.75287,0
          106.91004,10.75278,0
          106.9099,10.75267,0
          106.90987,10.75266,0
          106.90973,10.7525,0
          106.90966,10.75243,0
          106.90959,10.75234,0
          106.90956,10.75229,0
          106.90953,10.75226,0
          106.90951,10.75223,0
          106.9093,10.75197,0
          106.90928,10.75194,0
          106.90925,10.75191,0
          106.90835,10.75086,0
          106.90815,10.7506,0
          106.90733,10.74961,0
          106.90723,10.74951,0
          106.90691,10.74915,0
          106.90658,10.74873,0
          106.9063,10.74845,0
          106.90618,10.74828,0
          106.90603,10.74811,0
          106.90555,10.74763,0
          106.90482,10.74686,0
          106.90466,10.74666,0
          106.90383,10.74542,0
          106.90379,10.74538,0
          106.90377,10.74535,0
          106.90365,10.74521,0
          106.90351,10.74509,0
          106.90336,10.74498,0
          106.90329,10.74494,0
          106.90307,10.74485,0
          106.90301,10.74482,0
          106.90295,10.74481,0
          106.90289,10.74479,0
          106.90206,10.74458,0
          106.90204,10.74457,0
          106.90172,10.74451,0
          106.90133,10.74438,0
          106.90123,10.74434,0
          106.90118,10.74431,0
          106.90117,10.74431,0
          106.90104,10.74424,0
          106.90097,10.74418,0
          106.90086,10.7441,0
          106.90076,10.744,0
          106.90075,10.744,0
          106.90046,10.74369,0
          106.89975,10.74299,0
          106.89955,10.74274,0
          106.89927,10.74247,0
          106.89884,10.74202,0
          106.89866,10.74187,0
          106.89839,10.74159,0
          106.8983,10.74151,0
          106.89823,10.74143,0
          106.89808,10.7413,0
          106.89788,10.7412,0
          106.89755,10.74107,0
          106.89736,10.74102,0
          106.89711,10.74097,0
          106.89689,10.74091,0
          106.89684,10.74089,0
          106.89614,10.74074,0
          106.89608,10.74074,0
          106.89597,10.74076,0
          106.8959,10.7407,0
          106.89585,10.74067,0
          106.89528,10.74048,0
          106.89519,10.74043,0
          106.8951,10.74036,0
          106.89425,10.73952,0
          106.89357,10.7389,0
          106.89325,10.73855,0
          106.8931,10.7384,0
          106.89304,10.73836,0
          106.89292,10.73832,0
          106.89268,10.73828,0
          106.89229,10.73825,0
          106.89205,10.73822,0
          106.892,10.73822,0
          106.89196,10.73821,0
          106.89189,10.7382,0
          106.89186,10.73818,0
          106.89182,10.73816,0
          106.89179,10.73814,0
          106.89173,10.73809,0
          106.89162,10.73797,0
          106.89155,10.73787,0
          106.89142,10.73773,0
          106.89138,10.73768,0
          106.89131,10.73763,0
          106.89129,10.73762,0
          106.89129,10.73761,0
          106.89097,10.73742,0
          106.89075,10.73727,0
          106.89075,10.73726,0
          106.89059,10.73715,0
          106.89057,10.73714,0
          106.89022,10.73689,0
          106.8902,10.73687,0
          106.88979,10.73657,0
          106.88955,10.73641,0
          106.8893,10.73627,0
          106.88922,10.73624,0
          106.88887,10.73614,0
          106.88613,10.73552,0
          106.88595,10.73545,0
          106.88571,10.73537,0
          106.88555,10.73532,0
          106.88545,10.73525,0
          106.88543,10.73523,0
          106.88225,10.73296,0
          106.8842,10.72471,0
          106.8842,10.72469,0
          106.88422,10.72465,0
          106.88424,10.72453,0
          106.88423,10.72432,0
          106.88421,10.72425,0
          106.88414,10.72418,0
          106.88413,10.72416,0
          106.88412,10.72413,0
          106.8841,10.72411,0
          106.88408,10.72405,0
          106.88408,10.72402,0
          106.88407,10.72398,0
          106.88407,10.72391,0
          106.88411,10.72378,0
          106.88413,10.72376,0
          106.88417,10.7237,0
          106.8842,10.72367,0
          106.88422,10.72366,0
          106.88426,10.72362,0
          106.88428,10.72361,0
          106.88429,10.72361,0
          106.88431,10.7236,0
          106.88432,10.7236,0
          106.88434,10.72359,0
          106.88436,10.72359,0
          106.88443,10.72352,0
          106.88446,10.72347,0
          106.8845,10.72336,0
          106.88506,10.72103,0
          106.88512,10.72084,0
          106.88536,10.71982,0
          106.88536,10.71981,0
          106.88578,10.71803,0
          106.8858,10.71798,0
          106.88609,10.71672,0
          106.88617,10.71642,0
          106.88726,10.7118,0
          106.88738,10.71134,0
          106.88763,10.71017,0
          106.88803,10.70855,0
          106.88809,10.70824,0
          106.88864,10.70592,0
          106.88869,10.70564,0
          106.88901,10.70441,0
          106.89096,10.69608,0
          106.89103,10.69572,0
          106.89105,10.69555,0
          106.89106,10.6951,0
          106.89103,10.69484,0
          106.89097,10.6945,0
          106.89085,10.69414,0
          106.89053,10.69329,0
          106.89052,10.69328,0
          106.88935,10.69006,0
          106.88932,10.68999,0
          106.88929,10.68989,0
          106.88863,10.68813,0
          106.8886,10.68803,0
          106.88724,10.68435,0
          106.88722,10.68431,0
          106.88667,10.68281,0
          106.88663,10.68272,0
          106.88429,10.67643,0
          106.88445,10.67644,0
          106.88493,10.67642,0
          106.88493,10.6755,0
          106.88492,10.6754,0
          106.88493,10.67452,0
          106.88494,10.6745,0
          106.88494,10.67448,0
          106.88498,10.67442,0
          106.885,10.6744,0
          106.88501,10.67437,0
          106.88503,10.67428,0
          106.88503,10.67304,0
          106.88504,10.67277,0
          106.88505,10.6703,0
          106.88506,10.67017,0
          106.88502,10.66984,0
          106.88501,10.66979,0
          106.88502,10.66974,0
          106.8856,10.6695,0
          106.88637,10.66922,0
          106.88708,10.66901,0
          106.88812,10.66866,0
          106.88817,10.66865,0
        </coordinates>
      </LineString>
    </Placemark>
    <Placemark>
      <name>10.911800, 106.827200</name>
      <styleUrl>#icon-1899-DB4436-nodesc</styleUrl>
      <Point>
        <coordinates>
          106.82711,10.9119557,0
        </coordinates>
      </Point>
    </Placemark>
    <Placemark>
      <name>10.669900, 106.888600</name>
      <styleUrl>#icon-1899-DB4436-nodesc</styleUrl>
      <Point>
        <coordinates>
          106.8881722,10.6686461,0
        </coordinates>
      </Point>
    </Placemark>
  </Document>
</kml>
