<kml xmlns="http://www.opengis.net/kml/2.2"><Document>
<Placemark>

  <LineString><coordinates>106.28268,18.07166
106.28362,18.0721
106.28477,18.07264
106.28662,18.07385
106.28702,18.07412
106.28745,18.0744
106.28781,18.07464
106.28784,18.07465
106.28825,18.07484
106.28869,18.07505
106.28914,18.07527
106.28934,18.07532
106.28953,18.07533
106.28967,18.07528
106.28979,18.0752
106.28996,18.07491
106.29015,18.07457
106.29025,18.07431
106.29029,18.07422
106.29044,18.07391
106.29048,18.07382
106.2906,18.07361
106.29069,18.07348
106.29098,18.07313
106.29125,18.07278
106.29129,18.07273
106.29148,18.0725
106.2916,18.07236
106.29174,18.07218
106.29206,18.07178
106.29249,18.07123
106.29261,18.07107
106.29265,18.07101
106.29291,18.07068
106.29306,18.07049
106.29318,18.07032
106.29334,18.07012
106.29347,18.06997
106.29361,18.06981
106.29372,18.0697
106.29386,18.06956
106.29394,18.06949
106.2941,18.06936
106.29415,18.06932
106.2942,18.06929
106.29438,18.06918
106.29445,18.06914
106.2946,18.06905
106.29467,18.06901
106.29517,18.06875
106.29566,18.0685
106.29658,18.06802
106.29676,18.06792
106.29784,18.06735
106.29877,18.06686
106.29929,18.06659
106.2994,18.06653
106.29955,18.06645
106.30036,18.06603
106.30042,18.066
106.30059,18.06591
106.30076,18.06582
106.30133,18.06552
106.3014,18.06547
106.30188,18.06516
106.30225,18.06485
106.30284,18.06431
106.30314,18.06404
106.30321,18.06397
106.30392,18.06331
106.3046,18.06269
106.30474,18.06256
106.3049,18.06241
106.30529,18.06209
106.3056,18.06183
106.30572,18.06173
106.30579,18.06168
106.30587,18.06162
106.30629,18.06131
106.30638,18.06125
106.30673,18.061</coordinates></LineString></Placemark></Document></kml>