<?xml version="1.0" encoding="UTF-8"?>
<kml xmlns="http://www.opengis.net/kml/2.2">
  <Document>
    <name>goithau-38</name>
    <Style id="icon-1899-DB4436-nodesc-normal">
      <IconStyle>
        <color>ff3644db</color>
        <scale>1</scale>
        <Icon>
          <href>https://www.gstatic.com/mapspro/images/stock/503-wht-blank_maps.png</href>
        </Icon>
        <hotSpot x="32" xunits="pixels" y="64" yunits="insetPixels"/>
      </IconStyle>
      <LabelStyle>
        <scale>0</scale>
      </LabelStyle>
      <BalloonStyle>
        <text><![CDATA[<h3>$[name]</h3>]]></text>
      </BalloonStyle>
    </Style>
    <Style id="icon-1899-DB4436-nodesc-highlight">
      <IconStyle>
        <color>ff3644db</color>
        <scale>1</scale>
        <Icon>
          <href>https://www.gstatic.com/mapspro/images/stock/503-wht-blank_maps.png</href>
        </Icon>
        <hotSpot x="32" xunits="pixels" y="64" yunits="insetPixels"/>
      </IconStyle>
      <LabelStyle>
        <scale>1</scale>
      </LabelStyle>
      <BalloonStyle>
        <text><![CDATA[<h3>$[name]</h3>]]></text>
      </BalloonStyle>
    </Style>
    <StyleMap id="icon-1899-DB4436-nodesc">
      <Pair>
        <key>normal</key>
        <styleUrl>#icon-1899-DB4436-nodesc-normal</styleUrl>
      </Pair>
      <Pair>
        <key>highlight</key>
        <styleUrl>#icon-1899-DB4436-nodesc-highlight</styleUrl>
      </Pair>
    </StyleMap>
    <Style id="line-1267FF-5000-nodesc-normal">
      <LineStyle>
        <color>ffff6712</color>
        <width>5</width>
      </LineStyle>
      <BalloonStyle>
        <text><![CDATA[<h3>$[name]</h3>]]></text>
      </BalloonStyle>
    </Style>
    <Style id="line-1267FF-5000-nodesc-highlight">
      <LineStyle>
        <color>ffff6712</color>
        <width>7.5</width>
      </LineStyle>
      <BalloonStyle>
        <text><![CDATA[<h3>$[name]</h3>]]></text>
      </BalloonStyle>
    </Style>
    <StyleMap id="line-1267FF-5000-nodesc">
      <Pair>
        <key>normal</key>
        <styleUrl>#line-1267FF-5000-nodesc-normal</styleUrl>
      </Pair>
      <Pair>
        <key>highlight</key>
        <styleUrl>#line-1267FF-5000-nodesc-highlight</styleUrl>
      </Pair>
    </StyleMap>
    <Placemark>
      <name>goithau-38</name>
      <styleUrl>#line-1267FF-5000-nodesc</styleUrl>
      <LineString>
        <tessellate>1</tessellate>
        <coordinates>
          105.89238,18.34207,0
          105.8919,18.34252,0
          105.89123,18.34319,0
          105.8912,18.34321,0
          105.89092,18.34351,0
          105.89084,18.34343,0
          105.89005,18.3427,0
          105.88964,18.34234,0
          105.88892,18.34167,0
          105.88868,18.34139,0
          105.88865,18.34136,0
          105.88862,18.34132,0
          105.88859,18.34126,0
          105.88834,18.34123,0
          105.88829,18.34122,0
          105.88715,18.34106,0
          105.88585,18.34081,0
          105.88554,18.34076,0
          105.88535,18.34072,0
          105.88518,18.34067,0
          105.88504,18.34061,0
          105.88479,18.34055,0
          105.88471,18.34054,0
          105.87988,18.3397,0
          105.87967,18.33965,0
          105.87915,18.33955,0
          105.8782,18.33939,0
          105.87725,18.33919,0
          105.87683,18.33912,0
          105.87679,18.33912,0
          105.87558,18.33891,0
          105.87456,18.33876,0
          105.87295,18.33855,0
          105.87122,18.33842,0
          105.8709,18.33841,0
          105.86756,18.33817,0
          105.86711,18.33815,0
          105.86558,18.33804,0
          105.86516,18.338,0
          105.865,18.33797,0
          105.86498,18.33797,0
          105.86404,18.33784,0
          105.86401,18.33784,0
          105.86184,18.33754,0
          105.86144,18.33753,0
          105.86133,18.33751,0
          105.86109,18.33749,0
          105.86074,18.33742,0
          105.86061,18.33741,0
          105.8605,18.33741,0
          105.86003,18.33743,0
          105.85959,18.33754,0
          105.85947,18.33754,0
          105.85833,18.3376,0
          105.85274,18.33815,0
          105.85166,18.33817,0
          105.84726,18.33818,0
          105.84404,18.33815,0
          105.84396,18.33814,0
          105.84231,18.33811,0
          105.8415,18.33811,0
          105.8401,18.33808,0
          105.83961,18.33808,0
          105.83934,18.33807,0
          105.83572,18.33804,0
          105.83523,18.338,0
          105.83316,18.33764,0
          105.83295,18.33766,0
          105.83276,18.33771,0
          105.83275,18.33771,0
          105.83272,18.33774,0
          105.83272,18.33775,0
          105.83268,18.33777,0
          105.83264,18.3378,0
          105.83249,18.33783,0
          105.83235,18.3378,0
          105.83227,18.33774,0
          105.83224,18.33771,0
          105.83222,18.33768,0
          105.83221,18.33767,0
          105.83219,18.33763,0
          105.83217,18.33754,0
          105.83217,18.33749,0
          105.83219,18.3374,0
          105.83221,18.33736,0
          105.83224,18.33733,0
          105.83217,18.33714,0
          105.83208,18.33696,0
          105.83043,18.33435,0
          105.83042,18.33434,0
          105.82994,18.33356,0
          105.8284,18.33115,0
          105.82839,18.33113,0
          105.82828,18.33098,0
          105.82827,18.33098,0
          105.82825,18.33094,0
          105.82805,18.3307,0
          105.82805,18.33069,0
          105.82799,18.33062,0
          105.82792,18.33057,0
          105.82791,18.33056,0
          105.82782,18.3305,0
          105.82759,18.33041,0
          105.8273,18.33038,0
          105.8271,18.33041,0
          105.8269,18.3305,0
          105.82671,18.33064,0
          105.8267,18.33065,0
          105.82652,18.33088,0
          105.82649,18.33093,0
          105.82644,18.33111,0
          105.82644,18.33125,0
          105.82647,18.33155,0
          105.82662,18.33184,0
          105.82687,18.33204,0
          105.82687,18.33205,0
          105.82712,18.33215,0
          105.82749,18.33218,0
          105.82762,18.33217,0
          105.8309,18.33023,0
          105.83141,18.32991,0
          105.83145,18.32989,0
          105.8316,18.32979,0
          105.83215,18.32945,0
          105.83231,18.32936,0
          105.83295,18.32897,0
          105.83393,18.3284,0
          105.83858,18.32552,0
          105.8388,18.3254,0
          105.83988,18.32469,0
          105.84003,18.32458,0
          105.84458,18.32158,0
          105.8449,18.32139,0
          105.84685,18.32012,0
          105.84817,18.31923,0
          105.84832,18.31912,0
          105.8561,18.31394,0
          105.85611,18.31394,0
          105.85626,18.31384,0
          105.85641,18.31373,0
          105.85688,18.31343,0
          105.85703,18.31332,0
          105.85735,18.31312,0
          105.8582,18.31255,0
          105.85844,18.3124,0
          105.86227,18.30983,0
          105.86251,18.30968,0
          105.86255,18.30965,0
          105.86361,18.30896,0
          105.86376,18.30885,0
          105.86595,18.30741,0
          105.8662,18.30723,0
          105.87023,18.30455,0
          105.87038,18.30444,0
          105.87271,18.30287,0
          105.87299,18.3027,0
          105.8764,18.30041,0
          105.87642,18.30039,0
          105.88471,18.29488,0
          105.88484,18.2948,0
          105.89219,18.2899,0
          105.89286,18.28937,0
          105.89538,18.28755,0
          105.89568,18.2873,0
          105.89575,18.28725,0
          105.89946,18.28429,0
          105.89961,18.28418,0
          105.90251,18.28187,0
          105.9047,18.28006,0
          105.90772,18.2777,0
          105.90825,18.27734,0
          105.90837,18.27725,0
          105.9104,18.27585,0
          105.91094,18.27551,0
          105.91323,18.27415,0
          105.91537,18.27296,0
          105.91642,18.27241,0
          105.91664,18.27231,0
          105.92183,18.26957,0
          105.92228,18.26932,0
          105.92278,18.26906,0
          105.9241,18.26834,0
          105.92635,18.26719,0
          105.92877,18.26587,0
          105.92911,18.2657,0
          105.92963,18.26542,0
          105.93005,18.26522,0
          105.93186,18.2643,0
          105.93447,18.26284,0
          105.93623,18.26178,0
          105.93894,18.25991,0
          105.93927,18.25967,0
          105.93929,18.25966,0
          105.93959,18.25944,0
          105.94139,18.25798,0
          105.94316,18.25648,0
          105.94676,18.25309,0
          105.94689,18.25296,0
          105.94783,18.25208,0
          105.94783,18.25207,0
          105.95073,18.24934,0
          105.95166,18.24843,0
          105.95193,18.24818,0
          105.95206,18.24804,0
          105.953,18.2471,0
          105.9534,18.24672,0
          105.95381,18.24635,0
          105.95394,18.24622,0
          105.95478,18.24545,0
          105.95675,18.24358,0
          105.9594,18.24101,0
          105.95954,18.24089,0
          105.96035,18.24012,0
          105.96049,18.24,0
          105.96479,18.23595,0
          105.96608,18.2348,0
          105.96896,18.23237,0
          105.97074,18.23102,0
          105.97206,18.23006,0
          105.97421,18.22857,0
          105.97608,18.22736,0
          105.9768,18.22695,0
          105.97883,18.2257,0
          105.97969,18.2252,0
          105.98084,18.22449,0
          105.98244,18.22355,0
          105.9828,18.22335,0
          105.9831,18.22316,0
          105.98393,18.22268,0
          105.98549,18.22173,0
          105.98615,18.22136,0
          105.98745,18.22053,0
          105.98804,18.22018,0
          105.98946,18.21928,0
          105.99002,18.21896,0
          105.99095,18.21836,0
          105.9935,18.21666,0
          105.99359,18.21661,0
          105.99474,18.21587,0
          105.99511,18.21562,0
          105.9954,18.21541,0
          105.99598,18.21503,0
          105.99902,18.21293,0
          105.99936,18.21267,0
          106.00074,18.21171,0
          106.00575,18.20808,0
          106.00609,18.20785,0
          106.00864,18.20602,0
          106.00892,18.20584,0
          106.0159,18.20077,0
          106.01659,18.2003,0
          106.01659,18.20029,0
          106.01742,18.19972,0
          106.0186,18.19894,0
          106.01986,18.19815,0
          106.01987,18.19815,0
          106.02057,18.19773,0
          106.02136,18.19728,0
          106.02164,18.19713,0
          106.02199,18.19696,0
          106.02247,18.19671,0
          106.02301,18.19645,0
          106.02326,18.19634,0
          106.0238,18.19613,0
          106.02393,18.19607,0
          106.02452,18.19575,0
          106.02469,18.19567,0
          106.02477,18.19564,0
          106.02541,18.19529,0
          106.02625,18.19489,0
          106.02752,18.19436,0
          106.0286,18.19394,0
          106.02932,18.19368,0
          106.03059,18.19326,0
          106.03061,18.19325,0
          106.03104,18.1931,0
          106.03231,18.19272,0
          106.03311,18.1925,0
          106.03336,18.19244,0
          106.03351,18.19239,0
          106.0348,18.19205,0
          106.0353,18.19194,0
          106.03586,18.1918,0
          106.03771,18.19143,0
          106.03918,18.19118,0
          106.04,18.19107,0
          106.04126,18.19087,0
          106.04619,18.19017,0
          106.05141,18.18937,0
          106.0636,18.18759,0
          106.06423,18.18748,0
          106.06915,18.18672,0
          106.07215,18.18632,0
          106.07453,18.18608,0
          106.07819,18.18579,0
          106.0804,18.18566,0
          106.09488,18.18568,0
          106.09588,18.18566,0
          106.09722,18.18561,0
          106.09879,18.18552,0
          106.10137,18.18529,0
          106.10205,18.18518,0
          106.10263,18.18511,0
          106.10376,18.18494,0
          106.10724,18.18429,0
          106.10884,18.18396,0
          106.10909,18.18392,0
          106.1166,18.1824,0
          106.11937,18.18187,0
          106.12013,18.18175,0
          106.12185,18.18151,0
          106.13128,18.18064,0
          106.13183,18.18057,0
          106.13217,18.18051,0
          106.13218,18.18051,0
          106.13263,18.18042,0
          106.13297,18.18034,0
          106.13311,18.1803,0
          106.13384,18.18006,0
          106.1341,18.17996,0
          106.13467,18.17971,0
          106.13526,18.1794,0
          106.13566,18.17916,0
          106.1359,18.179,0
          106.13643,18.17861,0
          106.13686,18.17825,0
          106.13734,18.17778,0
          106.13765,18.17744,0
          106.1379,18.17715,0
          106.13801,18.17699,0
          106.13809,18.17689,0
          106.1384,18.17646,0
          106.13871,18.17599,0
          106.14611,18.16421,0
          106.14641,18.1637,0
          106.14762,18.16186,0
          106.14886,18.15983,0
          106.14902,18.1596,0
          106.14905,18.15957,0
          106.14913,18.15945,0
          106.14958,18.15888,0
          106.14969,18.15876,0
          106.15036,18.15808,0
          106.15089,18.1576,0
          106.15148,18.1571,0
          106.1521,18.15662,0
          106.15228,18.15649,0
          106.15266,18.15624,0
          106.15267,18.15624,0
          106.15343,18.15577,0
          106.15427,18.15529,0
          106.15428,18.15528,0
          106.15717,18.15361,0
          106.15838,18.15289,0
          106.15985,18.15195,0
          106.16056,18.15145,0
          106.16062,18.1514,0
          106.16079,18.15128,0
          106.16175,18.15053,0
          106.16257,18.14983,0
          106.16357,18.14891,0
          106.16441,18.14805,0
          106.16676,18.14551,0
          106.1679,18.14424,0
          106.16837,18.14374,0
          106.16842,18.14368,0
          106.16869,18.1434,0
          106.17096,18.1409,0
          106.17104,18.14082,0
          106.17265,18.13907,0
          106.17334,18.13845,0
          106.17377,18.1381,0
          106.17425,18.13774,0
          106.17431,18.13769,0
          106.17476,18.13737,0
          106.17554,18.1369,0
          106.17583,18.13674,0
          106.17636,18.13647,0
          106.19063,18.12963,0
          106.19184,18.12902,0
          106.19281,18.12847,0
          106.19396,18.12768,0
          106.19459,18.12712,0
          106.19468,18.12705,0
          106.19511,18.12668,0
          106.19695,18.12474,0
          106.20542,18.11548,0
          106.20554,18.11534,0
          106.20778,18.1129,0
          106.20791,18.11277,0
          106.21115,18.10924,0
          106.21218,18.10819,0
          106.21265,18.10776,0
          106.21358,18.10697,0
          106.21531,18.10577,0
          106.21568,18.10556,0
          106.21744,18.10461,0
          106.21926,18.10389,0
          106.22172,18.10308,0
          106.22521,18.10202,0
          106.22817,18.10099,0
          106.22819,18.10099,0
          106.23517,18.09871,0
          106.23622,18.09826,0
          106.23703,18.09789,0
          106.23787,18.09742,0
          106.2383,18.09716,0
          106.24011,18.09577,0
          106.24071,18.09515,0
          106.2414,18.09434,0
          106.24213,18.09337,0
          106.24279,18.09224,0
          106.2433,18.09123,0
          106.24381,18.09012,0
          106.24447,18.08859,0
          106.2454,18.08654,0
          106.24543,18.08649,0
          106.24611,18.08495,0
          106.24615,18.08487,0
          106.24618,18.08479,0
          106.25036,18.07541,0
          106.25062,18.0748,0
          106.25109,18.07359,0
          106.25131,18.07283,0
          106.25157,18.07178,0
          106.2516,18.07163,0
          106.25176,18.07022,0
          106.25178,18.06947,0
          106.25176,18.06869,0
          106.25163,18.06656,0
          106.25163,18.0665,0
          106.25162,18.06644,0
          106.25159,18.06592,0
          106.25159,18.06577,0
          106.2514,18.06202,0
          106.25135,18.06011,0
          106.25137,18.05945,0
          106.25159,18.05791,0
          106.25177,18.05719,0
          106.25205,18.05629,0
          106.25211,18.05612,0
          106.2527,18.05463,0
          106.25315,18.05355,0
          106.25329,18.05317,0
          106.25347,18.0528,0
          106.25507,18.04897,0
          106.25519,18.04864,0
          106.25521,18.0486,0
          106.25523,18.04855,0
          106.25533,18.04834,0
          106.25533,18.04826,0
          106.25534,18.04821,0
          106.25537,18.0481,0
          106.25541,18.04787,0
          106.25543,18.04763,0
          106.25541,18.04745,0
          106.25541,18.04741,0
          106.25538,18.04727,0
          106.25535,18.04716,0
          106.25525,18.04696,0
          106.25523,18.04691,0
          106.25511,18.04672,0
          106.25499,18.04655,0
          106.25483,18.04636,0
          106.25474,18.04623,0
          106.2547,18.04615,0
          106.25467,18.04605,0
          106.25465,18.04593,0
          106.25463,18.04575,0
          106.25463,18.04553,0
          106.25465,18.0454,0
          106.25465,18.04539,0
          106.25469,18.04528,0
          106.25476,18.04515,0
          106.25487,18.045,0
          106.25498,18.0449,0
          106.25518,18.04478,0
          106.25532,18.04474,0
          106.25554,18.04471,0
          106.25562,18.04471,0
          106.25574,18.04472,0
          106.25591,18.04476,0
          106.2561,18.04482,0
          106.25615,18.04483,0
          106.25698,18.04516,0
          106.25715,18.04522,0
          106.25727,18.04527,0
          106.25906,18.04588,0
          106.25936,18.04597,0
          106.25977,18.04611,0
          106.25978,18.04611,0
          106.26098,18.04653,0
          106.26102,18.04654,0
          106.26173,18.04679,0
          106.26179,18.04682,0
          106.26181,18.04682,0
          106.26191,18.04681,0
          106.26198,18.04679,0
          106.26203,18.04677,0
          106.26226,18.0466,0
          106.26239,18.04656,0
          106.26246,18.04656,0
          106.26253,18.04657,0
          106.26257,18.04658,0
          106.2626,18.0466,0
          106.26269,18.04665,0
          106.26278,18.04681,0
          106.26281,18.04688,0
          106.26293,18.0471,0
          106.26303,18.04737,0
          106.26316,18.04776,0
          106.26331,18.04817,0
          106.26334,18.0484,0
          106.26343,18.04868,0
          106.26383,18.0498,0
          106.26398,18.05016,0
          106.26476,18.05243,0
          106.26481,18.05256,0
          106.26597,18.05595,0
          106.26609,18.05637,0
          106.2666,18.05786,0
          106.2666,18.05788,0
          106.26672,18.05802,0
          106.26676,18.05811,0
          106.26696,18.05842,0
          106.267,18.05847,0
          106.26707,18.05851,0
          106.26711,18.05855,0
          106.26716,18.05859,0
          106.26723,18.05863,0
          106.26736,18.05868,0
          106.26743,18.05869,0
          106.26751,18.05869,0
          106.26761,18.05868,0
          106.26782,18.05862,0
          106.26808,18.05833,0
          106.26837,18.05804,0
          106.26848,18.05796,0
          106.26983,18.0566,0
          106.26997,18.05647,0
          106.27015,18.05628,0
          106.27024,18.0562,0
          106.27037,18.05606,0
          106.27171,18.05472,0
          106.27178,18.05466,0
          106.27403,18.05238,0
          106.27494,18.05143,0
          106.27638,18.04999,0
          106.27648,18.04988,0
          106.27698,18.0495,0
          106.27745,18.04922,0
          106.27891,18.0484,0
          106.27892,18.04839,0
          106.28321,18.04596,0
          106.28472,18.04507,0
          106.28509,18.04488,0
          106.28534,18.04473,0
          106.2856,18.04459,0
          106.28628,18.04419,0
          106.2888,18.0428,0
          106.28961,18.04232,0
          106.28985,18.04219,0
          106.29089,18.04157,0
          106.29124,18.04139,0
          106.29283,18.0405,0
          106.2931,18.04036,0
          106.29341,18.04022,0
          106.29404,18.03998,0
          106.29488,18.03974,0
          106.29632,18.03937,0
          106.29634,18.03937,0
          106.29638,18.03935,0
          106.29821,18.03888,0
          106.29834,18.03884,0
          106.29926,18.0386,0
          106.29945,18.03856,0
          106.30199,18.03789,0
          106.30204,18.03788,0
          106.3043,18.03727,0
          106.30646,18.0366,0
          106.3074,18.03626,0
          106.30742,18.03626,0
          106.30744,18.03625,0
          106.3076,18.03619,0
          106.30762,18.03618,0
          106.30778,18.03613,0
          106.31363,18.03408,0
          106.31364,18.03408,0
          106.31473,18.0337,0
          106.31575,18.03331,0
          106.31675,18.03297,0
          106.31754,18.03266,0
          106.31975,18.03189,0
          106.31996,18.03183,0
          106.31997,18.03183,0
          106.32006,18.03179,0
          106.3249,18.0301,0
          106.32508,18.03003,0
          106.3272,18.02929,0
          106.32738,18.02922,0
          106.32951,18.02848,0
          106.32983,18.02838,0
          106.33054,18.02819,0
          106.3311,18.02809,0
          106.33191,18.02804,0
          106.33247,18.02802,0
          106.34016,18.02815,0
          106.34023,18.02816,0
          106.3403,18.02818,0
          106.34036,18.02819,0
          106.34045,18.02819,0
          106.34051,18.02818,0
          106.34058,18.02818,0
          106.34062,18.02817,0
          106.34346,18.0282,0
          106.34354,18.02821,0
          106.34448,18.02822,0
          106.34456,18.02821,0
          106.34459,18.02821,0
          106.345,18.02816,0
          106.34557,18.02802,0
          106.34763,18.02742,0
          106.34768,18.0274,0
          106.34961,18.02682,0
          106.35222,18.02608,0
          106.35322,18.02582,0
          106.35538,18.02521,0
          106.35539,18.0252,0
          106.35699,18.02477,0
          106.35749,18.02469,0
          106.35784,18.02466,0
          106.36051,18.02471,0
          106.36062,18.02472,0
          106.3626,18.02475,0
          106.36293,18.02471,0
          106.36315,18.02467,0
          106.3634,18.0246,0
          106.36368,18.02448,0
          106.36389,18.0244,0
          106.36432,18.0242,0
          106.36814,18.02253,0
          106.36858,18.02236,0
          106.36873,18.02231,0
          106.36911,18.02221,0
          106.36931,18.02217,0
          106.37197,18.02177,0
          106.37208,18.02176,0
          106.37606,18.02114,0
          106.37828,18.02087,0
          106.37962,18.02075,0
          106.38146,18.02062,0
          106.38225,18.0205,0
          106.38283,18.02038,0
          106.38305,18.02032,0
          106.38309,18.0203,0
          106.38371,18.02012,0
          106.38393,18.02004,0
          106.38764,18.01851,0
          106.38914,18.01785,0
          106.38979,18.01753,0
          106.38995,18.01744,0
          106.38996,18.01743,0
          106.39312,18.01576,0
          106.39398,18.01538,0
          106.39454,18.01518,0
          106.39585,18.01478,0
          106.39695,18.0145,0
          106.39824,18.01407,0
          106.3992,18.01371,0
          106.39995,18.0134,0
          106.40904,18.00984,0
          106.40917,18.00981,0
          106.40957,18.00967,0
          106.41087,18.00929,0
          106.41238,18.00888,0
          106.41549,18.00799,0
          106.41567,18.00793,0
          106.41682,18.00761,0
          106.4171,18.00752,0
          106.42597,18.00498,0
          106.42688,18.0047,0
          106.42952,18.00394,0
          106.43113,18.00345,0
          106.43122,18.00343,0
          106.43154,18.00333,0
          106.43161,18.00332,0
          106.43268,18.00304,0
          106.43286,18.003,0
          106.43293,18.00298,0
          106.43412,18.00275,0
          106.43624,18.00246,0
          106.43908,18.00215,0
          106.43935,18.00211,0
          106.43936,18.0021,0
          106.44125,18.0019,0
          106.44318,18.00167,0
          106.44383,18.00162,0
          106.44443,18.00155,0
          106.44498,18.00146,0
          106.44551,18.00132,0
          106.44583,18.0012,0
          106.44606,18.0011,0
          106.44865,17.99987,0
          106.44971,17.99931,0
          106.45098,17.99868,0
          106.45149,17.99844,0
          106.45199,17.99819,0
          106.45319,17.99764,0
          106.45403,17.99733,0
          106.45499,17.99706,0
          106.45683,17.9966,0
          106.45694,17.99654,0
          106.45911,17.99605,0
          106.4592,17.99601,0
          106.45969,17.99588,0
          106.45976,17.99587,0
          106.46014,17.99577,0
          106.4609,17.99563,0
          106.46495,17.99521,0
          106.46582,17.99503,0
          106.46608,17.99495,0
          106.46627,17.99487,0
          106.4664,17.99484,0
          106.46655,17.99476,0
          106.46687,17.99455,0
          106.46716,17.99434,0
          106.46717,17.99434,0
          106.46746,17.99412,0
          106.4675,17.99408,0
          106.46783,17.99384,0
          106.4682,17.99359,0
          106.46864,17.99327,0
          106.4688,17.99317,0
          106.47033,17.99214,0
          106.47038,17.9921,0
          106.47286,17.99046,0
          106.4729,17.99044,0
          106.47325,17.99021,0
          106.47376,17.98991,0
          106.47521,17.98912,0
          106.47572,17.98878,0
          106.47585,17.98868,0
          106.47604,17.98855,0
          106.47704,17.98777,0
          106.47747,17.98749,0
          106.47748,17.98748,0
          106.47765,17.98735,0
          106.47796,17.98714,0
          106.47827,17.98699,0
          106.4783,17.98698,0
          106.47841,17.98693,0
          106.47844,17.98692,0
          106.47861,17.98684,0
          106.479,17.98671,0
          106.47951,17.98645,0
          106.47975,17.98634,0
          106.47997,17.9862,0
          106.48016,17.98604,0
          106.48047,17.9857,0
          106.48057,17.98553,0
          106.48058,17.98552,0
          106.48065,17.98539,0
          106.48067,17.98536,0
          106.48073,17.98523,0
          106.4809,17.9847,0
          106.48093,17.98441,0
          106.48094,17.9844,0
          106.48118,17.98331,0
          106.4812,17.98301,0
          106.4812,17.98277,0
          106.48114,17.9823,0
          106.4811,17.98219,0
          106.48105,17.98201,0
          106.48085,17.98165,0
          106.48079,17.98156,0
          106.4807,17.98146,0
          106.48056,17.98132,0
          106.48027,17.98106,0
          106.48013,17.98097,0
          106.47967,17.98072,0
          106.47854,17.98025,0
          106.47817,17.98006,0
          106.47805,17.97999,0
          106.47804,17.97998,0
          106.47788,17.97988,0
          106.47761,17.97967,0
          106.47754,17.9796,0
          106.4774,17.97948,0
          106.47516,17.97721,0
          106.47469,17.97671,0
          106.47347,17.97548,0
          106.47315,17.97512,0
          106.47312,17.9751,0
          106.47307,17.97505,0
          106.47267,17.9745,0
          106.47257,17.97435,0
          106.47228,17.97388,0
          106.47213,17.97361,0
          106.4721,17.97357,0
          106.47174,17.97293,0
          106.47162,17.97275,0
          106.47135,17.9722,0
          106.47126,17.97198,0
          106.47117,17.97169,0
          106.47109,17.97139,0
          106.47102,17.971,0
          106.471,17.97067,0
          106.471,17.97045,0
          106.47099,17.97038,0
          106.471,17.96909,0
          106.47104,17.96842,0
          106.47105,17.96836,0
          106.47106,17.96832,0
          106.47109,17.96823,0
          106.47108,17.96786,0
          106.47096,17.96762,0
          106.47088,17.96752,0
          106.47079,17.96742,0
          106.47071,17.96735,0
          106.47042,17.96704,0
          106.47024,17.96687,0
          106.46999,17.96665,0
          106.46902,17.96592,0
          106.46896,17.96588,0
          106.46889,17.96581,0
          106.46881,17.96572,0
          106.46857,17.96553,0
          106.46844,17.96539,0
          106.46832,17.96528,0
          106.46818,17.9651,0
          106.46807,17.96492,0
          106.4679,17.9646,0
          106.46788,17.96451,0
          106.4678,17.96428,0
          106.46779,17.96424,0
          106.46774,17.96388,0
          106.46774,17.96328,0
          106.46768,17.96041,0
          106.4677,17.95964,0
          106.46772,17.95932,0
          106.46775,17.95905,0
          106.46769,17.95843,0
          106.46764,17.95389,0
          106.46767,17.95299,0
          106.46766,17.95275,0
          106.46771,17.95236,0
          106.46775,17.9522,0
          106.46786,17.95187,0
          106.46805,17.95148,0
          106.46817,17.9513,0
          106.46983,17.94916,0
          106.46995,17.94902,0
          106.47004,17.9489,0
          106.4702,17.94871,0
          106.47031,17.94859,0
          106.47058,17.94835,0
          106.47078,17.94821,0
          106.47113,17.94802,0
          106.47127,17.94796,0
          106.47231,17.94756,0
          106.47245,17.94749,0
          106.47252,17.94746,0
          106.47261,17.94741,0
          106.4727,17.94734,0
          106.47288,17.94717,0
          106.47289,17.94714,0
          106.47291,17.94711,0
          106.47293,17.94706,0
          106.47303,17.94688,0
          106.47303,17.94678,0
          106.47304,17.94674,0
          106.47307,17.9467,0
          106.47308,17.94667,0
          106.4731,17.94665,0
          106.47314,17.94659,0
          106.4739,17.94528,0
          106.47413,17.94485,0
          106.47418,17.94474,0
          106.47686,17.94004,0
          106.47698,17.93981,0
          106.4771,17.93954,0
          106.47716,17.93938,0
          106.47726,17.93905,0
          106.4773,17.93888,0
          106.47737,17.93846,0
          106.47739,17.93828,0
          106.47742,17.93782,0
          106.47754,17.93646,0
          106.47763,17.93522,0
          106.47762,17.93462,0
          106.47747,17.93256,0
          106.47743,17.93214,0
          106.47742,17.93197,0
          106.47736,17.9316,0
          106.47732,17.93142,0
          106.4773,17.93136,0
          106.4773,17.93131,0
          106.47723,17.93103,0
          106.47713,17.93048,0
          106.47692,17.92966,0
          106.4769,17.9296,0
          106.4769,17.92959,0
          106.4767,17.92879,0
          106.47661,17.92849,0
          106.47646,17.92821,0
          106.47631,17.9279,0
          106.47589,17.92713,0
          106.4752,17.92594,0
          106.47502,17.92561,0
          106.47477,17.92518,0
          106.4747,17.92504,0
          106.47435,17.92441,0
          106.47363,17.92301,0
          106.47336,17.92251,0
          106.47316,17.92209,0
          106.47296,17.92171,0
          106.47262,17.92114,0
          106.4724,17.92075,0
          106.47122,17.91891,0
          106.47107,17.91863,0
          106.47084,17.91825,0
          106.46995,17.91666,0
          106.46977,17.91636,0
          106.46947,17.91589,0
          106.46813,17.91356,0
          106.46761,17.9126,0
          106.46725,17.91197,0
          106.46712,17.91177,0
          106.46697,17.91156,0
          106.46676,17.91124,0
          106.46586,17.90996,0
          106.46538,17.90908,0
          106.46505,17.90843,0
          106.46498,17.90831,0
          106.46471,17.90761,0
          106.4639,17.90591,0
          106.46293,17.90376,0
          106.46271,17.9033,0
          106.46255,17.90293,0
          106.46239,17.90259,0
          106.46238,17.90258,0
          106.46231,17.90241,0
          106.46208,17.90191,0
          106.46191,17.90158,0
          106.46151,17.90095,0
          106.45951,17.89824,0
          106.45862,17.89719,0
          106.45801,17.89659,0
          106.45764,17.89618,0
          106.45704,17.89559,0
          106.45685,17.89543,0
          106.45667,17.89525,0
          106.4564,17.89502,0
          106.45468,17.89348,0
          106.45461,17.89343,0
          106.45369,17.8926,0
          106.45319,17.89217,0
          106.45207,17.89115,0
          106.45149,17.89065,0
          106.45136,17.89053,0
          106.45135,17.89053,0
          106.44949,17.88891,0
          106.44784,17.88755,0
          106.44769,17.8874,0
          106.44738,17.88704,0
          106.44711,17.88663,0
          106.44644,17.88522,0
          106.4462,17.88462,0
          106.44527,17.8825,0
          106.44518,17.88231,0
          106.44491,17.88169,0
          106.44486,17.88154,0
          106.44427,17.88022,0
          106.44286,17.8776,0
          106.44267,17.87727,0
          106.4424,17.87693,0
          106.4421,17.87663,0
          106.44177,17.87638,0
          106.44136,17.87614,0
          106.44061,17.87583,0
          106.43977,17.87546,0
          106.43965,17.8754,0
          106.43944,17.87528,0
          106.43927,17.87517,0
          106.43909,17.87504,0
          106.43894,17.87489,0
          106.43878,17.87471,0
          106.4386,17.87449,0
          106.43851,17.87434,0
          106.43847,17.87429,0
          106.43834,17.87391,0
          106.43826,17.87365,0
          106.43813,17.87279,0
          106.43788,17.87059,0
          106.43684,17.86387,0
          106.43666,17.86295,0
          106.43631,17.86048,0
          106.43631,17.86041,0
          106.43611,17.85904,0
          106.436,17.85809,0
          106.43557,17.85514,0
          106.43551,17.85484,0
          106.43524,17.8532,0
          106.43433,17.84641,0
          106.43432,17.84641,0
          106.4334,17.83941,0
          106.43339,17.83937,0
          106.43331,17.83882,0
          106.43328,17.8385,0
          106.43325,17.83771,0
          106.43325,17.83749,0
          106.43312,17.83478,0
          106.43312,17.83457,0
          106.43285,17.82561,0
          106.43284,17.82492,0
          106.43265,17.82038,0
          106.43229,17.8137,0
          106.43215,17.80993,0
          106.43216,17.80888,0
          106.43207,17.80629,0
          106.43207,17.8061,0
          106.43203,17.80556,0
          106.43203,17.80507,0
          106.43211,17.803,0
          106.43219,17.80193,0
          106.43237,17.7983,0
          106.43242,17.79775,0
          106.43247,17.79747,0
          106.43248,17.79738,0
          106.43279,17.79569,0
          106.43306,17.79435,0
          106.43321,17.79349,0
          106.43332,17.79297,0
          106.43359,17.79147,0
          106.43367,17.7911,0
          106.43388,17.79027,0
          106.43475,17.78715,0
          106.43543,17.78497,0
          106.43592,17.78332,0
          106.43667,17.78109,0
          106.43683,17.78052,0
          106.43692,17.78026,0
          106.43707,17.77977,0
          106.43724,17.77916,0
          106.43727,17.77909,0
          106.4373,17.77899,0
          106.43738,17.7788,0
          106.43745,17.77861,0
          106.43786,17.77769,0
          106.43817,17.77706,0
          106.43826,17.7769,0
          106.43849,17.77643,0
          106.43874,17.77604,0
          106.43954,17.77487,0
          106.43997,17.77407,0
          106.44018,17.77365,0
          106.44022,17.77356,0
          106.44088,17.77236,0
          106.44133,17.77139,0
          106.44152,17.77101,0
          106.44153,17.77098,0
          106.44178,17.77047,0
          106.44193,17.77019,0
          106.44397,17.76586,0
          106.44445,17.76477,0
          106.44453,17.7645,0
          106.44457,17.76426,0
          106.44457,17.76419,0
          106.44458,17.76412,0
          106.44458,17.764,0
          106.44457,17.76386,0
          106.44457,17.76369,0
          106.4445,17.76327,0
          106.44421,17.76203,0
          106.44402,17.76114,0
          106.44367,17.75964,0
          106.44287,17.75599,0
          106.44284,17.75582,0
          106.44194,17.7519,0
          106.44188,17.75172,0
          106.44166,17.75072,0
          106.44163,17.75061,0
          106.44136,17.74937,0
          106.44113,17.74813,0
          106.44036,17.74481,0
          106.43989,17.74263,0
          106.43982,17.74219,0
          106.43962,17.74147,0
          106.43947,17.74068,0
          106.43942,17.74035,0
          106.4394,17.73982,0
          106.43943,17.73883,0
          106.43946,17.73825,0
          106.4395,17.73783,0
          106.43951,17.73766,0
          106.43952,17.73685,0
          106.4395,17.73571,0
          106.4395,17.73469,0
          106.43947,17.73419,0
          106.43947,17.73407,0
          106.4395,17.73377,0
          106.43949,17.73265,0
          106.43947,17.73241,0
          106.43947,17.73206,0
          106.43945,17.73158,0
          106.43941,17.72857,0
          106.43939,17.72819,0
          106.43935,17.72784,0
          106.43925,17.72722,0
          106.43903,17.72609,0
          106.439,17.72588,0
          106.43899,17.72586,0
          106.43887,17.72517,0
          106.43887,17.72516,0
          106.43879,17.72473,0
          106.4387,17.7241,0
          106.43877,17.72353,0
          106.43884,17.72334,0
          106.43894,17.72311,0
          106.43909,17.72291,0
          106.43925,17.72266,0
          106.43953,17.72239,0
          106.43986,17.7221,0
          106.44056,17.72157,0
          106.44177,17.72062,0
          106.44207,17.72037,0
          106.44214,17.72033,0
          106.44259,17.71996,0
          106.44292,17.71972,0
          106.44351,17.71923,0
          106.44367,17.71906,0
          106.44383,17.71887,0
          106.44395,17.71868,0
          106.44396,17.71867,0
          106.44405,17.71852,0
          106.44405,17.71851,0
          106.44414,17.71829,0
          106.44422,17.7179,0
          106.44422,17.71781,0
          106.44423,17.71768,0
          106.44422,17.71744,0
          106.44416,17.71707,0
          106.44411,17.7169,0
          106.4441,17.71683,0
          106.44409,17.71679,0
          106.4441,17.71676,0
          106.44393,17.7163,0
          106.44386,17.71614,0
          106.44386,17.71613,0
          106.44277,17.71333,0
          106.44271,17.71315,0
          106.44264,17.71298,0
          106.44258,17.71281,0
          106.44225,17.71197,0
          106.44219,17.7118,0
          106.44216,17.71173,0
          106.44159,17.71009,0
          106.44154,17.70992,0
          106.44149,17.7098,0
          106.44123,17.70907,0
          106.4412,17.70901,0
          106.44103,17.70859,0
          106.44083,17.70802,0
          106.44081,17.70799,0
          106.4406,17.70726,0
          106.44054,17.7069,0
          106.4405,17.70652,0
          106.44048,17.70615,0
          106.44048,17.70586,0
          106.44051,17.70558,0
          106.44063,17.70492,0
          106.44075,17.70448,0
          106.44076,17.70442,0
          106.44082,17.70426,0
          106.44087,17.70409,0
          106.44111,17.7036,0
          106.44118,17.70342,0
          106.44074,17.70265,0
          106.44074,17.70264,0
          106.44062,17.70242,0
          106.43997,17.70133,0
          106.4399,17.70125,0
          106.43984,17.70119,0
          106.4394,17.70084,0
          106.43839,17.70009,0
          106.43823,17.69996,0
          106.43814,17.6999,0
          106.43739,17.69934,0
          106.43733,17.6993,0
          106.43659,17.69875,0
          106.43654,17.69872,0
          106.43494,17.69753,0
          106.43488,17.69747,0
          106.4348,17.69738,0
          106.43475,17.69731,0
          106.43464,17.69707,0
          106.43392,17.69519,0
          106.43383,17.69493,0
          106.43377,17.69466,0
          106.43376,17.69465,0
          106.43339,17.69227,0
          106.43339,17.69226,0
          106.43329,17.69173,0
          106.43322,17.69146,0
          106.43287,17.69029,0
          106.43281,17.69014,0
          106.43273,17.69001,0
          106.43271,17.68996,0
          106.43268,17.68992,0
          106.43262,17.68986,0
          106.43259,17.68984,0
          106.43255,17.68982,0
          106.43249,17.6898,0
          106.43242,17.68979,0
          106.43238,17.6898,0
          106.43232,17.6898,0
          106.43218,17.68981,0
          106.43196,17.68984,0
          106.43182,17.68985,0
          106.43168,17.68987,0
          106.43155,17.68987,0
          106.43142,17.68986,0
          106.43124,17.68982,0
          106.43102,17.68974,0
          106.43072,17.68965,0
          106.43062,17.68959,0
          106.43052,17.68949,0
          106.43035,17.68928,0
          106.43016,17.689,0
          106.4299,17.68865,0
          106.42972,17.68844,0
          106.42959,17.68831,0
          106.4295,17.68824,0
          106.42904,17.68795,0
          106.42888,17.68786,0
          106.42888,17.68785,0
          106.42872,17.68777,0
          106.42871,17.68776,0
          106.4285,17.68761,0
          106.42843,17.68751,0
          106.42834,17.68735,0
          106.42826,17.68726,0
          106.42824,17.68723,0
          106.42823,17.68723,0
          106.42807,17.68708,0
          106.42766,17.68679,0
          106.42765,17.68678,0
          106.42745,17.68663,0
          106.42727,17.68648,0
          106.4271,17.68631,0
          106.42708,17.6863,0
          106.42689,17.68614,0
          106.42679,17.68608,0
          106.42677,17.68606,0
          106.42663,17.68598,0
          106.42658,17.68596,0
          106.42642,17.68588,0
          106.42639,17.68587,0
          106.4263,17.68581,0
          106.42628,17.6858,0
          106.42626,17.68578,0
          106.42616,17.6857,0
          106.42603,17.68558,0
          106.42571,17.68516,0
          106.42564,17.68506,0
          106.42552,17.68492,0
          106.42541,17.68478,0
          106.42529,17.68464,0
          106.42494,17.68417,0
          106.42491,17.68412,0
          106.42489,17.68404,0
          106.42489,17.68402,0
          106.42488,17.68401,0
          106.42488,17.68395,0
          106.4249,17.68377,0
          106.42494,17.6836,0
          106.42497,17.68344,0
          106.42501,17.6833,0
          106.42504,17.68324,0
          106.42506,17.68319,0
          106.42512,17.6831,0
          106.42517,17.68304,0
          106.42528,17.68298,0
          106.42545,17.68291,0
          106.42551,17.6829,0
          106.42563,17.68286,0
          106.42565,17.68285,0
          106.42576,17.68282,0
          106.4258,17.6828,0
          106.42581,17.6828,0
          106.42584,17.68278,0
          106.4259,17.68272,0
          106.42592,17.68268,0
          106.42593,17.68267,0
          106.42594,17.68263,0
          106.42596,17.68258,0
          106.42596,17.68253,0
          106.42595,17.68241,0
          106.42595,17.68238,0
          106.42594,17.68229,0
          106.42586,17.68199,0
          106.4256,17.68123,0
          106.42549,17.68102,0
          106.42544,17.68096,0
          106.42541,17.68093,0
          106.4253,17.68084,0
          106.42528,17.68082,0
          106.42485,17.68053,0
          106.42484,17.68052,0
          106.42456,17.68035,0
          106.42444,17.6803,0
          106.42442,17.68028,0
          106.42383,17.68006,0
          106.42379,17.68004,0
          106.42375,17.68003,0
          106.42373,17.68002,0
          106.42365,17.67999,0
          106.4235,17.6799,0
          106.42337,17.6798,0
          106.42331,17.67974,0
          106.42328,17.67969,0
          106.42323,17.67959,0
          106.42322,17.67951,0
          106.42321,17.67946,0
          106.42321,17.67928,0
          106.42324,17.67873,0
          106.42324,17.67867,0
          106.42328,17.67818,0
          106.4233,17.67809,0
          106.42334,17.67799,0
          106.42339,17.67789,0
          106.42341,17.67786,0
          106.42341,17.67785,0
          106.42386,17.67708,0
          106.42407,17.67668,0
          106.4241,17.6766,0
          106.4241,17.67658,0
          106.42411,17.67656,0
          106.42412,17.67652,0
          106.42412,17.67644,0
          106.4241,17.6764,0
          106.4241,17.67639,0
          106.424,17.67621,0
          106.42391,17.67595,0
          106.42389,17.67587,0
          106.42388,17.67577,0
          106.42388,17.67562,0
          106.42389,17.67554,0
          106.42392,17.67545,0
          106.42394,17.67537,0
          106.42402,17.6752,0
          106.42416,17.67498,0
          106.42418,17.67494,0
          106.4242,17.67487,0
          106.42421,17.67482,0
          106.42421,17.67478,0
          106.4242,17.67472,0
          106.4242,17.6747,0
          106.42414,17.67455,0
          106.42413,17.67454,0
          106.42399,17.67421,0
          106.42387,17.67389,0
          106.42387,17.67387,0
          106.42384,17.67377,0
          106.42384,17.67361,0
          106.42387,17.67331,0
          106.42397,17.67265,0
          106.42397,17.67262,0
          106.424,17.67245,0
          106.42401,17.67233,0
          106.42403,17.67227,0
          106.42409,17.67193,0
          106.42422,17.67137,0
          106.42428,17.67122,0
          106.42429,17.67118,0
          106.42434,17.67106,0
          106.42442,17.67095,0
          106.42446,17.67091,0
          106.42446,17.6709,0
          106.42452,17.67083,0
          106.42462,17.67073,0
          106.42473,17.67063,0
          106.42519,17.6703,0
          106.42532,17.67022,0
          106.42549,17.67014,0
          106.42613,17.66987,0
          106.42625,17.66978,0
          106.42631,17.66972,0
          106.42635,17.66966,0
          106.42639,17.66959,0
          106.42641,17.66951,0
          106.42642,17.66944,0
          106.42642,17.669,0
          106.42643,17.66893,0
          106.42646,17.66887,0
          106.42648,17.66881,0
          106.42694,17.66829,0
          106.42703,17.6682,0
          106.42707,17.66815,0
          106.42794,17.66719,0
          106.42817,17.66692,0
          106.4283,17.66678,0
          106.42841,17.66664,0
          106.42853,17.6665,0
          106.42998,17.66462,0
          106.4301,17.66448,0
          106.43077,17.66361,0
          106.4308,17.66356,0
          106.43389,17.65954,0
          106.43435,17.65897,0
          106.43452,17.65878,0
          106.43463,17.65864,0
          106.43494,17.65828,0
          106.43516,17.658,0
          106.43546,17.65759,0
          106.43553,17.65748,0
          106.43558,17.65737,0
          106.43562,17.65725,0
          106.43565,17.65719,0
          106.43575,17.65694,0
          106.43593,17.65642,0
          106.43609,17.656,0
          106.43609,17.65599,0
          106.43621,17.65558,0
          106.43628,17.65539,0
          106.43651,17.65458,0
          106.43654,17.65434,0
          106.43655,17.65416,0
          106.43656,17.65413,0
          106.43655,17.65408,0
          106.43654,17.65398,0
          106.43654,17.65391,0
          106.43649,17.6538,0
          106.43647,17.65373,0
          106.43638,17.65357,0
          106.43637,17.65357,0
          106.43619,17.65336,0
          106.43606,17.65323,0
          106.4351,17.65237,0
          106.43485,17.6521,0
          106.43481,17.65204,0
          106.43467,17.65169,0
          106.43419,17.65004,0
          106.43412,17.6497,0
          106.4341,17.64947,0
          106.43416,17.64882,0
          106.43419,17.64792,0
          106.43425,17.64692,0
          106.4343,17.64566,0
          106.43435,17.64491,0
          106.4344,17.64441,0
          106.43442,17.64405,0
          106.43442,17.64387,0
          106.43449,17.64261,0
          106.43449,17.64208,0
          106.43433,17.6378,0
          106.4343,17.63762,0
          106.43425,17.63741,0
          106.43415,17.6371,0
          106.4341,17.63697,0
          106.43388,17.63648,0
          106.43349,17.63574,0
          106.43221,17.6335,0
          106.43191,17.63302,0
          106.43182,17.63286,0
          106.43172,17.63271,0
          106.43163,17.63255,0
          106.43143,17.63224,0
          106.43068,17.63101,0
          106.43067,17.631,0
          106.43058,17.63084,0
          106.4305,17.63068,0
          106.43032,17.63037,0
          106.43029,17.63037,0
          106.43028,17.63036,0
          106.43026,17.63035,0
          106.43026,17.63033,0
          106.43025,17.63033,0
          106.43025,17.63032,0
          106.43026,17.63032,0
          106.43026,17.63029,0
          106.43027,17.63029,0
          106.43028,17.63028,0
          106.43033,17.63028,0
          106.43033,17.63029,0
          106.43034,17.63029,0
          106.43034,17.6303,0
          106.43035,17.6303,0
          106.43035,17.63033,0
          106.43159,17.63042,0
          106.43183,17.63042,0
          106.43196,17.63041,0
          106.4322,17.63034,0
          106.43243,17.63024,0
          106.43313,17.62982,0
          106.43371,17.6295,0
          106.43444,17.62903,0
          106.4347,17.62884,0
          106.43384,17.62721,0
          106.43279,17.62539,0
          106.43261,17.62502,0
          106.43243,17.62471,0
          106.43241,17.62469,0
          106.43238,17.62459,0
          106.43237,17.62451,0
          106.43241,17.62421,0
          106.43249,17.62401,0
          106.43249,17.62361,0
          106.43285,17.62299,0
          106.43309,17.62231,0
          106.4332,17.62196,0
          106.43338,17.62145,0
          106.43343,17.62128,0
          106.43378,17.62025,0
          106.43386,17.61998,0
          106.43387,17.6199,0
          106.43388,17.61972,0
          106.43389,17.61966,0
          106.43389,17.61742,0
          106.43387,17.61708,0
          106.43386,17.61703,0
          106.43381,17.61685,0
          106.43381,17.61684,0
          106.43343,17.61603,0
          106.43327,17.61571,0
          106.43177,17.61241,0
          106.43174,17.61236,0
          106.4317,17.61224,0
          106.43153,17.61182,0
          106.43129,17.61109,0
          106.43126,17.61089,0
          106.43126,17.61087,0
          106.43125,17.61077,0
          106.43128,17.61051,0
          106.43133,17.61025,0
          106.43166,17.60885,0
          106.43168,17.60874,0
          106.4317,17.60867,0
          106.43175,17.6084,0
          106.43174,17.60832,0
          106.43173,17.60816,0
          106.43155,17.60757,0
          106.43124,17.6064,0
          106.43121,17.60631,0
          106.43119,17.60623,0
          106.4311,17.60598,0
          106.43073,17.60517,0
          106.43072,17.60514,0
          106.43071,17.60502,0
          106.43071,17.60486,0
          106.43076,17.60443,0
          106.43077,17.60429,0
          106.43078,17.60425,0
          106.43084,17.60377,0
          106.43084,17.60372,0
          106.43086,17.60359,0
          106.43091,17.60312,0
          106.43091,17.60289,0
          106.43086,17.60267,0
          106.43073,17.60236,0
          106.43055,17.602,0
          106.42954,17.60025,0
          106.4295,17.60015,0
          106.42949,17.60015,0
          106.42947,17.60005,0
          106.42947,17.59994,0
          106.42949,17.59985,0
          106.42953,17.59949,0
          106.42953,17.59944,0
          106.42958,17.59903,0
          106.42958,17.59899,0
          106.42975,17.59826,0
          106.42978,17.59784,0
          106.42979,17.59777,0
          106.42975,17.59729,0
          106.42962,17.5966,0
          106.42953,17.59602,0
          106.4293,17.59502,0
          106.4293,17.595,0
          106.42924,17.59462,0
          106.42924,17.59461,0
          106.4292,17.5943,0
          106.42918,17.59419,0
          106.42917,17.59409,0
          106.42904,17.59348,0
          106.42902,17.59348,0
          106.42899,17.59344,0
          106.42895,17.59342,0
          106.42891,17.59342,0
          106.42887,17.59344,0
          106.42883,17.59345,0
          106.4288,17.59352,0
          106.42867,17.59376,0
          106.42858,17.59388,0
          106.42858,17.59389,0
          106.42845,17.59409,0
          106.42828,17.59429,0
          106.428,17.59455,0
          106.42798,17.59456,0
          106.42783,17.59467,0
          106.42779,17.59471,0
          106.42756,17.59486,0
          106.42693,17.5952,0
          106.42598,17.59563,0
          106.41594,17.60042,0
          106.41578,17.60051,0
          106.41561,17.60059,0
          106.41545,17.60069,0
          106.41513,17.60087,0
          106.41501,17.60095,0
          106.41497,17.60097,0
          106.41481,17.60107,0
          106.41466,17.60118,0
          106.4145,17.60128,0
          106.41404,17.60159,0
          106.41389,17.6017,0
          106.41388,17.60171,0
          106.41375,17.6018,0
          106.41256,17.60092,0
          106.41241,17.6008,0
          106.41077,17.59959,0
          106.40976,17.5988,0
          106.40975,17.59879,0
          106.40871,17.59806,0
          106.40829,17.59784,0
          106.4079,17.59774,0
          106.40784,17.59773,0
          106.40764,17.59773,0
          106.40747,17.59775,0
          106.40723,17.59782,0
          106.40708,17.5979,0
          106.40697,17.59799,0
          106.40692,17.59804,0
          106.40679,17.59822,0
          106.40674,17.59839,0
          106.40671,17.5986,0
          106.40674,17.59882,0
          106.40674,17.59883,0
          106.40677,17.59889,0
          106.40683,17.59898,0
          106.40693,17.59911,0
          106.40706,17.59925,0
          106.40722,17.59936,0
          106.40726,17.59938,0
          106.40744,17.59945,0
          106.40757,17.59948,0
          106.4077,17.59948,0
          106.4079,17.59947,0
          106.408,17.59945,0
          106.4081,17.59941,0
          106.40834,17.59929,0
          106.4117,17.59582,0
          106.41354,17.59386,0
          106.4136,17.59381,0
          106.41365,17.59375,0
          106.4147,17.59266,0
          106.41488,17.59246,0
          106.41907,17.58815,0
          106.41913,17.58808,0
          106.41987,17.58732,0
          106.41994,17.58724,0
          106.42329,17.58376,0
          106.42337,17.58367,0
          106.42397,17.58306,0
          106.42422,17.58279,0
          106.42493,17.58206,0
          106.42552,17.58141,0
          106.42561,17.58132,0
          106.42764,17.57912,0
          106.42777,17.57897,0
          106.42938,17.57723,0
          106.42951,17.5771,0
          106.42976,17.57683,0
          106.42987,17.5767,0
          106.43046,17.57607,0
          106.43058,17.57593,0
          106.43108,17.57539,0
          106.43121,17.57526,0
          106.43343,17.57281,0
          106.43367,17.57253,0
          106.4338,17.5724,0
          106.43404,17.57212,0
          106.4349,17.57117,0
          106.43514,17.57089,0
          106.4371,17.56871,0
          106.4372,17.56861,0
          106.43729,17.5685,0
          106.44281,17.56244,0
          106.44292,17.56234,0
          106.44391,17.56137,0
          106.44475,17.56062,0
          106.44606,17.55955,0
          106.44915,17.5571,0
          106.45391,17.55315,0
          106.45793,17.54997,0
          106.46044,17.54791,0
          106.46056,17.54782,0
          106.46068,17.54772,0
          106.46172,17.54679,0
          106.4618,17.54671,0
          106.46258,17.54586,0
          106.46324,17.54503,0
          106.46413,17.54379,0
          106.46625,17.54025,0
          106.46635,17.54013,0
          106.46723,17.53891,0
          106.46777,17.53831,0
          106.46911,17.53688,0
          106.46917,17.53683,0
          106.46932,17.53667,0
          106.47087,17.53515,0
          106.47112,17.53489,0
          106.47199,17.53403,0
          106.47211,17.5339,0
          106.47529,17.53072,0
          106.47743,17.52853,0
          106.47767,17.52831,0
          106.47819,17.52779,0
          106.47831,17.52766,0
          106.48118,17.5248,0
          106.48196,17.524,0
          106.48281,17.52309,0
          106.48294,17.52296,0
          106.48773,17.51781,0
          106.48785,17.51767,0
          106.48847,17.517,0
          106.48861,17.51686,0
          106.48872,17.51673,0
          106.4903,17.51503,0
          106.49201,17.51305,0
          106.49312,17.51181,0
          106.49377,17.51111,0
          106.49423,17.51066,0
          106.49577,17.50923,0
          106.49623,17.50886,0
          106.49652,17.50865,0
          106.49653,17.50864,0
          106.49811,17.5076,0
          106.49996,17.50656,0
          106.50178,17.50558,0
          106.50253,17.50514,0
          106.5028,17.50496,0
          106.50356,17.50442,0
          106.50364,17.50435,0
          106.50372,17.50429,0
          106.50439,17.50374,0
          106.5053,17.50283,0
          106.50586,17.50218,0
          106.50616,17.5018,0
          106.50636,17.50153,0
          106.50775,17.49939,0
          106.50778,17.49935,0
          106.5079,17.49914,0
          106.51008,17.4957,0
          106.51017,17.49554,0
          106.51141,17.49355,0
          106.51169,17.49316,0
          106.51214,17.49236,0
          106.51234,17.49203,0
          106.51242,17.49187,0
          106.51254,17.49166,0
          106.51259,17.49155,0
          106.51271,17.49134,0
          106.51333,17.49016,0
          106.51386,17.48907,0
          106.51389,17.48899,0
          106.51553,17.4857,0
          106.51574,17.48533,0
          106.51628,17.48425,0
          106.51689,17.48292,0
          106.51847,17.47977,0
          106.51848,17.47976,0
          106.52022,17.47617,0
          106.52034,17.47594,0
          106.52159,17.47337,0
          106.52166,17.4732,0
          106.52189,17.47275,0
          106.5219,17.47272,0
          106.52198,17.47256,0
          106.52205,17.4724,0
          106.52356,17.46929,0
          106.52357,17.46928,0
          106.52771,17.46122,0
          106.5278,17.46106,0
          106.5288,17.45911,0
          106.53401,17.44807,0
          106.53458,17.44711,0
          106.53493,17.44663,0
          106.53572,17.44573,0
          106.53717,17.44428,0
          106.53807,17.4435,0
          106.54253,17.43975,0
          106.5436,17.43892,0
          106.5446,17.43817,0
          106.54462,17.43815,0
          106.54637,17.43682,0
          106.54811,17.43537,0
          106.54812,17.43537,0
          106.5484,17.43513,0
          106.54854,17.43502,0
          106.54854,17.43501,0
          106.5487,17.43489,0
          106.54898,17.43465,0
          106.54926,17.43443,0
          106.54926,17.43442,0
          106.5494,17.43431,0
          106.5494,17.4343,0
          106.55107,17.43292,0
          106.5514,17.43267,0
          106.55141,17.43266,0
          106.5517,17.43244,0
          106.5517,17.43243,0
          106.55287,17.43153,0
          106.55288,17.43152,0
          106.5536,17.43096,0
          106.55374,17.43084,0
          106.55448,17.43028,0
          106.55455,17.43022,0
          106.55478,17.43007,0
          106.55478,17.43006,0
          106.55618,17.42914,0
          106.5562,17.42913,0
          106.55845,17.42761,0
          106.56221,17.42537,0
          106.56227,17.42534,0
          106.56767,17.42213,0
          106.56958,17.42094,0
          106.56982,17.42078,0
          106.57169,17.41963,0
          106.57512,17.41771,0
          106.57514,17.41771,0
          106.57935,17.41518,0
          106.57957,17.41506,0
          106.58053,17.41448,0
          106.58058,17.41446,0
          106.58062,17.41443,0
          106.58885,17.40957,0
          106.59061,17.4084,0
          106.59129,17.40791,0
          106.59161,17.40765,0
          106.59211,17.40721,0
          106.59236,17.40697,0
          106.59262,17.40668,0
          106.59314,17.40616,0
          106.59379,17.40542,0
          106.59429,17.40478,0
          106.59435,17.40469,0
          106.59454,17.40444,0
          106.59475,17.40414,0
          106.59483,17.40404,0
          106.59519,17.40354,0
          106.59627,17.40175,0
          106.59652,17.4013,0
          106.59669,17.40102,0
          106.59669,17.40101,0
          106.59708,17.40035,0
          106.59731,17.40001,0
          106.59962,17.39612,0
          106.60096,17.39373,0
          106.60458,17.38756,0
          106.6049,17.38706,0
          106.60553,17.38591,0
          106.60562,17.38576,0
          106.6058,17.38543,0
          106.60597,17.38514,0
          106.60615,17.3848,0
          106.60669,17.38385,0
          106.60676,17.3837,0
          106.60792,17.38163,0
          106.60793,17.38162,0
          106.60857,17.38046,0
          106.6094,17.37912,0
          106.6095,17.37897,0
          106.60951,17.37895,0
          106.60979,17.37851,0
          106.6098,17.37849,0
          106.61077,17.37694,0
          106.61085,17.3768,0
          106.61087,17.37678,0
          106.61144,17.37587,0
          106.61168,17.37544,0
          106.61381,17.37105,0
          106.61417,17.37036,0
          106.61813,17.36051,0
          106.6187,17.35903,0
          106.61885,17.35861,0
          106.61891,17.35847,0
          106.61901,17.35819,0
          106.61907,17.35805,0
          106.61928,17.35749,0
          106.61929,17.35745,0
          106.62023,17.35497,0
          106.62029,17.35483,0
          106.62081,17.35337,0
          106.62082,17.3533,0
          106.6211,17.35247,0
          106.62213,17.34845,0
          106.62219,17.34826,0
          106.62299,17.34518,0
          106.623,17.34513,0
          106.62346,17.34374,0
          106.62447,17.34009,0
          106.62521,17.33676,0
          106.62526,17.33658,0
          106.62559,17.33522,0
          106.62564,17.33506,0
          106.6258,17.33447,0
          106.62623,17.33227,0
          106.62647,17.33066,0
          106.6265,17.33039,0
          106.62656,17.32999,0
          106.62733,17.32296,0
          106.62735,17.32286,0
          106.62742,17.32207,0
          106.62744,17.32193,0
          106.62745,17.32179,0
          106.62777,17.31881,0
          106.62795,17.31738,0
          106.62796,17.31725,0
          106.62804,17.31664,0
          106.62808,17.31599,0
          106.62836,17.31397,0
          106.62858,17.31292,0
          106.62867,17.31261,0
          106.62887,17.31204,0
          106.6292,17.31126,0
          106.62942,17.31083,0
          106.62963,17.31046,0
          106.63179,17.30641,0
          106.63195,17.30609,0
          106.63212,17.30579,0
          106.63284,17.30444,0
          106.63285,17.30443,0
          106.63309,17.30398,0
          106.63318,17.30383,0
          106.63583,17.29891,0
          106.63583,17.2989,0
          106.63937,17.29221,0
          106.63943,17.29211,0
          106.63973,17.29153,0
          106.63985,17.29132,0
          106.64238,17.2866,0
          106.64298,17.28544,0
          106.64306,17.28531,0
          106.64341,17.28463,0
          106.64349,17.2845,0
          106.64393,17.28365,0
          106.64417,17.28324,0
          106.64792,17.27628,0
          106.64795,17.27621,0
          106.6489,17.27445,0
          106.649,17.27428,0
          106.65132,17.26997,0
          106.6514,17.26981,0
          106.65141,17.26981,0
          106.65324,17.2664,0
          106.65403,17.26504,0
          106.65412,17.26476,0
          106.65421,17.26444,0
          106.65422,17.26416,0
          106.65412,17.26391,0
          106.65403,17.26381,0
          106.65379,17.2636,0
          106.65359,17.2635,0
          106.65335,17.2635,0
          106.65311,17.26355,0
          106.65296,17.26366,0
          106.65294,17.26367,0
          106.65291,17.2637,0
          106.65279,17.26379,0
          106.65271,17.26407,0
          106.65271,17.26417,0
          106.65269,17.26435,0
          106.65271,17.2645,0
          106.65277,17.26464,0
          106.65279,17.26466,0
          106.65281,17.26469,0
          106.6529,17.2648,0
          106.65301,17.26489,0
          106.65323,17.26501,0
          106.65325,17.26501,0
          106.65358,17.26519,0
          106.65442,17.26555,0
          106.65464,17.26563,0
          106.65534,17.26591,0
          106.65556,17.26599,0
          106.65575,17.2661,0
          106.65595,17.26615,0
          106.6561,17.26617,0
          106.65622,17.26616,0
          106.65627,17.26615,0
          106.65637,17.26612,0
          106.6564,17.2661,0
          106.6578,17.26544,0
          106.65831,17.26518,0
          106.65834,17.26526,0
          106.65845,17.26563,0
          106.65872,17.26643,0
          106.65886,17.2669,0
          106.65931,17.268,0
          106.65932,17.26807,0
          106.65932,17.26813,0
          106.65933,17.26818,0
          106.65932,17.26828,0
          106.65882,17.27023,0
          106.6588,17.27033,0
          106.65872,17.27062,0
          106.65869,17.27084,0
          106.65869,17.27093,0
          106.65871,17.27101,0
          106.6588,17.27119,0
          106.65894,17.27102,0
          106.65905,17.27087,0
          106.65974,17.27001,0
          106.66246,17.26639,0
          106.66258,17.26625,0
          106.66269,17.26611,0
          106.66281,17.26597,0
          106.66295,17.26579,0
          106.66329,17.26542,0
          106.66341,17.26528,0
          106.66402,17.26467,0
          106.66416,17.26454,0
          106.66547,17.26342,0
          106.66773,17.26154,0
          106.66967,17.25989,0
          106.66986,17.25974,0
          106.67524,17.25522,0
          106.67551,17.25497,0
          106.67554,17.25495,0
          106.67813,17.25279,0
          106.67832,17.25264,0
          106.68056,17.25075,0
          106.68151,17.24981,0
          106.68191,17.24937,0
          106.68257,17.24853,0
          106.68285,17.24813,0
          106.6851,17.24468,0
          106.68511,17.24467,0
          106.68567,17.24396,0
          106.68603,17.24348,0
          106.68695,17.24246,0
          106.68779,17.24163,0
          106.69417,17.23576,0
          106.69491,17.23495,0
          106.69509,17.23477,0
          106.69518,17.23465,0
          106.69541,17.23438,0
          106.69582,17.23386,0
          106.69623,17.23331,0
          106.69682,17.23258,0
          106.69702,17.23231,0
          106.69707,17.23225,0
          106.69757,17.23157,0
          106.69757,17.23156,0
          106.69762,17.2315,0
          106.69789,17.23114,0
          106.69791,17.2311,0
          106.69801,17.23098,0
          106.69847,17.23037,0
          106.69926,17.22939,0
          106.69948,17.22914,0
          106.70026,17.22834,0
          106.70108,17.22759,0
          106.70184,17.22687,0
          106.70314,17.22569,0
          106.70332,17.22551,0
          106.70378,17.2251,0
          106.70411,17.22479,0
          106.70812,17.22119,0
          106.70818,17.22115,0
          106.70882,17.22056,0
          106.70925,17.22014,0
          106.70949,17.21988,0
          106.70973,17.21959,0
          106.70974,17.21957,0
          106.70991,17.21934,0
          106.71018,17.21888,0
          106.71033,17.2186,0
          106.71044,17.21836,0
          106.71059,17.21798,0
          106.71077,17.21739,0
          106.71095,17.21672,0
          106.71102,17.2164,0
          106.71129,17.21532,0
          106.71133,17.21519,0
          106.71137,17.21501,0
          106.71138,17.215,0
          106.71142,17.21482,0
          106.71148,17.21463,0
          106.71166,17.21395,0
          106.71173,17.21379,0
          106.7118,17.21359,0
          106.71192,17.21332,0
          106.71203,17.21311,0
          106.71222,17.21279,0
          106.7123,17.21267,0
          106.7125,17.21241,0
          106.71277,17.2121,0
          106.71292,17.21195,0
          106.7131,17.2118,0
          106.71314,17.21175,0
          106.71392,17.21105,0
          106.71422,17.2108,0
          106.71435,17.21068,0
          106.71479,17.2102,0
          106.7149,17.21005,0
          106.71503,17.20985,0
          106.7151,17.20973,0
          106.71524,17.20942,0
          106.71533,17.20917,0
          106.7154,17.20889,0
          106.71545,17.20845,0
          106.71546,17.2083,0
          106.71546,17.20782,0
          106.71543,17.20684,0
          106.71545,17.20635,0
          106.71548,17.20601,0
          106.71552,17.20579,0
          106.71562,17.20542,0
          106.71567,17.20528,0
          106.71587,17.20482,0
          106.71596,17.20465,0
          106.71603,17.20454,0
          106.71604,17.20452,0
        </coordinates>
      </LineString>
    </Placemark>
    <Placemark>
      <name>18.342000 105.892300 </name>
      <styleUrl>#icon-1899-DB4436-nodesc</styleUrl>
      <Point>
        <coordinates>
          105.8923766,18.3420679,0
        </coordinates>
      </Point>
    </Placemark>
    <Placemark>
      <name>17.204540 106.716030</name>
      <styleUrl>#icon-1899-DB4436-nodesc</styleUrl>
      <Point>
        <coordinates>
          106.7160393,17.2045202,0
        </coordinates>
      </Point>
    </Placemark>
  </Document>
</kml>
