<?xml version="1.0" encoding="UTF-8"?>
<kml xmlns="http://www.opengis.net/kml/2.2">
  <Document>
    <name>goithau-51</name>
    <Style id="icon-1899-DB4436-nodesc-normal">
      <IconStyle>
        <color>ff3644db</color>
        <scale>1</scale>
        <Icon>
          <href>https://www.gstatic.com/mapspro/images/stock/503-wht-blank_maps.png</href>
        </Icon>
        <hotSpot x="32" xunits="pixels" y="64" yunits="insetPixels"/>
      </IconStyle>
      <LabelStyle>
        <scale>0</scale>
      </LabelStyle>
      <BalloonStyle>
        <text><![CDATA[<h3>$[name]</h3>]]></text>
      </BalloonStyle>
    </Style>
    <Style id="icon-1899-DB4436-nodesc-highlight">
      <IconStyle>
        <color>ff3644db</color>
        <scale>1</scale>
        <Icon>
          <href>https://www.gstatic.com/mapspro/images/stock/503-wht-blank_maps.png</href>
        </Icon>
        <hotSpot x="32" xunits="pixels" y="64" yunits="insetPixels"/>
      </IconStyle>
      <LabelStyle>
        <scale>1</scale>
      </LabelStyle>
      <BalloonStyle>
        <text><![CDATA[<h3>$[name]</h3>]]></text>
      </BalloonStyle>
    </Style>
    <StyleMap id="icon-1899-DB4436-nodesc">
      <Pair>
        <key>normal</key>
        <styleUrl>#icon-1899-DB4436-nodesc-normal</styleUrl>
      </Pair>
      <Pair>
        <key>highlight</key>
        <styleUrl>#icon-1899-DB4436-nodesc-highlight</styleUrl>
      </Pair>
    </StyleMap>
    <Style id="line-1267FF-5000-nodesc-normal">
      <LineStyle>
        <color>ffff6712</color>
        <width>5</width>
      </LineStyle>
      <BalloonStyle>
        <text><![CDATA[<h3>$[name]</h3>]]></text>
      </BalloonStyle>
    </Style>
    <Style id="line-1267FF-5000-nodesc-highlight">
      <LineStyle>
        <color>ffff6712</color>
        <width>7.5</width>
      </LineStyle>
      <BalloonStyle>
        <text><![CDATA[<h3>$[name]</h3>]]></text>
      </BalloonStyle>
    </Style>
    <StyleMap id="line-1267FF-5000-nodesc">
      <Pair>
        <key>normal</key>
        <styleUrl>#line-1267FF-5000-nodesc-normal</styleUrl>
      </Pair>
      <Pair>
        <key>highlight</key>
        <styleUrl>#line-1267FF-5000-nodesc-highlight</styleUrl>
      </Pair>
    </StyleMap>
    <Placemark>
      <name>goithau-51</name>
      <styleUrl>#line-1267FF-5000-nodesc</styleUrl>
      <LineString>
        <tessellate>1</tessellate>
        <coordinates>
          109.32819,13.00024,0
          109.32833,13.00029,0
          109.32871,12.9994,0
          109.32904,12.99856,0
          109.33011,12.99603,0
          109.33221,12.99086,0
          109.33245,12.99031,0
          109.3325,12.99018,0
          109.33252,12.99014,0
          109.33257,12.99002,0
          109.33259,12.98998,0
          109.33318,12.98851,0
          109.33333,12.98818,0
          109.33355,12.98763,0
          109.33399,12.9866,0
          109.33408,12.98641,0
          109.33418,12.98616,0
          109.33468,12.98501,0
          109.33473,12.98491,0
          109.33475,12.98489,0
          109.3348,12.98485,0
          109.33487,12.98471,0
          109.33497,12.98459,0
          109.33499,12.98456,0
          109.33524,12.98432,0
          109.33565,12.98396,0
          109.33599,12.9837,0
          109.33643,12.98334,0
          109.33662,12.98316,0
          109.3368,12.98296,0
          109.33695,12.98273,0
          109.33709,12.98244,0
          109.33714,12.98228,0
          109.33721,12.98195,0
          109.33725,12.98155,0
          109.3372,12.97933,0
          109.33718,12.97632,0
          109.33719,12.97517,0
          109.33721,12.97486,0
          109.33727,12.9745,0
          109.33737,12.97419,0
          109.3375,12.97393,0
          109.33757,12.97381,0
          109.33759,12.97376,0
          109.33762,12.97371,0
          109.33765,12.97364,0
          109.3378,12.97343,0
          109.3379,12.97332,0
          109.33796,12.97327,0
          109.33821,12.97311,0
          109.33837,12.97302,0
          109.33936,12.97252,0
          109.34346,12.97063,0
          109.3438,12.97041,0
          109.344,12.97023,0
          109.34407,12.97015,0
          109.34424,12.96993,0
          109.34441,12.96965,0
          109.34456,12.96938,0
          109.34476,12.96905,0
          109.34486,12.96886,0
          109.34497,12.96868,0
          109.34546,12.9678,0
          109.34548,12.96777,0
          109.34623,12.96645,0
          109.34628,12.96635,0
          109.34646,12.96604,0
          109.34654,12.96588,0
          109.3473,12.96454,0
          109.34732,12.96448,0
          109.34896,12.9616,0
          109.34903,12.96146,0
          109.34943,12.96076,0
          109.34949,12.96064,0
          109.34994,12.95985,0
          109.34994,12.95984,0
          109.35112,12.95774,0
          109.35115,12.95768,0
          109.35176,12.95661,0
          109.35232,12.95558,0
          109.35255,12.95519,0
          109.35304,12.95431,0
          109.35304,12.95429,0
          109.35349,12.9535,0
          109.35357,12.95334,0
          109.35366,12.95319,0
          109.35626,12.94856,0
          109.35634,12.9484,0
          109.35635,12.94839,0
          109.35637,12.94836,0
          109.35698,12.94726,0
          109.35707,12.94711,0
          109.35707,12.9471,0
          109.35725,12.94679,0
          109.35726,12.94678,0
          109.35735,12.94664,0
          109.35743,12.9465,0
          109.35755,12.94634,0
          109.35761,12.94624,0
          109.35765,12.94619,0
          109.3582,12.9454,0
          109.35827,12.94529,0
          109.35829,12.94525,0
          109.35836,12.94513,0
          109.35849,12.94485,0
          109.35856,12.94468,0
          109.35857,12.94464,0
          109.35863,12.94447,0
          109.35877,12.94394,0
          109.35899,12.94293,0
          109.35902,12.94275,0
          109.3592,12.9419,0
          109.35969,12.93925,0
          109.36036,12.93596,0
          109.36044,12.93564,0
          109.36051,12.93532,0
          109.36059,12.93504,0
          109.36084,12.93425,0
          109.36143,12.93253,0
          109.36148,12.93236,0
          109.36191,12.93109,0
          109.36212,12.93034,0
          109.36217,12.93012,0
          109.36221,12.92991,0
          109.36232,12.92918,0
          109.36235,12.9289,0
          109.36239,12.92827,0
          109.3624,12.92796,0
          109.3624,12.92767,0
          109.36235,12.92668,0
          109.36233,12.92645,0
          109.3623,12.92576,0
          109.36233,12.9253,0
          109.36235,12.92515,0
          109.36235,12.92509,0
          109.36243,12.92461,0
          109.36254,12.92419,0
          109.36273,12.92363,0
          109.36282,12.9234,0
          109.36299,12.92291,0
          109.36471,12.91821,0
          109.36472,12.91817,0
          109.36477,12.91804,0
          109.36478,12.918,0
          109.36512,12.91709,0
          109.36523,12.91682,0
          109.36597,12.91479,0
          109.36598,12.91479,0
          109.36598,12.91478,0
          109.36599,12.91476,0
          109.36603,12.91464,0
          109.36604,12.91462,0
          109.36668,12.91274,0
          109.36691,12.91215,0
          109.36724,12.91123,0
          109.36742,12.91067,0
          109.36749,12.91051,0
          109.36763,12.90994,0
          109.36769,12.90956,0
          109.36771,12.90938,0
          109.36772,12.90923,0
          109.36774,12.90912,0
          109.36774,12.90896,0
          109.36776,12.90876,0
          109.36776,12.90846,0
          109.36772,12.90767,0
          109.36766,12.90727,0
          109.36759,12.90694,0
          109.36758,12.90687,0
          109.36744,12.90633,0
          109.36735,12.90604,0
          109.36724,12.90574,0
          109.36702,12.90526,0
          109.36689,12.905,0
          109.36667,12.90462,0
          109.36635,12.90416,0
          109.36558,12.90321,0
          109.36542,12.90297,0
          109.3653,12.90281,0
          109.36525,12.90272,0
          109.36512,12.90252,0
          109.36507,12.90241,0
          109.36502,12.90233,0
          109.36478,12.90181,0
          109.36459,12.90126,0
          109.3645,12.90085,0
          109.36449,12.90077,0
          109.36449,12.90075,0
          109.36445,12.90044,0
          109.36443,12.90016,0
          109.36437,12.89874,0
          109.36437,12.8981,0
          109.36435,12.89776,0
          109.36435,12.89763,0
          109.3643,12.897,0
          109.3643,12.89687,0
          109.36426,12.89612,0
          109.36426,12.89592,0
          109.36424,12.89547,0
          109.36423,12.89452,0
          109.36422,12.89428,0
          109.36422,12.89403,0
          109.36421,12.89383,0
          109.36422,12.89363,0
          109.36424,12.89343,0
          109.36431,12.89299,0
          109.36439,12.89267,0
          109.36447,12.89245,0
          109.36458,12.89218,0
          109.36469,12.89198,0
          109.36471,12.89195,0
          109.36472,12.89194,0
          109.36479,12.89181,0
          109.36489,12.89165,0
          109.36489,12.89164,0
          109.36509,12.89135,0
          109.36531,12.89108,0
          109.36557,12.89079,0
          109.36568,12.89068,0
          109.36583,12.89055,0
          109.36613,12.89032,0
          109.36623,12.89025,0
          109.36679,12.8899,0
          109.36706,12.88971,0
          109.36718,12.88964,0
          109.36736,12.8895,0
          109.36749,12.88942,0
          109.3677,12.88927,0
          109.36842,12.88881,0
          109.36856,12.88871,0
          109.36865,12.88866,0
          109.36944,12.88817,0
          109.36994,12.88783,0
          109.37013,12.88771,0
          109.37038,12.88754,0
          109.37048,12.88746,0
          109.3706,12.88735,0
          109.37071,12.88726,0
          109.37107,12.88686,0
          109.3713,12.88655,0
          109.37158,12.8861,0
          109.37162,12.88602,0
          109.37169,12.8859,0
          109.37192,12.88537,0
          109.37198,12.88521,0
          109.37203,12.88498,0
          109.37206,12.88488,0
          109.37213,12.88438,0
          109.37214,12.88421,0
          109.37213,12.88367,0
          109.37209,12.88315,0
          109.37206,12.88298,0
          109.37205,12.88289,0
          109.37202,12.88281,0
          109.37193,12.88249,0
          109.37188,12.88236,0
          109.37186,12.88232,0
          109.37182,12.88219,0
          109.37099,12.88004,0
          109.37093,12.87987,0
          109.37073,12.87936,0
          109.37067,12.87919,0
          109.3706,12.87903,0
          109.37028,12.87818,0
          109.37021,12.87802,0
          109.37015,12.87785,0
          109.37008,12.87768,0
          109.36996,12.87734,0
          109.36898,12.87482,0
          109.36886,12.87448,0
          109.36821,12.87279,0
          109.36814,12.87263,0
          109.36808,12.87246,0
          109.3673,12.87044,0
          109.3672,12.87016,0
          109.36717,12.8701,0
          109.36711,12.86993,0
          109.36528,12.86522,0
          109.36522,12.86505,0
          109.36365,12.86101,0
          109.36359,12.86084,0
          109.36033,12.85243,0
          109.36027,12.85226,0
          109.36007,12.85176,0
          109.36001,12.85159,0
          109.35798,12.84638,0
          109.35797,12.84637,0
          109.35796,12.84635,0
          109.35791,12.84621,0
          109.35791,12.8462,0
          109.3579,12.84618,0
          109.35766,12.84548,0
          109.35757,12.84514,0
          109.3575,12.84483,0
          109.3575,12.84479,0
          109.35748,12.84472,0
          109.35747,12.84465,0
          109.35747,12.84464,0
          109.35746,12.84462,0
          109.35744,12.84446,0
          109.35742,12.84436,0
          109.35737,12.84392,0
          109.35735,12.84331,0
          109.35737,12.84281,0
          109.3574,12.84245,0
          109.35748,12.84201,0
          109.35757,12.84165,0
          109.3576,12.84149,0
          109.35769,12.84117,0
          109.35789,12.84056,0
          109.35794,12.84043,0
          109.35823,12.83954,0
          109.35834,12.83907,0
          109.35835,12.83901,0
          109.35839,12.83887,0
          109.35843,12.83863,0
          109.35846,12.83835,0
          109.35847,12.83831,0
          109.35849,12.838,0
          109.3585,12.83795,0
          109.3585,12.83789,0
          109.35851,12.83782,0
          109.35854,12.8372,0
          109.35852,12.83651,0
          109.35849,12.83618,0
          109.35849,12.83616,0
          109.35844,12.8358,0
          109.35844,12.83577,0
          109.35833,12.83512,0
          109.35832,12.83509,0
          109.35828,12.83492,0
          109.35828,12.83491,0
          109.35824,12.83474,0
          109.35814,12.8344,0
          109.35802,12.83403,0
          109.35794,12.83381,0
          109.35776,12.83324,0
          109.35731,12.83168,0
          109.35729,12.83163,0
          109.35721,12.83133,0
          109.35711,12.83101,0
          109.35709,12.83097,0
          109.35685,12.8301,0
          109.35683,12.83005,0
          109.3566,12.82925,0
          109.3565,12.82896,0
          109.35644,12.82872,0
          109.35624,12.82801,0
          109.35607,12.8273,0
          109.35597,12.82682,0
          109.35596,12.8268,0
          109.35586,12.82622,0
          109.35584,12.82615,0
          109.35584,12.82611,0
          109.35571,12.82506,0
          109.35569,12.82479,0
          109.35568,12.82471,0
          109.35557,12.8222,0
          109.35557,12.8221,0
          109.35555,12.82182,0
          109.35554,12.82174,0
          109.35554,12.8217,0
          109.35537,12.81994,0
          109.35537,12.81977,0
          109.35535,12.81918,0
          109.3553,12.81841,0
          109.35527,12.8177,0
          109.35528,12.81764,0
          109.35512,12.81701,0
          109.35511,12.81693,0
          109.35509,12.81683,0
          109.35501,12.81631,0
          109.35501,12.8163,0
          109.35492,12.81576,0
          109.35491,12.81575,0
          109.35491,12.8157,0
          109.35488,12.81559,0
          109.35479,12.81506,0
          109.35471,12.81468,0
          109.35442,12.81347,0
          109.35405,12.81232,0
          109.35404,12.81228,0
          109.35376,12.81168,0
          109.35353,12.81133,0
          109.35315,12.81085,0
          109.35296,12.81065,0
          109.35265,12.81038,0
          109.35224,12.81008,0
          109.35189,12.80989,0
          109.35156,12.80973,0
          109.3513,12.80963,0
          109.35074,12.80945,0
          109.3461,12.80819,0
          109.34599,12.80818,0
          109.34576,12.80814,0
          109.34559,12.80812,0
          109.34556,12.80811,0
          109.34531,12.80807,0
          109.34441,12.80782,0
          109.34422,12.80778,0
          109.34404,12.80775,0
          109.34378,12.80773,0
          109.34351,12.80772,0
          109.34321,12.80773,0
          109.3425,12.80782,0
          109.34212,12.80783,0
          109.34198,12.80781,0
          109.3418,12.80776,0
          109.34158,12.80767,0
          109.34148,12.80761,0
          109.34136,12.80753,0
          109.34123,12.80742,0
          109.34113,12.80732,0
          109.34103,12.80717,0
          109.34093,12.80699,0
          109.34081,12.80673,0
          109.34071,12.80649,0
          109.34068,12.80645,0
          109.34035,12.80581,0
          109.3402,12.80556,0
          109.34009,12.80541,0
          109.34,12.80531,0
          109.33994,12.80525,0
          109.33991,12.80523,0
          109.33981,12.80513,0
          109.33978,12.80507,0
          109.33969,12.805,0
          109.33944,12.80483,0
          109.33899,12.80461,0
          109.33872,12.8045,0
          109.33822,12.80434,0
          109.3382,12.80434,0
          109.33597,12.80362,0
          109.33509,12.80335,0
          109.3343,12.80309,0
          109.33419,12.80307,0
          109.33369,12.80295,0
          109.33001,12.80236,0
          109.32942,12.80229,0
          109.32928,12.80226,0
          109.32924,12.80226,0
          109.32897,12.80222,0
          109.32854,12.80212,0
          109.32836,12.80207,0
          109.32815,12.802,0
          109.32793,12.80191,0
          109.32657,12.80131,0
          109.32634,12.8012,0
          109.32546,12.80082,0
          109.32486,12.80054,0
          109.32453,12.80035,0
          109.32437,12.80025,0
          109.32419,12.80012,0
          109.3236,12.79962,0
          109.32112,12.79742,0
          109.32081,12.79713,0
          109.31513,12.7921,0
          109.31443,12.79146,0
          109.30821,12.78593,0
          109.30737,12.78521,0
          109.30665,12.78462,0
          109.30634,12.78434,0
          109.3056,12.7837,0
          109.30347,12.78174,0
          109.30248,12.78087,0
          109.30168,12.78014,0
          109.30109,12.77963,0
          109.3001,12.77874,0
          109.29966,12.77832,0
          109.29742,12.77634,0
          109.29638,12.77537,0
          109.29441,12.77364,0
          109.2933,12.77261,0
          109.29328,12.7726,0
          109.29269,12.77205,0
          109.29111,12.7707,0
          109.28797,12.7679,0
          109.28762,12.76757,0
          109.28746,12.76739,0
          109.28709,12.76692,0
          109.28626,12.76579,0
          109.28597,12.76537,0
          109.28563,12.76493,0
          109.28532,12.76449,0
          109.28505,12.76415,0
          109.28177,12.75965,0
          109.28142,12.75922,0
          109.28019,12.75786,0
          109.27973,12.75741,0
          109.27712,12.75522,0
          109.27668,12.75481,0
          109.27641,12.75454,0
          109.27618,12.75426,0
          109.27593,12.75389,0
          109.27542,12.75317,0
          109.27499,12.75253,0
          109.27494,12.75247,0
          109.27474,12.75216,0
          109.27454,12.75189,0
          109.27429,12.75151,0
          109.2736,12.75028,0
          109.27277,12.74871,0
          109.27269,12.74858,0
          109.2722,12.74765,0
          109.27199,12.74728,0
          109.27143,12.74623,0
          109.27113,12.74564,0
          109.27106,12.74552,0
          109.27076,12.74493,0
          109.27065,12.74466,0
          109.27061,12.74454,0
          109.27054,12.74439,0
          109.27043,12.74403,0
          109.27032,12.74362,0
          109.27005,12.74285,0
          109.26999,12.74272,0
          109.26983,12.74243,0
          109.26966,12.74219,0
          109.26944,12.74193,0
          109.26915,12.74161,0
          109.2682,12.74064,0
          109.26795,12.74041,0
          109.26784,12.74032,0
          109.26773,12.74025,0
          109.26766,12.7402,0
          109.26746,12.74008,0
          109.26745,12.74007,0
          109.26718,12.73995,0
          109.26688,12.73985,0
          109.26658,12.73979,0
          109.26618,12.73969,0
          109.26519,12.7395,0
          109.26441,12.73937,0
          109.26418,12.73931,0
          109.26395,12.73924,0
          109.26322,12.73895,0
          109.26263,12.73869,0
          109.26244,12.73859,0
          109.26213,12.73841,0
          109.26205,12.73837,0
          109.26198,12.73834,0
          109.26132,12.73802,0
          109.26032,12.73757,0
          109.25968,12.73731,0
          109.25946,12.73723,0
          109.25929,12.73716,0
          109.25843,12.73684,0
          109.25843,12.73683,0
          109.25816,12.73673,0
          109.2579,12.73666,0
          109.25686,12.73635,0
          109.25543,12.73598,0
          109.2545,12.73571,0
          109.25392,12.73549,0
          109.25314,12.73514,0
          109.25256,12.73483,0
          109.25196,12.73447,0
          109.25158,12.73409,0
          109.25123,12.73371,0
          109.25119,12.73366,0
          109.25106,12.73353,0
          109.25094,12.73339,0
          109.25074,12.73319,0
          109.24915,12.73152,0
          109.24875,12.73114,0
          109.24846,12.73089,0
          109.24686,12.72957,0
          109.24438,12.72745,0
          109.24438,12.72744,0
          109.24434,12.72741,0
          109.24245,12.72578,0
          109.24244,12.72578,0
          109.24241,12.72575,0
          109.24147,12.72496,0
          109.24137,12.72495,0
          109.24127,12.72495,0
          109.24122,12.72496,0
          109.24117,12.72496,0
          109.24113,12.72497,0
          109.24108,12.72499,0
          109.24089,12.72509,0
          109.24078,12.72547,0
          109.24078,12.72548,0
          109.24034,12.72699,0
          109.24034,12.72702,0
          109.23949,12.72993,0
          109.23944,12.73014,0
          109.23908,12.73141,0
          109.23908,12.73144,0
          109.23904,12.73158,0
          109.23903,12.73159,0
          109.23892,12.73205,0
          109.23892,12.73207,0
          109.23879,12.73252,0
          109.23876,12.73258,0
          109.23871,12.73273,0
          109.23864,12.73285,0
          109.23849,12.73304,0
          109.2383,12.73316,0
          109.23818,12.73322,0
          109.23805,12.73326,0
          109.23792,12.73328,0
          109.23784,12.73328,0
          109.23765,12.73326,0
          109.23757,12.73324,0
          109.23749,12.73321,0
          109.23745,12.73319,0
          109.23742,12.73317,0
          109.23738,12.73315,0
          109.23732,12.73311,0
          109.2373,12.73309,0
          109.23719,12.73301,0
          109.23705,12.73285,0
          109.23698,12.73274,0
          109.23686,12.73245,0
          109.23674,12.73205,0
          109.23673,12.73199,0
          109.23671,12.73194,0
          109.23668,12.73183,0
          109.23665,12.73168,0
          109.23661,12.73157,0
          109.23651,12.73133,0
          109.23647,12.73125,0
          109.23641,12.73115,0
          109.23632,12.73102,0
          109.23623,12.73092,0
          109.23622,12.7309,0
          109.23608,12.73076,0
          109.23597,12.73067,0
          109.23572,12.73051,0
          109.2356,12.73044,0
          109.23493,12.73009,0
          109.23482,12.73001,0
          109.23471,12.72992,0
          109.234,12.72961,0
          109.23282,12.72905,0
          109.23269,12.729,0
          109.23021,12.72782,0
          109.23007,12.72776,0
          109.22703,12.7263,0
          109.22504,12.72538,0
          109.22098,12.72343,0
          109.21939,12.72258,0
          109.21864,12.72215,0
          109.21823,12.7219,0
          109.21756,12.72146,0
          109.21698,12.72106,0
          109.21605,12.72038,0
          109.21569,12.7201,0
          109.21502,12.71954,0
          109.21412,12.71874,0
          109.21387,12.71848,0
          109.2136,12.71823,0
          109.21312,12.71776,0
          109.21274,12.71735,0
          109.21117,12.71556,0
          109.2106,12.71485,0
          109.20992,12.71404,0
          109.20968,12.71373,0
          109.20929,12.71327,0
          109.20705,12.71049,0
          109.2067,12.71008,0
          109.20633,12.70962,0
          109.2063,12.70959,0
          109.20451,12.70738,0
          109.20388,12.70663,0
          109.20346,12.70606,0
          109.20332,12.7059,0
          109.20321,12.70576,0
          109.20309,12.70562,0
          109.20298,12.70548,0
          109.20286,12.70534,0
          109.20264,12.70506,0
          109.20252,12.70492,0
          109.20231,12.70465,0
          109.2023,12.70464,0
          109.20083,12.70284,0
          109.20071,12.70271,0
          109.2005,12.70245,0
          109.20048,12.70243,0
          109.20037,12.70229,0
          109.20025,12.70215,0
          109.20014,12.70201,0
          109.20011,12.70198,0
          109.199,12.70061,0
          109.19877,12.70034,0
          109.19372,12.69413,0
          109.19297,12.69314,0
          109.19179,12.69142,0
          109.1916,12.69111,0
          109.19151,12.69095,0
          109.1915,12.69094,0
          109.19142,12.6908,0
          109.19121,12.69046,0
          109.18981,12.68767,0
          109.18974,12.68751,0
          109.18935,12.68672,0
          109.18935,12.6867,0
          109.18795,12.68392,0
          109.18771,12.68339,0
          109.18655,12.68105,0
          109.18619,12.68035,0
          109.18267,12.67315,0
          109.1821,12.67181,0
          109.18146,12.67013,0
          109.18133,12.66975,0
          109.18091,12.66836,0
          109.18078,12.66788,0
          109.1806,12.66694,0
          109.18043,12.66617,0
          109.18014,12.66423,0
          109.17952,12.6596,0
          109.17944,12.65911,0
          109.17851,12.652,0
          109.17771,12.64618,0
          109.1777,12.64615,0
          109.17603,12.63371,0
          109.17562,12.63087,0
          109.17527,12.6291,0
          109.17496,12.6279,0
          109.17477,12.62722,0
          109.17438,12.62606,0
          109.17431,12.62588,0
          109.17401,12.62501,0
          109.17394,12.62484,0
          109.17382,12.62451,0
          109.17358,12.62395,0
          109.1728,12.62226,0
          109.17195,12.62065,0
          109.17162,12.62007,0
          109.17133,12.6196,0
          109.1705,12.61838,0
          109.16998,12.61757,0
          109.16998,12.61756,0
          109.16894,12.61631,0
          109.1674,12.61452,0
          109.16739,12.6145,0
          109.16629,12.61339,0
          109.16517,12.61237,0
          109.16308,12.61065,0
          109.16282,12.61045,0
          109.15828,12.60676,0
          109.15607,12.605,0
          109.15599,12.60493,0
          109.15183,12.60158,0
          109.15074,12.60074,0
          109.1477,12.59824,0
          109.14706,12.59773,0
          109.14698,12.59766,0
          109.14673,12.59746,0
          109.14658,12.59735,0
          109.14644,12.59723,0
          109.1443,12.5955,0
          109.14334,12.59468,0
          109.14244,12.59394,0
          109.14202,12.59361,0
          109.14027,12.59218,0
          109.13983,12.5918,0
          109.139,12.59115,0
          109.13834,12.5906,0
          109.13792,12.59027,0
          109.1377,12.59008,0
          109.13624,12.58889,0
          109.1362,12.58885,0
          109.13452,12.5875,0
          109.13289,12.58612,0
          109.13208,12.58534,0
          109.13128,12.5847,0
          109.13081,12.5843,0
          109.13051,12.58406,0
          109.13001,12.58369,0
          109.12963,12.58345,0
          109.12933,12.58323,0
          109.12911,12.58305,0
          109.12892,12.58291,0
          109.12784,12.58199,0
          109.12512,12.57984,0
          109.12506,12.5798,0
          109.12324,12.57836,0
          109.12222,12.57753,0
          109.12139,12.57689,0
          109.11995,12.57573,0
          109.11941,12.57531,0
          109.11537,12.57206,0
          109.11513,12.57188,0
          109.11458,12.57142,0
          109.11404,12.57101,0
          109.1131,12.57027,0
          109.11292,12.57012,0
          109.11288,12.5701,0
          109.111,12.56859,0
          109.11058,12.56824,0
          109.11015,12.56791,0
          109.10799,12.56619,0
          109.10761,12.5659,0
          109.10648,12.56499,0
          109.1045,12.56326,0
          109.10284,12.56167,0
          109.10175,12.56055,0
          109.10139,12.56014,0
          109.10085,12.55957,0
          109.10045,12.55913,0
          109.09997,12.55857,0
          109.09927,12.55768,0
          109.09926,12.55768,0
          109.098,12.55617,0
          109.09787,12.55599,0
          109.09756,12.55552,0
          109.0971,12.55476,0
          109.09709,12.55474,0
          109.09663,12.55398,0
          109.09662,12.55397,0
          109.09582,12.55267,0
          109.09578,12.55259,0
          109.09561,12.55231,0
          109.09555,12.5522,0
          109.09499,12.55127,0
          109.09497,12.55123,0
          109.09471,12.5508,0
          109.0937,12.54893,0
          109.09316,12.54788,0
          109.09307,12.54772,0
          109.09225,12.54612,0
          109.09216,12.54596,0
          109.09212,12.54587,0
          109.09179,12.54524,0
          109.09157,12.54475,0
          109.09156,12.54475,0
          109.09134,12.54427,0
          109.09104,12.54367,0
          109.09102,12.54362,0
          109.09093,12.54346,0
          109.09088,12.54334,0
          109.09061,12.54282,0
          109.0905,12.54263,0
          109.09037,12.54234,0
          109.08983,12.54122,0
          109.08955,12.54061,0
          109.08771,12.53685,0
          109.08765,12.53674,0
          109.08755,12.53652,0
          109.08589,12.5331,0
          109.08588,12.53306,0
          109.08503,12.53131,0
          109.08501,12.53128,0
          109.08461,12.53051,0
          109.08438,12.53004,0
          109.08428,12.52981,0
          109.08299,12.52727,0
          109.08246,12.52616,0
          109.08245,12.52613,0
          109.08231,12.52583,0
          109.08201,12.52527,0
          109.08198,12.5252,0
          109.0819,12.52504,0
          109.08168,12.52456,0
          109.08066,12.5225,0
          109.07981,12.52065,0
          109.07885,12.51878,0
          109.07822,12.51748,0
          109.07794,12.51687,0
          109.07756,12.51615,0
          109.07371,12.50829,0
          109.07355,12.50798,0
          109.07241,12.50561,0
          109.07184,12.50449,0
          109.07123,12.50318,0
          109.07045,12.50163,0
          109.07034,12.50139,0
          109.07024,12.5012,0
          109.07006,12.50081,0
          109.06988,12.50048,0
          109.06973,12.50016,0
          109.06917,12.49907,0
          109.0691,12.49892,0
          109.06894,12.49861,0
          109.06877,12.49835,0
          109.06868,12.4982,0
          109.06848,12.4979,0
          109.06839,12.49774,0
          109.06819,12.49744,0
          109.0681,12.49729,0
          109.0679,12.49699,0
          109.06674,12.49516,0
          109.06654,12.49486,0
          109.06567,12.49349,0
          109.06566,12.49348,0
          109.065,12.49262,0
          109.06371,12.49107,0
          109.06203,12.48912,0
          109.06028,12.48733,0
          109.05848,12.48562,0
          109.05616,12.48346,0
          109.05371,12.48128,0
          109.05314,12.48075,0
          109.05309,12.48071,0
          109.05184,12.47957,0
          109.05158,12.47932,0
          109.05033,12.4782,0
          109.04978,12.47773,0
          109.03663,12.46583,0
          109.0366,12.46581,0
          109.03516,12.46451,0
          109.03488,12.46427,0
          109.0319,12.46159,0
          109.03177,12.46146,0
          109.03055,12.46037,0
          109.03042,12.46024,0
          109.02783,12.45791,0
          109.0277,12.45778,0
          109.02757,12.45767,0
          109.02716,12.45729,0
          109.02702,12.45717,0
          109.02623,12.45645,0
          109.02611,12.45633,0
          109.01906,12.44997,0
          109.01838,12.44934,0
          109.01549,12.44678,0
          109.01317,12.44496,0
          109.01086,12.44335,0
          109.00981,12.44266,0
          108.99802,12.43592,0
          108.99786,12.43582,0
          108.99732,12.43552,0
          108.99707,12.43537,0
          108.9961,12.43482,0
          108.99385,12.43362,0
          108.99166,12.43234,0
          108.99057,12.43161,0
          108.99041,12.43151,0
          108.98996,12.4312,0
          108.98842,12.42995,0
          108.98827,12.42981,0
          108.98639,12.42816,0
          108.98635,12.42813,0
          108.98622,12.428,0
          108.97884,12.42124,0
          108.97868,12.42111,0
          108.97478,12.41758,0
          108.97426,12.41709,0
          108.97412,12.41697,0
          108.97155,12.4146,0
          108.97142,12.41447,0
          108.97078,12.41388,0
          108.97064,12.41376,0
          108.97007,12.41322,0
          108.96997,12.41314,0
          108.96967,12.41287,0
          108.96956,12.41278,0
          108.96954,12.41275,0
          108.96784,12.41125,0
          108.96725,12.41069,0
          108.96632,12.40967,0
          108.96546,12.40852,0
          108.96493,12.4077,0
          108.96443,12.40676,0
          108.96395,12.4057,0
          108.96356,12.40453,0
          108.9634,12.40388,0
          108.9632,12.40284,0
          108.96308,12.40144,0
          108.96308,12.40049,0
          108.96318,12.39904,0
          108.96339,12.39677,0
          108.96447,12.38631,0
          108.96462,12.38455,0
          108.96519,12.37863,0
          108.9652,12.37862,0
          108.96521,12.37844,0
          108.96575,12.37292,0
          108.96583,12.36823,0
          108.96577,12.36655,0
          108.96558,12.36461,0
          108.96532,12.36247,0
          108.96498,12.36055,0
          108.96455,12.35837,0
          108.96419,12.35701,0
          108.96385,12.35554,0
          108.96111,12.34518,0
          108.9606,12.34296,0
          108.9604,12.3418,0
          108.96024,12.34054,0
          108.96017,12.33984,0
          108.96012,12.33914,0
          108.9601,12.3387,0
          108.96009,12.33866,0
          108.96008,12.33745,0
          108.96013,12.33617,0
          108.96014,12.33612,0
          108.96017,12.33562,0
          108.96025,12.33469,0
          108.96035,12.33388,0
          108.96048,12.33307,0
          108.9607,12.33202,0
          108.96073,12.33185,0
          108.96077,12.33167,0
          108.96078,12.33159,0
          108.96094,12.33096,0
          108.96112,12.33033,0
          108.96122,12.32993,0
          108.96145,12.32917,0
          108.9619,12.32793,0
          108.96233,12.32695,0
          108.96261,12.32636,0
          108.96282,12.32588,0
          108.96438,12.32275,0
          108.9658,12.31998,0
          108.96759,12.31641,0
          108.96792,12.31569,0
          108.96798,12.31554,0
          108.9689,12.31349,0
          108.9692,12.31273,0
          108.97072,12.30868,0
          108.97079,12.30851,0
          108.97235,12.30436,0
          108.97301,12.30274,0
          108.97361,12.30106,0
          108.97496,12.29749,0
          108.97571,12.29569,0
          108.97725,12.29233,0
          108.97742,12.29209,0
          108.97785,12.2912,0
          108.97792,12.29104,0
          108.97793,12.29104,0
          108.97939,12.28814,0
          108.97958,12.28773,0
          108.98221,12.28248,0
          108.98299,12.28088,0
          108.98595,12.27496,0
          108.98616,12.27452,0
          108.98676,12.27334,0
          108.98708,12.27276,0
          108.98785,12.27154,0
          108.98814,12.27112,0
          108.98903,12.26999,0
          108.9894,12.26957,0
          108.99025,12.26871,0
          108.99092,12.26808,0
          108.99163,12.26749,0
          108.99201,12.2672,0
          108.99273,12.26669,0
          108.99328,12.26634,0
          108.99372,12.26608,0
          108.99394,12.26594,0
          108.99487,12.26545,0
          108.99518,12.26531,0
          108.99525,12.26527,0
          108.99608,12.2649,0
          108.99704,12.26454,0
          108.99778,12.2643,0
          108.99818,12.26418,0
          108.99897,12.26397,0
          108.99923,12.26391,0
          108.99958,12.26381,0
          108.99994,12.26373,0
          109.00012,12.26368,0
          109.00265,12.26308,0
          109.00855,12.26158,0
          109.00878,12.26153,0
          109.01088,12.26096,0
          109.01133,12.26081,0
          109.01239,12.2604,0
          109.01363,12.25985,0
          109.0139,12.25972,0
          109.01428,12.25952,0
          109.01473,12.25925,0
          109.01599,12.25845,0
          109.01629,12.25824,0
          109.01675,12.25789,0
          109.01696,12.2577,0
          109.01708,12.2576,0
          109.01733,12.25735,0
          109.01772,12.25698,0
          109.01808,12.25662,0
          109.01925,12.25535,0
          109.01958,12.25494,0
          109.02037,12.25384,0
          109.02072,12.2533,0
          109.02126,12.2524,0
          109.02158,12.2518,0
          109.02245,12.2499,0
          109.02269,12.24933,0
          109.02286,12.24889,0
          109.02289,12.2488,0
          109.02295,12.24868,0
          109.02297,12.24862,0
          109.02298,12.2486,0
          109.02308,12.24834,0
          109.02308,12.24832,0
          109.02334,12.24767,0
          109.02336,12.24761,0
          109.02339,12.24756,0
          109.02344,12.24742,0
          109.02348,12.24734,0
          109.02382,12.24655,0
          109.02437,12.24521,0
          109.02438,12.24517,0
          109.02492,12.2439,0
          109.02508,12.2435,0
          109.02515,12.24335,0
          109.02521,12.24318,0
          109.02542,12.24268,0
          109.02548,12.24251,0
          109.02554,12.24237,0
          109.02555,12.24234,0
          109.0259,12.24152,0
          109.02608,12.24105,0
          109.02616,12.24088,0
          109.02656,12.23987,0
          109.02656,12.23986,0
          109.02725,12.23824,0
          109.02769,12.23715,0
          109.02774,12.23705,0
          109.0278,12.23688,0
          109.02839,12.23548,0
          109.02863,12.23488,0
          109.02883,12.23442,0
          109.02886,12.23434,0
          109.02911,12.23375,0
          109.02914,12.23366,0
          109.03076,12.22974,0
          109.0308,12.22963,0
          109.03132,12.22842,0
          109.0314,12.22821,0
          109.0315,12.228,0
          109.03158,12.22777,0
          109.03176,12.22731,0
          109.0319,12.22699,0
          109.03324,12.22374,0
          109.03349,12.22316,0
          109.03349,12.22315,0
          109.03351,12.22311,0
          109.03353,12.22305,0
          109.03397,12.22199,0
          109.03398,12.22196,0
          109.03411,12.22165,0
          109.03419,12.22148,0
          109.03472,12.22026,0
          109.03474,12.22023,0
          109.03474,12.22022,0
          109.03555,12.21839,0
          109.0363,12.21689,0
          109.0363,12.21688,0
          109.03648,12.21652,0
          109.03692,12.2157,0
          109.03692,12.21569,0
          109.03698,12.21557,0
          109.03816,12.21339,0
          109.0382,12.21333,0
          109.03824,12.21325,0
          109.03862,12.21265,0
          109.03907,12.21186,0
          109.03945,12.21113,0
          109.03963,12.21081,0
          109.03967,12.21075,0
          109.03968,12.21072,0
          109.04028,12.20967,0
          109.04036,12.20954,0
          109.04056,12.20917,0
          109.04061,12.20906,0
          109.04067,12.20895,0
          109.04078,12.20877,0
          109.04087,12.2086,0
          109.0411,12.2082,0
          109.04125,12.20792,0
          109.04128,12.20788,0
          109.04194,12.20669,0
          109.04203,12.20654,0
          109.04207,12.20646,0
          109.04261,12.20549,0
          109.04301,12.20484,0
          109.04301,12.20483,0
          109.04311,12.20467,0
          109.04326,12.20439,0
          109.04329,12.20435,0
          109.04344,12.20406,0
          109.04362,12.20376,0
          109.04363,12.20375,0
          109.04365,12.2037,0
          109.04369,12.20363,0
          109.0437,12.2036,0
          109.0442,12.20269,0
          109.0445,12.20219,0
          109.04561,12.20022,0
          109.04568,12.20011,0
          109.0458,12.19985,0
          109.04622,12.19913,0
          109.0463,12.19898,0
          109.04648,12.19867,0
          109.04649,12.19866,0
          109.04703,12.19772,0
          109.04706,12.19766,0
          109.04759,12.19672,0
          109.04764,12.19661,0
          109.04804,12.19594,0
          109.04821,12.19561,0
          109.04859,12.19496,0
          109.04864,12.19486,0
          109.04908,12.19406,0
          109.04911,12.19402,0
          109.05019,12.19197,0
          109.05028,12.19178,0
          109.05033,12.1917,0
          109.05086,12.19065,0
          109.05169,12.18886,0
          109.0519,12.18836,0
          109.05203,12.18808,0
          109.05216,12.18775,0
          109.05222,12.18763,0
          109.05282,12.18611,0
          109.05328,12.18483,0
          109.05366,12.18371,0
          109.05378,12.18332,0
          109.05386,12.18311,0
          109.05424,12.18186,0
          109.05453,12.1808,0
          109.05486,12.17946,0
          109.05494,12.17906,0
          109.05494,12.17905,0
          109.05518,12.178,0
          109.05531,12.17737,0
          109.05556,12.17602,0
          109.05572,12.17498,0
          109.05588,12.17381,0
          109.0559,12.17362,0
          109.05593,12.17345,0
          109.05596,12.17314,0
          109.05608,12.1722,0
          109.05641,12.16924,0
          109.05648,12.16871,0
          109.05653,12.16799,0
          109.05657,12.16766,0
          109.05659,12.16727,0
          109.05661,12.1671,0
          109.05661,12.16704,0
          109.05665,12.16664,0
          109.05669,12.16638,0
          109.05692,12.16442,0
          109.05692,12.1644,0
          109.05695,12.16416,0
          109.05701,12.16351,0
          109.05702,12.16333,0
          109.05709,12.16282,0
          109.0571,12.16263,0
          109.05711,12.16261,0
          109.05718,12.16171,0
          109.05729,12.16084,0
          109.05729,12.16082,0
          109.05741,12.15976,0
          109.05741,12.15974,0
          109.05752,12.15903,0
          109.05762,12.15852,0
          109.05762,12.1585,0
          109.0578,12.15764,0
          109.05781,12.15762,0
          109.05784,12.15747,0
          109.05784,12.15746,0
          109.05785,12.15744,0
          109.05788,12.15729,0
          109.05793,12.15709,0
          109.05796,12.15694,0
          109.05797,12.15692,0
          109.05797,12.15691,0
          109.05831,12.15573,0
          109.05872,12.15456,0
          109.05885,12.15423,0
          109.05912,12.1536,0
          109.05989,12.152,0
          109.06005,12.1517,0
          109.06038,12.15112,0
          109.06039,12.15109,0
          109.06102,12.15008,0
          109.06105,12.15005,0
          109.06126,12.14973,0
          109.06144,12.14942,0
          109.06153,12.14929,0
          109.06154,12.14927,0
          109.06185,12.1488,0
          109.06197,12.14859,0
          109.06213,12.14833,0
          109.06217,12.14828,0
          109.06233,12.14802,0
          109.06263,12.14757,0
          109.06561,12.14284,0
          109.06571,12.1427,0
          109.06597,12.14227,0
          109.06674,12.14105,0
          109.0668,12.14097,0
          109.06682,12.14093,0
          109.06735,12.14012,0
          109.06745,12.13998,0
          109.06756,12.1398,0
          109.06761,12.13974,0
          109.06761,12.13973,0
          109.06769,12.13961,0
          109.06793,12.13929,0
          109.06794,12.13928,0
          109.06794,12.13927,0
          109.06892,12.13798,0
          109.06924,12.13761,0
          109.06985,12.13687,0
          109.07006,12.13664,0
          109.07009,12.1366,0
          109.07013,12.13657,0
          109.07093,12.13572,0
          109.07119,12.13546,0
          109.0712,12.13544,0
          109.07146,12.13518,0
          109.0722,12.1344,0
          109.07277,12.13382,0
          109.07308,12.13349,0
          109.0731,12.13348,0
          109.07314,12.13343,0
          109.07441,12.13213,0
          109.0748,12.1317,0
          109.07522,12.13127,0
          109.07529,12.13121,0
          109.07612,12.13035,0
          109.07617,12.13029,0
          109.07694,12.12952,0
          109.077,12.12945,0
          109.07735,12.12908,0
          109.07779,12.12865,0
          109.07835,12.12806,0
          109.07855,12.12787,0
          109.07909,12.1273,0
          109.08102,12.12537,0
          109.08114,12.12524,0
          109.08228,12.12408,0
          109.08236,12.12401,0
          109.08237,12.12399,0
          109.08275,12.1236,0
          109.08309,12.12329,0
          109.08329,12.12308,0
          109.08331,12.12305,0
          109.08377,12.12258,0
          109.08399,12.12238,0
          109.08528,12.12109,0
          109.0854,12.12096,0
          109.08646,12.11991,0
          109.0866,12.11976,0
          109.09084,12.11554,0
          109.09088,12.11551,0
          109.09097,12.11541,0
          109.09182,12.11455,0
          109.092,12.11438,0
          109.09304,12.11333,0
          109.09314,12.11321,0
          109.0935,12.11281,0
          109.09361,12.1127,0
          109.09381,12.11247,0
          109.09412,12.11208,0
          109.09466,12.11135,0
          109.09487,12.11109,0
          109.09534,12.11044,0
          109.09534,12.11043,0
          109.096,12.10941,0
          109.09601,12.10938,0
          109.09659,12.10836,0
          109.09711,12.10728,0
          109.09711,12.10727,0
          109.09736,12.1067,0
          109.09788,12.10545,0
          109.09804,12.10499,0
          109.09821,12.10454,0
          109.09827,12.10441,0
          109.09832,12.10427,0
          109.09832,12.10426,0
          109.09862,12.10352,0
          109.09872,12.10324,0
          109.09876,12.10316,0
          109.09923,12.10191,0
          109.09924,12.1019,0
          109.09933,12.10164,0
          109.09943,12.1014,0
          109.1003,12.09909,0
          109.10045,12.09873,0
          109.10093,12.09746,0
          109.10096,12.0974,0
          109.10136,12.09634,0
          109.10148,12.09606,0
          109.10153,12.09591,0
          109.10157,12.09582,0
          109.10179,12.09523,0
          109.10186,12.09507,0
          109.10267,12.09293,0
          109.1027,12.09288,0
          109.10276,12.09271,0
          109.10277,12.0927,0
          109.1034,12.09107,0
          109.10342,12.09101,0
          109.10343,12.09097,0
          109.10348,12.09084,0
          109.1035,12.09081,0
          109.10353,12.09072,0
          109.1039,12.08975,0
          109.10393,12.08965,0
          109.10426,12.08881,0
          109.10451,12.08813,0
          109.10451,12.08812,0
          109.10488,12.08722,0
          109.10514,12.08652,0
          109.10517,12.08645,0
          109.10539,12.08586,0
          109.10543,12.08577,0
          109.10546,12.08568,0
          109.10553,12.0855,0
          109.10575,12.08503,0
          109.10591,12.08471,0
          109.10608,12.08426,0
          109.10651,12.08305,0
          109.10662,12.08269,0
          109.1068,12.08219,0
          109.10814,12.0787,0
          109.10817,12.07861,0
          109.10821,12.07853,0
          109.10827,12.07836,0
          109.10847,12.07786,0
          109.10852,12.07771,0
          109.1086,12.07752,0
          109.10912,12.07618,0
          109.10917,12.07607,0
          109.10925,12.07584,0
          109.10944,12.07534,0
          109.10944,12.07533,0
          109.10964,12.07479,0
          109.10988,12.07422,0
          109.11036,12.07293,0
          109.11048,12.07264,0
          109.11067,12.07213,0
          109.11104,12.07122,0
          109.1111,12.07105,0
          109.11124,12.07071,0
          109.11126,12.07067,0
          109.11164,12.06978,0
          109.11166,12.06972,0
          109.11253,12.0676,0
          109.11305,12.06645,0
          109.11308,12.0664,0
          109.11312,12.06628,0
          109.11326,12.06595,0
          109.11339,12.06561,0
          109.11406,12.06406,0
          109.11416,12.0638,0
          109.11437,12.0633,0
          109.11444,12.06311,0
          109.11473,12.06241,0
          109.11481,12.06225,0
          109.11488,12.06209,0
          109.11488,12.06208,0
          109.11538,12.06092,0
          109.11541,12.06086,0
          109.11603,12.05945,0
          109.11603,12.05944,0
          109.11708,12.05694,0
          109.11727,12.05653,0
          109.11764,12.05568,0
          109.11776,12.05537,0
          109.11895,12.05259,0
          109.11945,12.05138,0
          109.11947,12.05134,0
          109.11996,12.05017,0
          109.12004,12.05001,0
          109.1202,12.04965,0
          109.12104,12.04764,0
          109.12114,12.04737,0
          109.12131,12.04687,0
          109.1214,12.04652,0
          109.12144,12.04639,0
          109.12154,12.04601,0
          109.12163,12.04555,0
          109.12172,12.04486,0
          109.12177,12.04429,0
          109.12178,12.04406,0
          109.12178,12.04351,0
          109.12176,12.04334,0
          109.12176,12.04328,0
          109.12173,12.04299,0
          109.12172,12.04281,0
          109.1217,12.0426,0
          109.12169,12.04256,0
          109.12167,12.0423,0
          109.12157,12.04165,0
          109.12146,12.04121,0
          109.12145,12.04119,0
          109.12144,12.04114,0
          109.12127,12.04058,0
          109.12086,12.03951,0
          109.12069,12.03914,0
          109.12036,12.03855,0
          109.11992,12.03783,0
          109.11959,12.03737,0
          109.11933,12.03707,0
          109.11927,12.03698,0
          109.11854,12.03617,0
          109.11848,12.03612,0
          109.11835,12.03599,0
          109.11808,12.03575,0
          109.11806,12.03572,0
          109.11745,12.03525,0
          109.11692,12.03487,0
          109.11666,12.0347,0
          109.11603,12.03434,0
          109.11553,12.0341,0
          109.11476,12.03375,0
          109.11192,12.03254,0
          109.11188,12.03253,0
          109.11075,12.03203,0
          109.11049,12.03193,0
          109.11007,12.03175,0
          109.11005,12.03175,0
          109.10683,12.03035,0
          109.10664,12.03028,0
          109.10552,12.02979,0
          109.10548,12.02978,0
          109.10437,12.02927,0
          109.10227,12.02822,0
          109.10171,12.02792,0
          109.10152,12.02783,0
          109.10057,12.02733,0
          109.10055,12.02731,0
          109.09944,12.02667,0
          109.09853,12.02611,0
          109.0985,12.0261,0
          109.09774,12.02563,0
          109.0976,12.02553,0
          109.09758,12.02552,0
          109.0967,12.02491,0
          109.09668,12.02489,0
          109.09578,12.02427,0
          109.09478,12.02355,0
          109.09433,12.0232,0
          109.09388,12.02287,0
          109.09387,12.02286,0
          109.09228,12.02164,0
          109.09173,12.02119,0
          109.09172,12.02119,0
          109.09171,12.02117,0
          109.09129,12.02086,0
          109.09086,12.02052,0
          109.09084,12.02051,0
          109.08968,12.01962,0
          109.08911,12.01916,0
          109.08866,12.01883,0
          109.08812,12.01839,0
          109.0881,12.01837,0
          109.08786,12.01817,0
          109.08769,12.01805,0
          109.08738,12.01781,0
          109.08727,12.0177,0
          109.08725,12.01769,0
          109.08659,12.01717,0
          109.08659,12.01716,0
          109.08608,12.01674,0
          109.08589,12.01654,0
          109.08587,12.01653,0
          109.08558,12.01624,0
          109.08512,12.01573,0
          109.08476,12.01531,0
          109.0847,12.01523,0
          109.08469,12.01522,0
          109.0842,12.01447,0
          109.08386,12.01388,0
          109.08384,12.01385,0
          109.08382,12.01379,0
          109.08341,12.01295,0
          109.0831,12.01213,0
          109.08309,12.01212,0
          109.08309,12.01211,0
          109.08303,12.0119,0
          109.08301,12.01185,0
          109.08287,12.01125,0
          109.08287,12.01124,0
          109.08275,12.01078,0
          109.08269,12.01033,0
          109.08261,12.00987,0
          109.08257,12.00912,0
          109.08256,12.00596,0
          109.08257,12.00564,0
          109.08255,12.00515,0
          109.08256,12.00482,0
          109.08256,12.0042,0
          109.08258,12.00352,0
          109.08258,12.0032,0
          109.0826,12.00277,0
          109.08256,12.00043,0
          109.08255,12.00029,0
          109.08255,12.00015,0
          109.08256,11.99996,0
          109.08255,11.99943,0
          109.08255,11.99584,0
          109.08256,11.99566,0
          109.08259,11.99361,0
          109.08254,11.99026,0
          109.0825,11.98974,0
          109.0825,11.98963,0
          109.08248,11.98945,0
          109.08245,11.98898,0
          109.08242,11.98867,0
          109.08239,11.98847,0
          109.08228,11.98742,0
          109.0821,11.98636,0
          109.0821,11.98633,0
          109.08207,11.98619,0
          109.08207,11.98618,0
          109.08187,11.98522,0
          109.08187,11.98521,0
          109.08151,11.98382,0
          109.08116,11.98272,0
          109.08116,11.98271,0
          109.08112,11.98256,0
          109.08065,11.9811,0
          109.08062,11.98102,0
          109.07954,11.97754,0
          109.07952,11.97745,0
          109.07949,11.97736,0
          109.07941,11.97707,0
          109.07928,11.97672,0
          109.07924,11.97654,0
          109.0792,11.97641,0
          109.07914,11.97618,0
          109.078,11.97255,0
          109.07798,11.97247,0
          109.07755,11.97116,0
          109.07739,11.97059,0
          109.07671,11.9684,0
          109.07665,11.96823,0
          109.07644,11.96754,0
          109.07638,11.96737,0
          109.07596,11.96599,0
          109.07595,11.96594,0
          109.07593,11.96589,0
          109.07588,11.96571,0
          109.0758,11.96547,0
          109.07578,11.96539,0
          109.07577,11.96537,0
          109.07572,11.9652,0
          109.07568,11.96502,0
          109.0756,11.96477,0
          109.07526,11.96328,0
          109.07506,11.96215,0
          109.07489,11.9609,0
          109.07489,11.96088,0
          109.07488,11.96079,0
          109.07487,11.96042,0
          109.07482,11.95961,0
          109.07482,11.95942,0
          109.0748,11.95893,0
          109.0748,11.95881,0
          109.07485,11.95737,0
          109.07489,11.95701,0
          109.0749,11.95696,0
          109.07497,11.9563,0
          109.07497,11.95627,0
          109.07498,11.95624,0
          109.07498,11.95621,0
          109.07499,11.95612,0
          109.07499,11.95607,0
          109.075,11.95603,0
          109.07502,11.95585,0
          109.07502,11.95582,0
          109.07503,11.95576,0
          109.07506,11.95538,0
          109.07512,11.95486,0
          109.07515,11.95469,0
          109.07515,11.95468,0
          109.07517,11.95459,0
          109.07518,11.95451,0
          109.07541,11.95337,0
          109.07543,11.95329,0
          109.07544,11.95328,0
          109.07556,11.95275,0
          109.07559,11.95266,0
          109.07584,11.95179,0
          109.07588,11.95169,0
          109.07598,11.95135,0
          109.07598,11.95134,0
          109.07609,11.95102,0
          109.07609,11.951,0
          109.07616,11.95083,0
          109.07641,11.95016,0
          109.07655,11.94982,0
          109.07674,11.94939,0
          109.07733,11.94816,0
          109.07745,11.94793,0
          109.07749,11.94787,0
          109.07792,11.94707,0
          109.07817,11.94663,0
          109.07908,11.94524,0
          109.07962,11.94448,0
          109.08004,11.94399,0
          109.08011,11.94389,0
          109.08108,11.94275,0
          109.08128,11.94257,0
          109.08253,11.94134,0
          109.0835,11.9405,0
          109.08427,11.93991,0
          109.08526,11.9392,0
          109.08527,11.93919,0
          109.08541,11.9391,0
          109.08547,11.93907,0
          109.0865,11.93843,0
          109.08656,11.9384,0
          109.08665,11.93834,0
          109.08721,11.938,0
          109.08807,11.9375,0
          109.08813,11.93747,0
          109.09427,11.93388,0
          109.09633,11.93265,0
          109.09671,11.93244,0
          109.09681,11.93239,0
          109.09739,11.93206,0
          109.09793,11.93173,0
          109.0999,11.9306,0
          109.10006,11.93049,0
          109.10007,11.93048,0
          109.10012,11.93044,0
          109.10082,11.92995,0
          109.10113,11.92968,0
          109.1016,11.92923,0
          109.10165,11.92917,0
          109.10182,11.92899,0
          109.1019,11.92889,0
          109.10191,11.92887,0
          109.10198,11.9288,0
          109.10256,11.92805,0
          109.1028,11.92768,0
          109.10294,11.92744,0
          109.10295,11.92744,0
          109.10306,11.92723,0
          109.10344,11.92642,0
          109.10379,11.92545,0
          109.10399,11.92456,0
          109.10405,11.92417,0
          109.10407,11.92407,0
          109.10407,11.92399,0
          109.1041,11.92359,0
          109.10411,11.92292,0
          109.10409,11.92253,0
          109.10402,11.92192,0
          109.10398,11.92165,0
          109.10374,11.92056,0
          109.10365,11.92026,0
          109.10353,11.91993,0
          109.10353,11.91992,0
          109.10335,11.91941,0
          109.10321,11.9189,0
          109.10321,11.91889,0
          109.10313,11.91862,0
          109.1029,11.91807,0
          109.1028,11.91789,0
          109.10259,11.91737,0
          109.10235,11.91668,0
          109.10229,11.91654,0
          109.10217,11.9162,0
          109.10186,11.91553,0
          109.10172,11.91518,0
          109.10167,11.91501,0
          109.10141,11.91426,0
          109.10126,11.91358,0
          109.10125,11.91351,0
          109.10124,11.91348,0
          109.10119,11.91326,0
          109.10118,11.91315,0
          109.10109,11.91262,0
          109.10106,11.91217,0
          109.10106,11.91208,0
          109.10103,11.91162,0
          109.10103,11.91096,0
          109.10098,11.91011,0
          109.10098,11.91004,0
          109.10092,11.90934,0
          109.1009,11.90924,0
          109.10076,11.90773,0
          109.10076,11.90766,0
          109.1007,11.90701,0
          109.10067,11.90627,0
          109.10071,11.9045,0
          109.10063,11.90396,0
          109.10059,11.90349,0
          109.10058,11.90345,0
          109.10058,11.90309,0
          109.10056,11.90273,0
          109.10044,11.90137,0
          109.10044,11.9013,0
          109.10035,11.90011,0
          109.10025,11.89933,0
          109.09995,11.89774,0
          109.09981,11.89718,0
          109.09955,11.89636,0
          109.0992,11.89537,0
          109.09905,11.895,0
          109.09897,11.89482,0
          109.09896,11.89478,0
          109.09891,11.89467,0
          109.09882,11.89444,0
          109.0985,11.89379,0
          109.09825,11.89331,0
          109.09817,11.89318,0
          109.09776,11.89244,0
          109.09733,11.89179,0
          109.09724,11.8916,0
          109.09619,11.88993,0
          109.09618,11.88991,0
          109.09581,11.88937,0
          109.09578,11.88931,0
          109.0951,11.88827,0
          109.09508,11.88825,0
          109.09483,11.88785,0
          109.09482,11.88784,0
          109.09456,11.88741,0
          109.09442,11.88715,0
          109.09203,11.8834,0
          109.09183,11.8831,0
          109.09182,11.88307,0
          109.09174,11.88295,0
          109.09165,11.88279,0
          109.0916,11.88271,0
          109.09158,11.88266,0
          109.09154,11.88261,0
          109.09101,11.88172,0
          109.08983,11.87984,0
          109.08976,11.87975,0
          109.08968,11.8796,0
          109.08841,11.87756,0
          109.0877,11.87646,0
          109.08752,11.87616,0
          109.08745,11.87603,0
          109.08707,11.87541,0
          109.08667,11.87472,0
          109.08641,11.8742,0
          109.086,11.87325,0
          109.08582,11.8727,0
          109.08573,11.87239,0
          109.08566,11.87211,0
          109.08546,11.87142,0
          109.08546,11.8714,0
          109.08528,11.87081,0
          109.08522,11.87055,0
          109.08509,11.86948,0
          109.08507,11.86939,0
          109.08501,11.86896,0
          109.08496,11.86831,0
          109.08496,11.86769,0
          109.08495,11.86751,0
          109.08495,11.86715,0
          109.08496,11.86684,0
          109.08501,11.86618,0
          109.08508,11.8655,0
          109.08511,11.86536,0
          109.0852,11.86482,0
          109.0852,11.86481,0
          109.08542,11.86386,0
          109.08565,11.86298,0
          109.08608,11.86152,0
          109.08613,11.86137,0
          109.08634,11.86066,0
          109.08635,11.86064,0
          109.08649,11.86016,0
          109.08667,11.85948,0
          109.08696,11.85826,0
          109.08721,11.85705,0
          109.08728,11.85667,0
          109.08729,11.85659,0
          109.0874,11.85596,0
          109.08747,11.85542,0
          109.0875,11.85524,0
          109.08752,11.85507,0
          109.08755,11.85489,0
          109.08756,11.8548,0
          109.08756,11.85471,0
          109.0876,11.85435,0
          109.08761,11.85417,0
          109.0877,11.85346,0
          109.0877,11.85345,0
          109.08787,11.85239,0
          109.08789,11.8522,0
          109.08792,11.85131,0
          109.08791,11.84985,0
          109.08789,11.84948,0
          109.08789,11.84931,0
          109.08788,11.8493,0
          109.08783,11.84805,0
          109.0878,11.8477,0
          109.08772,11.847,0
          109.08771,11.84685,0
          109.08771,11.84681,0
          109.08767,11.84647,0
          109.08766,11.84646,0
          109.08762,11.84612,0
          109.08762,11.8461,0
          109.08759,11.84594,0
          109.0875,11.84524,0
          109.08749,11.84522,0
          109.08745,11.84489,0
          109.08735,11.84435,0
          109.08723,11.84382,0
          109.0872,11.84364,0
          109.08697,11.84258,0
          109.08669,11.84158,0
          109.0863,11.84029,0
          109.08589,11.83908,0
          109.08584,11.83891,0
          109.08564,11.8384,0
          109.08509,11.83707,0
          109.08241,11.83085,0
          109.08055,11.82666,0
          109.07759,11.81984,0
          109.07751,11.81968,0
          109.07666,11.81768,0
          109.07579,11.81552,0
          109.07572,11.81536,0
          109.0755,11.81481,0
          109.07544,11.81464,0
          109.07537,11.81448,0
          109.07537,11.81447,0
          109.07496,11.81338,0
          109.07429,11.81141,0
          109.07423,11.81121,0
          109.07406,11.81072,0
          109.07405,11.8107,0
          109.074,11.81053,0
          109.07394,11.81038,0
          109.07394,11.81036,0
          109.07376,11.80985,0
          109.07371,11.80968,0
          109.07348,11.80901,0
          109.07347,11.809,0
          109.07342,11.80882,0
          109.07332,11.80855,0
          109.07331,11.80848,0
          109.07298,11.80728,0
          109.07298,11.80726,0
          109.07279,11.80658,0
          109.07279,11.80657,0
          109.07251,11.80554,0
          109.07247,11.80536,0
          109.07246,11.80535,0
          109.07223,11.80449,0
          109.07223,11.80448,0
          109.07214,11.80414,0
          109.07214,11.80413,0
          109.07195,11.80345,0
          109.07195,11.80344,0
          109.07194,11.80341,0
          109.07187,11.8031,0
          109.07187,11.80309,0
          109.07183,11.80292,0
          109.07183,11.80291,0
          109.07179,11.80274,0
          109.07174,11.80256,0
          109.07171,11.80239,0
          109.07166,11.80222,0
          109.07101,11.79941,0
          109.06924,11.78908,0
          109.06924,11.78907,0
          109.0691,11.78827,0
          109.06908,11.78819,0
          109.06898,11.78748,0
          109.06844,11.7845,0
          109.06843,11.78447,0
          109.0684,11.78429,0
          109.06803,11.78253,0
          109.06742,11.78003,0
          109.06728,11.77958,0
          109.06677,11.77782,0
          109.06629,11.77645,0
          109.06623,11.77626,0
          109.06585,11.77518,0
          109.06491,11.77285,0
          109.06367,11.77021,0
          109.06366,11.77017,0
          109.06294,11.76879,0
          109.06209,11.76721,0
          109.06062,11.7646,0
          109.05955,11.76275,0
          109.05947,11.76263,0
          109.05866,11.76117,0
          109.05816,11.76035,0
          109.05801,11.76009,0
          109.05799,11.76005,0
          109.05785,11.75983,0
          109.05571,11.75606,0
          109.05526,11.75524,0
          109.05526,11.75523,0
          109.05507,11.75488,0
          109.05383,11.75275,0
          109.05335,11.75182,0
          109.05301,11.75122,0
          109.05247,11.75037,0
          109.05184,11.7493,0
          109.05121,11.74809,0
          109.0507,11.74718,0
          109.04942,11.745,0
          109.04851,11.74339,0
          109.04846,11.74329,0
          109.04519,11.73766,0
          109.04515,11.73758,0
          109.04439,11.73628,0
          109.04321,11.73432,0
          109.043,11.73395,0
          109.04298,11.7339,0
          109.04281,11.73362,0
          109.04279,11.7336,0
          109.0426,11.73329,0
          109.04254,11.73318,0
          109.04129,11.73111,0
          109.04119,11.73096,0
          109.04035,11.72957,0
          109.03994,11.72885,0
          109.03849,11.72643,0
          109.03847,11.72639,0
          109.03818,11.7259,0
          109.0381,11.72578,0
          109.03727,11.72438,0
          109.03721,11.72429,0
          109.03687,11.72372,0
          109.03682,11.72362,0
          109.03657,11.72322,0
          109.03621,11.72261,0
          109.0362,11.7226,0
          109.03547,11.72137,0
          109.03538,11.7212,0
          109.03407,11.71904,0
          109.03401,11.71893,0
          109.03123,11.71426,0
          109.03061,11.71336,0
          109.02973,11.71218,0
          109.02968,11.7121,0
          109.02962,11.71204,0
          109.02896,11.71123,0
          109.02869,11.71092,0
          109.02796,11.71012,0
          109.02784,11.70998,0
          109.02771,11.70984,0
          109.02615,11.70844,0
          109.02475,11.70733,0
          109.02369,11.70658,0
          109.02197,11.70553,0
          109.02064,11.70486,0
          109.02016,11.70463,0
          109.02013,11.70462,0
          109.01982,11.70449,0
          109.01958,11.70438,0
          109.01871,11.70403,0
          109.01746,11.70357,0
          109.01659,11.70334,0
          109.01546,11.70302,0
          109.01433,11.70278,0
          109.01341,11.70262,0
          109.00879,11.70197,0
          109.00863,11.70196,0
          109.00563,11.70153,0
          109.00544,11.70151,0
          109.0054,11.7015,0
          109.00145,11.70094,0
          109.00126,11.70092,0
          108.99763,11.70034,0
          108.99677,11.70018,0
          108.9967,11.70016,0
          108.99572,11.70001,0
          108.9955,11.69996,0
          108.99291,11.69947,0
          108.98797,11.69843,0
          108.98388,11.69752,0
          108.98381,11.6975,0
          108.97791,11.69616,0
          108.9779,11.69616,0
          108.97719,11.696,0
          108.97701,11.69597,0
          108.97623,11.69579,0
          108.97429,11.69538,0
          108.97217,11.69489,0
          108.97105,11.6946,0
          108.97042,11.69442,0
          108.9696,11.69414,0
          108.96958,11.69413,0
          108.96871,11.69383,0
          108.96731,11.69332,0
          108.96534,11.69251,0
          108.96497,11.69232,0
          108.96481,11.69223,0
          108.96305,11.69133,0
          108.96169,11.69054,0
          108.96163,11.69051,0
          108.96005,11.68959,0
          108.95974,11.6894,0
          108.95974,11.68939,0
          108.95778,11.68807,0
          108.95777,11.68807,0
          108.95777,11.68806,0
          108.95768,11.688,0
          108.95653,11.68709,0
          108.95465,11.68544,0
          108.95198,11.68282,0
          108.9497,11.68046,0
          108.94934,11.68007,0
          108.9492,11.67993,0
          108.94574,11.67627,0
          108.94561,11.67614,0
          108.94299,11.67337,0
          108.94286,11.67324,0
          108.93733,11.6674,0
          108.93631,11.66638,0
          108.9336,11.66375,0
          108.93355,11.66372,0
          108.932,11.66225,0
          108.92909,11.65965,0
          108.92636,11.65727,0
          108.92617,11.65709,0
          108.92593,11.65689,0
          108.92536,11.65637,0
          108.91739,11.64938,0
          108.91714,11.64915,0
          108.91713,11.64915,0
          108.91601,11.64817,0
          108.91583,11.648,0
          108.91579,11.64797,0
          108.91526,11.64751,0
          108.91513,11.64738,0
          108.90998,11.64281,0
          108.90994,11.64276,0
          108.90949,11.64235,0
          108.90778,11.64072,0
          108.90752,11.64046,0
          108.90752,11.64045,0
          108.90629,11.63922,0
          108.90415,11.63696,0
          108.90294,11.63564,0
          108.89936,11.63163,0
          108.89786,11.62999,0
          108.89732,11.62936,0
          108.8972,11.62923,0
          108.89715,11.62917,0
          108.89601,11.62794,0
          108.89487,11.62666,0
          108.89325,11.6249,0
          108.89268,11.62425,0
          108.89009,11.62141,0
          108.89009,11.6214,0
          108.8895,11.62073,0
          108.88941,11.62064,0
          108.88796,11.61903,0
          108.88793,11.61899,0
          108.88548,11.61628,0
          108.88541,11.61621,0
          108.88532,11.6161,0
          108.88524,11.61602,0
          108.88507,11.61582,0
          108.88456,11.61527,0
          108.88445,11.61514,0
          108.88438,11.61507,0
          108.88384,11.61447,0
          108.88381,11.61445,0
          108.88371,11.61433,0
          108.88307,11.61363,0
          108.88222,11.61273,0
          108.88154,11.61204,0
          108.88119,11.61171,0
          108.88083,11.61135,0
          108.88053,11.61108,0
          108.8805,11.61104,0
          108.87904,11.6097,0
          108.87878,11.60948,0
          108.87783,11.60861,0
          108.87445,11.60562,0
          108.8744,11.60558,0
          108.87163,11.6031,0
          108.87155,11.60302,0
          108.8715,11.60298,0
          108.86605,11.59813,0
          108.86601,11.5981,0
          108.8629,11.59532,0
          108.86169,11.59421,0
          108.86166,11.59419,0
          108.86056,11.59316,0
          108.86048,11.59307,0
          108.85946,11.59203,0
          108.85936,11.59192,0
          108.85935,11.5919,0
          108.8592,11.59174,0
          108.85764,11.58991,0
          108.85637,11.5882,0
          108.8554,11.58671,0
          108.85462,11.58539,0
          108.85379,11.58376,0
          108.85356,11.58327,0
          108.85266,11.58125,0
          108.85177,11.57857,0
          108.85172,11.57845,0
          108.85167,11.57828,0
          108.85161,11.57811,0
          108.85126,11.57684,0
          108.85109,11.57612,0
          108.85101,11.57574,0
          108.85063,11.5735,0
          108.85063,11.57349,0
          108.85044,11.57206,0
          108.85033,11.5708,0
          108.84997,11.5652,0
          108.84972,11.56176,0
          108.8497,11.56158,0
          108.84956,11.55964,0
          108.84956,11.5596,0
          108.84928,11.55557,0
          108.84928,11.5555,0
          108.84869,11.54707,0
          108.84857,11.54562,0
          108.84816,11.53935,0
          108.84743,11.5299,0
          108.84743,11.52986,0
          108.8472,11.52751,0
          108.84691,11.52519,0
          108.8467,11.52373,0
          108.84651,11.5227,0
          108.84638,11.52187,0
          108.84611,11.52058,0
          108.8456,11.51839,0
          108.84544,11.51778,0
          108.8454,11.5176,0
          108.84512,11.51655,0
          108.84452,11.51455,0
          108.84393,11.51278,0
          108.84332,11.51108,0
          108.84328,11.511,0
          108.84216,11.50825,0
          108.84094,11.50552,0
          108.83876,11.50117,0
          108.83867,11.50101,0
          108.83731,11.49829,0
          108.83723,11.49815,0
          108.83623,11.49612,0
          108.83412,11.49198,0
          108.83406,11.49185,0
          108.83356,11.49089,0
          108.83355,11.49085,0
          108.83315,11.49008,0
          108.83274,11.48924,0
          108.82849,11.48091,0
          108.82839,11.48073,0
          108.82839,11.48072,0
          108.82811,11.4802,0
          108.82806,11.48013,0
          108.8269,11.47798,0
          108.82682,11.47782,0
          108.82528,11.475,0
          108.8252,11.47484,0
          108.82504,11.47456,0
          108.82371,11.4721,0
          108.82157,11.46827,0
          108.82146,11.46806,0
          108.82112,11.46747,0
          108.82103,11.46733,0
          108.82094,11.46716,0
          108.81939,11.46451,0
          108.81836,11.46283,0
          108.81733,11.46122,0
          108.8147,11.45743,0
          108.81466,11.45738,0
          108.81463,11.45732,0
          108.81459,11.45726,0
          108.81403,11.4565,0
          108.81183,11.45369,0
          108.81044,11.45198,0
          108.81015,11.45164,0
          108.81003,11.45151,0
          108.80905,11.45037,0
          108.80574,11.44667,0
          108.8027,11.4434,0
          108.80257,11.44327,0
          108.79984,11.44036,0
          108.79972,11.44022,0
          108.79959,11.44009,0
          108.79761,11.43797,0
          108.79746,11.4378,0
          108.79744,11.43779,0
          108.7941,11.43419,0
          108.79379,11.43383,0
          108.7923,11.43228,0
          108.79145,11.43134,0
          108.79139,11.43129,0
          108.79137,11.43126,0
          108.79091,11.43077,0
          108.79075,11.43061,0
          108.79009,11.4299,0
          108.78997,11.42978,0
          108.78962,11.4294,0
          108.78949,11.42927,0
          108.78813,11.42783,0
          108.788,11.4277,0
          108.78751,11.42717,0
          108.78731,11.42698,0
          108.78702,11.42662,0
          108.78597,11.42555,0
          108.78597,11.42554,0
          108.78534,11.4249,0
          108.78396,11.42358,0
          108.7837,11.42332,0
          108.78361,11.42324,0
          108.78331,11.42294,0
          108.78322,11.42286,0
          108.78265,11.42231,0
          108.78264,11.42229,0
          108.78211,11.4218,0
          108.78199,11.42168,0
          108.78063,11.42045,0
          108.78038,11.42024,0
          108.77944,11.41933,0
          108.77827,11.41823,0
          108.77825,11.41822,0
          108.77692,11.41698,0
          108.77681,11.41687,0
          108.77574,11.41588,0
          108.77573,11.41586,0
          108.77455,11.41476,0
          108.77453,11.41475,0
          108.77348,11.41377,0
          108.77335,11.41364,0
          108.77216,11.41253,0
          108.77214,11.41252,0
          108.77161,11.41206,0
          108.7716,11.41204,0
          108.77134,11.41182,0
          108.77132,11.4118,0
          108.77065,11.41122,0
          108.7705,11.41108,0
          108.77021,11.41084,0
          108.76915,11.40991,0
          108.76886,11.40964,0
          108.76882,11.40961,0
          108.76603,11.40701,0
        </coordinates>
      </LineString>
    </Placemark>
    <Placemark>
      <name>13.000290 109.328330</name>
      <styleUrl>#icon-1899-DB4436-nodesc</styleUrl>
      <Point>
        <coordinates>
          109.3281925,13.0002416,0
        </coordinates>
      </Point>
    </Placemark>
    <Placemark>
      <name>11.396160 108.754200</name>
      <styleUrl>#icon-1899-DB4436-nodesc</styleUrl>
      <Point>
        <coordinates>
          108.7660267,11.4070052,0
        </coordinates>
      </Point>
    </Placemark>
  </Document>
</kml>
