<?xml version="1.0" encoding="UTF-8"?>
<kml xmlns="http://www.opengis.net/kml/2.2">
  <Document>
    <name>goithau-45</name>
    <Style id="icon-1899-DB4436-nodesc-normal">
      <IconStyle>
        <color>ff3644db</color>
        <scale>1</scale>
        <Icon>
          <href>https://www.gstatic.com/mapspro/images/stock/503-wht-blank_maps.png</href>
        </Icon>
        <hotSpot x="32" xunits="pixels" y="64" yunits="insetPixels"/>
      </IconStyle>
      <LabelStyle>
        <scale>0</scale>
      </LabelStyle>
      <BalloonStyle>
        <text><![CDATA[<h3>$[name]</h3>]]></text>
      </BalloonStyle>
    </Style>
    <Style id="icon-1899-DB4436-nodesc-highlight">
      <IconStyle>
        <color>ff3644db</color>
        <scale>1</scale>
        <Icon>
          <href>https://www.gstatic.com/mapspro/images/stock/503-wht-blank_maps.png</href>
        </Icon>
        <hotSpot x="32" xunits="pixels" y="64" yunits="insetPixels"/>
      </IconStyle>
      <LabelStyle>
        <scale>1</scale>
      </LabelStyle>
      <BalloonStyle>
        <text><![CDATA[<h3>$[name]</h3>]]></text>
      </BalloonStyle>
    </Style>
    <StyleMap id="icon-1899-DB4436-nodesc">
      <Pair>
        <key>normal</key>
        <styleUrl>#icon-1899-DB4436-nodesc-normal</styleUrl>
      </Pair>
      <Pair>
        <key>highlight</key>
        <styleUrl>#icon-1899-DB4436-nodesc-highlight</styleUrl>
      </Pair>
    </StyleMap>
    <Style id="line-1267FF-5000-nodesc-normal">
      <LineStyle>
        <color>ffff6712</color>
        <width>5</width>
      </LineStyle>
      <BalloonStyle>
        <text><![CDATA[<h3>$[name]</h3>]]></text>
      </BalloonStyle>
    </Style>
    <Style id="line-1267FF-5000-nodesc-highlight">
      <LineStyle>
        <color>ffff6712</color>
        <width>7.5</width>
      </LineStyle>
      <BalloonStyle>
        <text><![CDATA[<h3>$[name]</h3>]]></text>
      </BalloonStyle>
    </Style>
    <StyleMap id="line-1267FF-5000-nodesc">
      <Pair>
        <key>normal</key>
        <styleUrl>#line-1267FF-5000-nodesc-normal</styleUrl>
      </Pair>
      <Pair>
        <key>highlight</key>
        <styleUrl>#line-1267FF-5000-nodesc-highlight</styleUrl>
      </Pair>
    </StyleMap>
    <Placemark>
      <name>goithau-45</name>
      <styleUrl>#line-1267FF-5000-nodesc</styleUrl>
      <LineString>
        <tessellate>1</tessellate>
        <coordinates>
          106.71604,17.20452,0
          106.7161,17.20441,0
          106.71637,17.20404,0
          106.71646,17.20395,0
          106.71652,17.20388,0
          106.71682,17.20358,0
          106.71884,17.20191,0
          106.71926,17.20152,0
          106.71951,17.20126,0
          106.71978,17.20091,0
          106.72018,17.20033,0
          106.72022,17.20028,0
          106.72056,17.19976,0
          106.7206,17.19969,0
          106.72063,17.19956,0
          106.72065,17.19929,0
          106.72065,17.1991,0
          106.72061,17.19885,0
          106.7202,17.19763,0
          106.72016,17.19746,0
          106.72014,17.19731,0
          106.72014,17.19705,0
          106.72015,17.19696,0
          106.7202,17.19678,0
          106.72022,17.19673,0
          106.72026,17.19659,0
          106.72034,17.19645,0
          106.72048,17.19625,0
          106.72124,17.19553,0
          106.7218,17.19505,0
          106.72333,17.19362,0
          106.72369,17.19333,0
          106.72428,17.19293,0
          106.72496,17.1925,0
          106.72555,17.19206,0
          106.72607,17.19154,0
          106.72619,17.19143,0
          106.72679,17.19067,0
          106.72725,17.19014,0
          106.7273,17.19007,0
          106.72878,17.18827,0
          106.72925,17.18767,0
          106.73069,17.18614,0
          106.73296,17.18346,0
          106.73307,17.18335,0
          106.73397,17.1823,0
          106.73508,17.18106,0
          106.7354,17.18062,0
          106.73641,17.17947,0
          106.73681,17.17894,0
          106.73697,17.17878,0
          106.73709,17.17852,0
          106.73732,17.17797,0
          106.73781,17.17666,0
          106.73802,17.17585,0
          106.73872,17.17205,0
          106.73872,17.17204,0
          106.73901,17.17099,0
          106.7392,17.17041,0
          106.73948,17.16963,0
          106.73999,17.16845,0
          106.74305,17.1621,0
          106.74332,17.16166,0
          106.74333,17.16163,0
          106.74368,17.16103,0
          106.74415,17.16034,0
          106.74519,17.15897,0
          106.74531,17.15883,0
          106.74612,17.15777,0
          106.74669,17.1571,0
          106.74728,17.15634,0
          106.748,17.1555,0
          106.7491,17.15434,0
          106.74988,17.15355,0
          106.75001,17.15343,0
          106.75002,17.15341,0
          106.75014,17.1533,0
          106.75068,17.15276,0
          106.75133,17.15215,0
          106.75137,17.1521,0
          106.75148,17.15201,0
          106.75174,17.15177,0
          106.75231,17.1513,0
          106.75233,17.15128,0
          106.75288,17.15083,0
          106.75293,17.15078,0
          106.75403,17.1499,0
          106.75405,17.14989,0
          106.75417,17.14979,0
          106.75593,17.14847,0
          106.75786,17.14722,0
          106.76179,17.14446,0
          106.762,17.14428,0
          106.76215,17.14418,0
          106.76221,17.14413,0
          106.76229,17.14405,0
          106.76254,17.14387,0
          106.76281,17.1437,0
          106.76322,17.14334,0
          106.76369,17.1429,0
          106.76406,17.1425,0
          106.76424,17.14234,0
          106.76457,17.142,0
          106.76477,17.14176,0
          106.76498,17.14155,0
          106.76536,17.14111,0
          106.76669,17.13945,0
          106.76679,17.13934,0
          106.76681,17.13931,0
          106.76742,17.13864,0
          106.76767,17.13841,0
          106.76794,17.13819,0
          106.7689,17.13751,0
          106.77064,17.13639,0
          106.77084,17.13628,0
          106.77086,17.13626,0
          106.77111,17.13613,0
          106.77137,17.13602,0
          106.77146,17.136,0
          106.77164,17.13594,0
          106.77193,17.13586,0
          106.77216,17.13581,0
          106.77284,17.13571,0
          106.7729,17.13571,0
          106.77358,17.13562,0
          106.77361,17.13562,0
          106.774,17.13554,0
          106.77431,17.13544,0
          106.77439,17.13542,0
          106.77455,17.13536,0
          106.7747,17.13528,0
          106.77495,17.13511,0
          106.77511,17.13499,0
          106.77524,17.13486,0
          106.77541,17.13466,0
          106.77561,17.13435,0
          106.77568,17.13418,0
          106.77589,17.13359,0
          106.7762,17.13259,0
          106.77632,17.13229,0
          106.77652,17.13192,0
          106.77669,17.1317,0
          106.77688,17.13149,0
          106.77726,17.13116,0
          106.77768,17.13087,0
          106.77877,17.13028,0
          106.77922,17.13001,0
          106.77943,17.12985,0
          106.77983,17.12946,0
          106.77997,17.12928,0
          106.78006,17.12915,0
          106.78056,17.12827,0
          106.7808,17.12777,0
          106.78123,17.12708,0
          106.78144,17.12683,0
          106.78169,17.12657,0
          106.78187,17.12642,0
          106.78244,17.126,0
          106.78653,17.12353,0
          106.787,17.12326,0
          106.78756,17.12301,0
          106.78808,17.12281,0
          106.78858,17.12264,0
          106.79112,17.12192,0
          106.79168,17.12173,0
          106.79208,17.12157,0
          106.79356,17.12087,0
          106.7958,17.11972,0
          106.79662,17.11934,0
          106.79757,17.11893,0
          106.80078,17.11765,0
          106.80183,17.11732,0
          106.80288,17.11711,0
          106.80627,17.11673,0
          106.80661,17.11668,0
          106.80793,17.11653,0
          106.80811,17.1165,0
          106.80818,17.1165,0
          106.80863,17.11647,0
          106.80912,17.11647,0
          106.80943,17.11652,0
          106.80979,17.11656,0
          106.81026,17.11669,0
          106.81054,17.11678,0
          106.81083,17.11691,0
          106.81119,17.11713,0
          106.81158,17.1174,0
          106.81272,17.11838,0
          106.81301,17.11859,0
          106.81301,17.1186,0
          106.81329,17.11879,0
          106.81359,17.11897,0
          106.8137,17.11907,0
          106.81406,17.11929,0
          106.81427,17.11937,0
          106.81475,17.11958,0
          106.81689,17.12037,0
          106.81711,17.12043,0
          106.81766,17.12055,0
          106.81791,17.12057,0
          106.81845,17.12056,0
          106.81885,17.12052,0
          106.82099,17.12013,0
          106.82264,17.11977,0
          106.82572,17.1192,0
          106.82696,17.11894,0
          106.82715,17.11889,0
          106.82764,17.11871,0
          106.82844,17.11831,0
          106.82849,17.11829,0
          106.82892,17.11804,0
          106.82923,17.11783,0
          106.83473,17.11372,0
          106.83515,17.11339,0
          106.8355,17.11307,0
          106.83575,17.11281,0
          106.83596,17.11254,0
          106.83617,17.11224,0
          106.83647,17.11169,0
          106.83659,17.1114,0
          106.83671,17.11104,0
          106.8371,17.1097,0
          106.83715,17.10957,0
          106.83717,17.1095,0
          106.83735,17.10912,0
          106.83753,17.1088,0
          106.83778,17.10846,0
          106.83798,17.10825,0
          106.83814,17.1081,0
          106.83845,17.10787,0
          106.83875,17.10767,0
          106.83915,17.10747,0
          106.83956,17.10731,0
          106.84031,17.10708,0
          106.84368,17.10612,0
          106.84406,17.106,0
          106.84435,17.10588,0
          106.84471,17.10569,0
          106.84497,17.10551,0
          106.84524,17.10525,0
          106.84539,17.10508,0
          106.84552,17.1049,0
          106.84566,17.10466,0
          106.8458,17.10436,0
          106.84587,17.10418,0
          106.84594,17.10395,0
          106.84603,17.1036,0
          106.84706,17.09869,0
          106.84718,17.09829,0
          106.84725,17.09809,0
          106.8474,17.09777,0
          106.84754,17.09755,0
          106.84765,17.0974,0
          106.84787,17.09721,0
          106.84791,17.09717,0
          106.84831,17.0969,0
          106.84867,17.0967,0
          106.84909,17.09654,0
          106.8513,17.09577,0
          106.85174,17.09559,0
          106.85227,17.09533,0
          106.8523,17.09531,0
          106.85243,17.09524,0
          106.85259,17.09514,0
          106.85298,17.09486,0
          106.85321,17.09464,0
          106.85322,17.09462,0
          106.85348,17.09435,0
          106.85378,17.09394,0
          106.85398,17.0936,0
          106.85416,17.09324,0
          106.85477,17.0917,0
          106.85497,17.09129,0
          106.85525,17.09082,0
          106.85562,17.09034,0
          106.85592,17.09,0
          106.85656,17.08941,0
          106.85671,17.0893,0
          106.85673,17.08928,0
          106.85738,17.0888,0
          106.8578,17.08847,0
          106.85788,17.0884,0
          106.85806,17.08826,0
          106.85831,17.08804,0
          106.85885,17.08748,0
          106.85927,17.08693,0
          106.85928,17.08691,0
          106.85937,17.08679,0
          106.86001,17.08579,0
          106.86003,17.08577,0
          106.86101,17.08418,0
          106.86127,17.0837,0
          106.86146,17.08326,0
          106.86161,17.08283,0
          106.86162,17.08281,0
          106.86176,17.08214,0
          106.86184,17.08146,0
          106.86176,17.07577,0
          106.86169,17.07491,0
          106.86157,17.07418,0
          106.86134,17.07334,0
          106.86117,17.07289,0
          106.86112,17.07278,0
          106.8611,17.07275,0
          106.8609,17.07231,0
          106.86039,17.07133,0
          106.86036,17.07129,0
          106.86017,17.0709,0
          106.86008,17.07067,0
          106.85993,17.07009,0
          106.8599,17.06985,0
          106.85989,17.06971,0
          106.85989,17.06961,0
          106.85988,17.06951,0
          106.85989,17.0692,0
          106.85996,17.0688,0
          106.86005,17.06844,0
          106.86061,17.06661,0
          106.86076,17.06602,0
          106.86086,17.06571,0
          106.861,17.06495,0
          106.86123,17.06336,0
          106.86139,17.06209,0
          106.86139,17.06166,0
          106.86144,17.06132,0
          106.86169,17.06053,0
          106.86182,17.06022,0
          106.86199,17.05986,0
          106.86356,17.05701,0
          106.8637,17.05682,0
          106.86382,17.05669,0
          106.86386,17.05664,0
          106.86413,17.05638,0
          106.86437,17.05621,0
          106.86454,17.05611,0
          106.86472,17.05603,0
          106.86567,17.05556,0
          106.86619,17.05533,0
          106.86744,17.05473,0
          106.86769,17.05458,0
          106.86782,17.05449,0
          106.8679,17.05441,0
          106.86804,17.05424,0
          106.8681,17.05415,0
          106.86815,17.05403,0
          106.86819,17.05389,0
          106.86824,17.05362,0
          106.86824,17.0536,0
          106.86825,17.05352,0
          106.86823,17.05306,0
          106.86823,17.05288,0
          106.86822,17.05275,0
          106.86823,17.05255,0
          106.86824,17.05247,0
          106.86826,17.05238,0
          106.8683,17.05227,0
          106.86833,17.05221,0
          106.86836,17.05212,0
          106.86842,17.05202,0
          106.86857,17.05181,0
          106.86861,17.05178,0
          106.86866,17.05173,0
          106.86874,17.05167,0
          106.86882,17.05162,0
          106.86895,17.05156,0
          106.86913,17.0515,0
          106.86926,17.05147,0
          106.87001,17.05137,0
          106.87066,17.05131,0
          106.87074,17.05131,0
          106.87104,17.05123,0
          106.87112,17.0512,0
          106.87181,17.05084,0
          106.87276,17.0504,0
          106.87347,17.05005,0
          106.87378,17.04988,0
          106.87396,17.04976,0
          106.87418,17.04959,0
          106.87544,17.0485,0
          106.8759,17.04802,0
          106.87645,17.04752,0
          106.87675,17.0473,0
          106.87706,17.0471,0
          106.87739,17.04692,0
          106.87746,17.04689,0
          106.87782,17.0467,0
          106.87839,17.04643,0
          106.87925,17.04606,0
          106.88093,17.04526,0
          106.88096,17.04524,0
          106.88149,17.04499,0
          106.88196,17.04482,0
          106.88246,17.04447,0
          106.88339,17.04378,0
          106.88379,17.04351,0
          106.88397,17.04342,0
          106.88454,17.04306,0
          106.88474,17.04291,0
          106.88475,17.04291,0
          106.88479,17.04287,0
          106.88484,17.04284,0
          106.88528,17.0425,0
          106.88533,17.04245,0
          106.88546,17.04234,0
          106.88558,17.04221,0
          106.8861,17.04175,0
          106.88614,17.04172,0
          106.88641,17.04147,0
          106.88644,17.04145,0
          106.88668,17.04121,0
          106.88693,17.04099,0
          106.88695,17.04096,0
          106.88752,17.04049,0
          106.88753,17.04049,0
          106.88783,17.04027,0
          106.88798,17.04017,0
          106.88814,17.04008,0
          106.88815,17.04007,0
          106.88882,17.03974,0
          106.8892,17.0396,0
          106.88934,17.03954,0
          106.88952,17.03948,0
          106.88987,17.03934,0
          106.88992,17.03933,0
          106.89005,17.03928,0
          106.8903,17.03921,0
          106.89104,17.03883,0
          106.89107,17.03882,0
          106.8914,17.03864,0
          106.89275,17.03776,0
          106.89428,17.03672,0
          106.89458,17.03649,0
          106.89484,17.03627,0
          106.89489,17.0362,0
          106.89504,17.03606,0
          106.89522,17.03583,0
          106.89565,17.0352,0
          106.89583,17.03485,0
          106.89628,17.03411,0
          106.89657,17.0336,0
          106.89658,17.0336,0
          106.89667,17.03345,0
          106.89668,17.03342,0
          106.89699,17.03294,0
          106.89724,17.03261,0
          106.89768,17.03215,0
          106.89781,17.03204,0
          106.89828,17.03159,0
          106.89881,17.03104,0
          106.89906,17.03075,0
          106.89932,17.0304,0
          106.89972,17.02977,0
          106.89998,17.02924,0
          106.90002,17.02911,0
          106.90028,17.02843,0
          106.90037,17.02808,0
          106.90037,17.02807,0
          106.90048,17.02741,0
          106.90055,17.02686,0
          106.90056,17.02684,0
          106.90068,17.02565,0
          106.90071,17.02543,0
          106.9008,17.02434,0
          106.90086,17.02407,0
          106.90088,17.02401,0
          106.90092,17.02383,0
          106.90098,17.02364,0
          106.90114,17.02322,0
          106.90129,17.0229,0
          106.90154,17.02245,0
          106.90168,17.02224,0
          106.9019,17.02198,0
          106.90212,17.02175,0
          106.90214,17.02174,0
          106.90259,17.0213,0
          106.903,17.02101,0
          106.90421,17.02006,0
          106.90493,17.01946,0
          106.90558,17.019,0
          106.90604,17.01872,0
          106.90626,17.0186,0
          106.90671,17.01838,0
          106.9074,17.01807,0
          106.90758,17.018,0
          106.90792,17.01785,0
          106.90848,17.01765,0
          106.90953,17.01722,0
          106.9103,17.01685,0
          106.91159,17.01635,0
          106.91373,17.01568,0
          106.91443,17.01542,0
          106.91515,17.0151,0
          106.91543,17.01496,0
          106.91615,17.01453,0
          106.91677,17.01405,0
          106.91714,17.01373,0
          106.91749,17.01334,0
          106.91763,17.0132,0
          106.91799,17.01278,0
          106.9181,17.01264,0
          106.91934,17.01118,0
          106.91959,17.01084,0
          106.91971,17.01065,0
          106.91992,17.01023,0
          106.92012,17.00973,0
          106.92027,17.0092,0
          106.92031,17.00901,0
          106.92058,17.00737,0
          106.92058,17.00735,0
          106.92082,17.00613,0
          106.92082,17.00611,0
          106.92086,17.00593,0
          106.92086,17.00589,0
          106.92094,17.00537,0
          106.92095,17.00522,0
          106.92108,17.00417,0
          106.92113,17.00327,0
          106.92114,17.00322,0
          106.92114,17.00316,0
          106.92141,17.00284,0
          106.92162,17.00024,0
          106.92162,17.00019,0
          106.92184,16.99745,0
          106.92185,16.9974,0
          106.92199,16.99583,0
          106.92209,16.99506,0
          106.92216,16.99467,0
          106.92236,16.99376,0
          106.92247,16.99338,0
          106.92248,16.99336,0
          106.92263,16.99284,0
          106.92276,16.99251,0
          106.92277,16.99247,0
          106.92313,16.99162,0
          106.92326,16.99134,0
          106.92326,16.99133,0
          106.9236,16.99065,0
          106.92404,16.98988,0
          106.92477,16.98901,0
          106.92513,16.9884,0
          106.92539,16.98814,0
          106.9254,16.98809,0
          106.92546,16.9876,0
          106.92546,16.98754,0
          106.9255,16.98739,0
          106.92553,16.98733,0
          106.92573,16.98711,0
          106.92584,16.98697,0
          106.92585,16.98697,0
          106.92594,16.98681,0
          106.92594,16.98678,0
          106.92596,16.98672,0
          106.92595,16.98665,0
          106.92594,16.98645,0
          106.92593,16.98642,0
          106.92591,16.98615,0
          106.92591,16.98609,0
          106.92577,16.98461,0
          106.92647,16.98455,0
          106.92655,16.98455,0
          106.92688,16.98457,0
          106.92703,16.9846,0
          106.92726,16.98469,0
          106.92754,16.98489,0
          106.92846,16.98587,0
          106.92957,16.98492,0
          106.92958,16.9849,0
          106.93103,16.98367,0
          106.93147,16.98324,0
          106.93148,16.98324,0
          106.93149,16.98322,0
          106.9316,16.98311,0
          106.9316,16.9831,0
          106.93212,16.98254,0
          106.93252,16.98207,0
          106.93285,16.98162,0
          106.93354,16.98051,0
          106.93556,16.97674,0
          106.93556,16.97673,0
          106.93637,16.97526,0
          106.93746,16.97317,0
          106.93747,16.97316,0
          106.93881,16.97063,0
          106.93889,16.97046,0
          106.93989,16.96862,0
          106.94,16.9684,0
          106.94042,16.96768,0
          106.94067,16.9673,0
          106.94071,16.96725,0
          106.94077,16.96715,0
          106.94136,16.96629,0
          106.94565,16.96056,0
          106.94601,16.96005,0
          106.9478,16.95769,0
          106.9484,16.95684,0
          106.94909,16.95581,0
          106.9506,16.95332,0
          106.95156,16.95193,0
          106.95173,16.95161,0
          106.95297,16.94965,0
          106.95297,16.94964,0
          106.95525,16.94598,0
          106.95538,16.9458,0
          106.95547,16.94566,0
          106.95556,16.94548,0
          106.95574,16.94517,0
          106.95598,16.94468,0
          106.95614,16.94432,0
          106.95638,16.94363,0
          106.95662,16.94278,0
          106.95771,16.93857,0
          106.95789,16.93793,0
          106.95789,16.93791,0
          106.95802,16.93754,0
          106.95806,16.93739,0
          106.95836,16.93651,0
          106.95871,16.9357,0
          106.95879,16.93554,0
          106.9589,16.93528,0
          106.95914,16.93465,0
          106.95926,16.9343,0
          106.95937,16.93383,0
          106.95939,16.93377,0
          106.95941,16.93366,0
          106.95941,16.93363,0
          106.95951,16.93299,0
          106.95953,16.93259,0
          106.95954,16.93254,0
          106.95955,16.93238,0
          106.95954,16.93218,0
          106.95954,16.932,0
          106.95953,16.93196,0
          106.9595,16.93146,0
          106.95948,16.93128,0
          106.95946,16.93092,0
          106.95944,16.93074,0
          106.95944,16.93068,0
          106.95902,16.92568,0
          106.95901,16.92524,0
          106.95904,16.9248,0
          106.95912,16.9242,0
          106.95918,16.92394,0
          106.95935,16.9234,0
          106.95956,16.9229,0
          106.95967,16.92268,0
          106.96129,16.91981,0
          106.96271,16.91738,0
          106.96327,16.91623,0
          106.9635,16.9158,0
          106.96363,16.9156,0
          106.96363,16.91557,0
          106.96391,16.9151,0
          106.96456,16.91377,0
          106.96592,16.9113,0
          106.96595,16.91122,0
          106.96596,16.91121,0
          106.96672,16.90978,0
          106.96674,16.90973,0
          106.96707,16.90907,0
          106.96747,16.90843,0
          106.96782,16.90794,0
          106.96835,16.90741,0
          106.96867,16.90714,0
          106.96885,16.907,0
          106.96904,16.90687,0
          106.9694,16.90666,0
          106.96969,16.90651,0
          106.96995,16.90641,0
          106.97113,16.90588,0
          106.97234,16.90539,0
          106.97388,16.90472,0
          106.97389,16.90472,0
          106.98646,16.89936,0
          106.98737,16.89892,0
          106.98774,16.89871,0
          106.98817,16.8984,0
          106.98862,16.89804,0
          106.98892,16.89774,0
          106.98924,16.89737,0
          106.98972,16.89674,0
          106.98974,16.89672,0
          106.99134,16.89432,0
          106.99161,16.89389,0
          106.99183,16.8935,0
          106.99199,16.89316,0
          106.99225,16.89246,0
          106.99233,16.89215,0
          106.99239,16.89187,0
          106.99245,16.89136,0
          106.99249,16.89067,0
          106.99251,16.89054,0
          106.99251,16.89046,0
          106.99253,16.8902,0
          106.99253,16.89015,0
          106.99254,16.89009,0
          106.9926,16.88889,0
          106.99261,16.88839,0
          106.99269,16.88674,0
          106.99272,16.8865,0
          106.99285,16.88371,0
          106.99281,16.88141,0
          106.99282,16.88058,0
          106.99274,16.87898,0
          106.99268,16.87828,0
          106.99254,16.87721,0
          106.99253,16.87718,0
          106.99252,16.877,0
          106.99248,16.87662,0
          106.99247,16.8761,0
          106.99251,16.87536,0
          106.99253,16.87524,0
          106.99254,16.87521,0
          106.99256,16.87506,0
          106.99262,16.87474,0
          106.99279,16.87417,0
          106.99302,16.87357,0
          106.99397,16.87145,0
          106.99446,16.87053,0
          106.99498,16.86962,0
          106.99549,16.86877,0
          106.99598,16.86789,0
          106.99633,16.8672,0
          106.99667,16.86646,0
          106.9977,16.86387,0
          106.99776,16.86381,0
          106.99793,16.86353,0
          106.99796,16.86347,0
          106.99824,16.86308,0
          106.99859,16.86267,0
          106.99943,16.86175,0
          106.99946,16.86171,0
          106.99967,16.8615,0
          106.99971,16.86144,0
          107.00006,16.86104,0
          107.0002,16.8609,0
          107.0006,16.86044,0
          107.00074,16.86025,0
          107.00081,16.8601,0
          107.00086,16.85995,0
          107.00088,16.85983,0
          107.00089,16.85969,0
          107.00088,16.85955,0
          107.00087,16.85954,0
          107.00085,16.8594,0
          107.00082,16.85928,0
          107.00076,16.85916,0
          107.00069,16.85904,0
          106.99976,16.85785,0
          106.99947,16.85742,0
          106.99924,16.85701,0
          106.99917,16.85693,0
          106.99905,16.85673,0
          106.99893,16.85648,0
          106.99858,16.85595,0
          106.99826,16.8555,0
          106.99807,16.85521,0
          106.99796,16.85506,0
          106.99787,16.8549,0
          106.99785,16.85488,0
          106.99769,16.85459,0
          106.9975,16.85416,0
          106.99743,16.85391,0
          106.99737,16.85365,0
          106.99733,16.85338,0
          106.99732,16.8532,0
          106.99731,16.85315,0
          106.99731,16.85295,0
          106.99732,16.85284,0
          106.99732,16.85277,0
          106.99733,16.85266,0
          106.99735,16.85253,0
          106.99735,16.85249,0
          106.99738,16.85231,0
          106.99739,16.85228,0
          106.9974,16.85223,0
          106.99748,16.85196,0
          106.99748,16.85193,0
          106.99759,16.85162,0
          106.99759,16.85161,0
          106.99772,16.85125,0
          106.99785,16.85094,0
          106.99785,16.85093,0
          106.99813,16.85027,0
          106.99824,16.84997,0
          106.99826,16.84994,0
          106.99832,16.84977,0
          106.99839,16.8496,0
          106.9984,16.84959,0
          106.99846,16.84943,0
          106.99853,16.84927,0
          106.99858,16.84913,0
          106.9986,16.8491,0
          106.99866,16.84893,0
          106.99873,16.84876,0
          106.99879,16.84859,0
          106.99885,16.84845,0
          106.99895,16.84818,0
          106.99899,16.84809,0
          106.99908,16.84776,0
          106.99909,16.84774,0
          106.99918,16.84721,0
          106.9992,16.84703,0
          106.9992,16.84694,0
          106.99921,16.84685,0
          106.99921,16.84649,0
          106.9992,16.84635,0
          106.99919,16.84631,0
          106.99916,16.84599,0
          106.99898,16.84526,0
          106.99887,16.84496,0
          106.99792,16.84272,0
          106.9978,16.84241,0
          106.99771,16.84211,0
          106.99765,16.84185,0
          106.99762,16.84163,0
          106.99761,16.84141,0
          106.99763,16.8411,0
          106.99767,16.84087,0
          106.99775,16.84057,0
          106.99782,16.84041,0
          106.99784,16.84034,0
          106.99798,16.84008,0
          106.99808,16.83993,0
          106.9983,16.83964,0
          106.9983,16.83963,0
          106.99843,16.8395,0
          106.99851,16.83941,0
          106.99868,16.83924,0
          106.99871,16.83922,0
          106.99895,16.83898,0
          106.99923,16.83874,0
          106.99968,16.8383,0
          106.99982,16.83813,0
          106.99987,16.83808,0
          106.99997,16.83794,0
          106.99998,16.83793,0
          107.00008,16.83778,0
          107.00026,16.83748,0
          107.00037,16.83725,0
          107.00044,16.83707,0
          107.00051,16.83682,0
          107.00054,16.83664,0
          107.00056,16.83658,0
          107.00059,16.83634,0
          107.0006,16.8361,0
          107.00058,16.83576,0
          107.00055,16.83548,0
          107.0004,16.83443,0
          107.00039,16.83441,0
          107.00032,16.83373,0
          107.00033,16.83329,0
          107.00036,16.83301,0
          107.00049,16.83246,0
          107.00057,16.83222,0
          107.0007,16.83192,0
          107.00081,16.8317,0
          107.00102,16.83134,0
          107.00162,16.83045,0
          107.00179,16.83022,0
          107.00242,16.82928,0
          107.00295,16.82854,0
          107.00325,16.82808,0
          107.00377,16.82734,0
          107.00399,16.82705,0
          107.00418,16.82683,0
          107.00433,16.82668,0
          107.00446,16.82657,0
          107.00448,16.82656,0
          107.00464,16.82643,0
          107.00483,16.8263,0
          107.00519,16.82612,0
          107.00552,16.826,0
          107.00569,16.82596,0
          107.00591,16.82592,0
          107.00658,16.82587,0
          107.00775,16.82588,0
          107.00821,16.8259,0
          107.01057,16.82593,0
          107.01084,16.82592,0
          107.01133,16.82585,0
          107.0115,16.82581,0
          107.01197,16.82562,0
          107.01214,16.82552,0
          107.01229,16.82542,0
          107.01245,16.8253,0
          107.01274,16.825,0
          107.01286,16.82484,0
          107.01299,16.82462,0
          107.01308,16.82444,0
          107.01315,16.82426,0
          107.01319,16.82413,0
          107.01325,16.82388,0
          107.01326,16.82375,0
          107.01328,16.82364,0
          107.01329,16.82341,0
          107.01328,16.82317,0
          107.01325,16.82288,0
          107.01313,16.82227,0
          107.01294,16.82152,0
          107.01293,16.82142,0
          107.01278,16.82082,0
          107.01226,16.8185,0
          107.01204,16.81804,0
          107.01204,16.81803,0
          107.01188,16.81779,0
          107.0103,16.81572,0
          107.01023,16.81564,0
          107.00963,16.81482,0
          107.00917,16.81404,0
          107.00865,16.81288,0
          107.00803,16.81136,0
          107.00793,16.81114,0
          107.00741,16.80988,0
          107.0074,16.80984,0
          107.00692,16.80868,0
          107.00685,16.80844,0
          107.00683,16.8084,0
          107.00678,16.80833,0
          107.00677,16.80832,0
          107.00667,16.80813,0
          107.0066,16.80804,0
          107.00668,16.80798,0
          107.00699,16.80778,0
          107.00762,16.80734,0
          107.00776,16.8073,0
          107.00875,16.80663,0
          107.00927,16.8063,0
          107.01016,16.8057,0
          107.01018,16.80568,0
          107.01156,16.80476,0
          107.01184,16.80461,0
          107.01206,16.80451,0
          107.01221,16.80446,0
          107.01237,16.80442,0
          107.02004,16.80365,0
          107.02021,16.80347,0
          107.02019,16.80331,0
          107.02017,16.80259,0
          107.02018,16.80221,0
          107.02017,16.79776,0
          107.02016,16.79748,0
          107.02017,16.79732,0
          107.02014,16.79328,0
          107.02013,16.7932,0
          107.02013,16.79276,0
          107.02011,16.7923,0
          107.02009,16.79046,0
          107.0201,16.79032,0
          107.02011,16.78984,0
          107.02009,16.78925,0
          107.02009,16.78834,0
          107.02014,16.78741,0
          107.02011,16.78105,0
          107.02014,16.78038,0
          107.02015,16.78033,0
          107.02015,16.78024,0
          107.02016,16.7802,0
          107.02016,16.78002,0
          107.0202,16.77949,0
          107.02028,16.77896,0
          107.02029,16.77894,0
          107.02046,16.77806,0
          107.02064,16.77738,0
          107.0209,16.77664,0
          107.02136,16.77551,0
          107.02179,16.77467,0
          107.02179,16.77466,0
          107.02191,16.77445,0
          107.02222,16.77397,0
          107.02222,16.77396,0
          107.02261,16.77339,0
          107.02263,16.77337,0
          107.02336,16.7723,0
          107.02337,16.77228,0
          107.02355,16.77203,0
          107.02356,16.77202,0
          107.02358,16.77198,0
          107.02398,16.77142,0
          107.02401,16.77139,0
          107.02408,16.77127,0
          107.02411,16.77124,0
          107.02419,16.77112,0
          107.0242,16.77111,0
          107.02421,16.77109,0
          107.02472,16.77034,0
          107.02472,16.77033,0
          107.02491,16.77007,0
          107.02493,16.77003,0
          107.02597,16.76857,0
          107.02602,16.76848,0
          107.02607,16.76842,0
          107.02627,16.76813,0
          107.02629,16.76809,0
          107.0263,16.76809,0
          107.02637,16.76798,0
          107.02669,16.76753,0
          107.02671,16.76749,0
          107.02672,16.76749,0
          107.02688,16.76722,0
          107.0273,16.76662,0
          107.0273,16.76661,0
          107.02751,16.76633,0
          107.02752,16.76632,0
          107.02795,16.76574,0
          107.02805,16.76559,0
          107.02808,16.76556,0
          107.02818,16.76541,0
          107.02823,16.76535,0
          107.02836,16.76514,0
          107.02839,16.76511,0
          107.02857,16.76484,0
          107.02866,16.76469,0
          107.02867,16.76469,0
          107.02869,16.76465,0
          107.02923,16.76385,0
          107.02971,16.76319,0
          107.02973,16.76315,0
          107.03013,16.76259,0
          107.03013,16.76258,0
          107.03015,16.76256,0
          107.03034,16.7623,0
          107.03034,16.76229,0
          107.03035,16.76228,0
          107.03107,16.76125,0
          107.03107,16.76124,0
          107.03169,16.76035,0
          107.03172,16.76032,0
          107.03234,16.75942,0
          107.03236,16.7594,0
          107.03242,16.7593,0
          107.03243,16.7593,0
          107.03274,16.75886,0
          107.03276,16.75882,0
          107.03295,16.75856,0
          107.03297,16.75852,0
          107.03303,16.75843,0
          107.03305,16.75841,0
          107.03316,16.75826,0
          107.03316,16.75825,0
          107.03338,16.75795,0
          107.03339,16.75793,0
          107.03347,16.75781,0
          107.03351,16.75777,0
          107.03368,16.75751,0
          107.03369,16.7575,0
          107.0337,16.75748,0
          107.0345,16.75631,0
          107.03451,16.7563,0
          107.03506,16.75553,0
          107.03514,16.7554,0
          107.03535,16.75512,0
          107.03535,16.75511,0
          107.03582,16.75444,0
          107.03609,16.75408,0
          107.03611,16.75404,0
          107.03619,16.75393,0
          107.0362,16.75392,0
          107.03629,16.7538,0
          107.0364,16.75363,0
          107.03642,16.75359,0
          107.03663,16.75329,0
          107.0367,16.75317,0
          107.03712,16.75258,0
          107.03712,16.75257,0
          107.03715,16.75254,0
          107.03761,16.75186,0
          107.03763,16.75182,0
          107.0381,16.75115,0
          107.03815,16.75107,0
          107.03817,16.75103,0
          107.03875,16.75016,0
          107.03877,16.75012,0
          107.03967,16.7488,0
          107.03969,16.74876,0
          107.03977,16.74865,0
          107.03978,16.74864,0
          107.04038,16.74774,0
          107.0404,16.7477,0
          107.04048,16.74759,0
          107.04048,16.74758,0
          107.04138,16.74622,0
          107.04139,16.74621,0
          107.04163,16.74585,0
          107.04187,16.74545,0
          107.0419,16.74542,0
          107.04197,16.7453,0
          107.04197,16.74529,0
          107.04209,16.74511,0
          107.04217,16.74497,0
          107.04259,16.74439,0
          107.04291,16.7439,0
          107.04298,16.74378,0
          107.04339,16.74318,0
          107.04341,16.74314,0
          107.04344,16.74311,0
          107.04392,16.74244,0
          107.04393,16.74243,0
          107.04403,16.74229,0
          107.04405,16.74225,0
          107.04443,16.74169,0
          107.04486,16.74109,0
          107.04488,16.74105,0
          107.04494,16.74098,0
          107.04539,16.74029,0
          107.0454,16.74027,0
          107.04586,16.73957,0
          107.04589,16.73954,0
          107.04596,16.73942,0
          107.04638,16.73882,0
          107.04641,16.73879,0
          107.04642,16.73877,0
          107.0469,16.73803,0
          107.04691,16.73802,0
          107.04763,16.73697,0
          107.04763,16.73696,0
          107.04851,16.73564,0
          107.04854,16.73561,0
          107.0493,16.73445,0
          107.04983,16.73368,0
          107.04984,16.73367,0
          107.04994,16.73353,0
          107.04996,16.73349,0
          107.05034,16.73292,0
          107.05037,16.73289,0
          107.05065,16.73247,0
          107.05065,16.73246,0
          107.05075,16.73232,0
          107.05077,16.73228,0
          107.05095,16.73201,0
          107.05098,16.73198,0
          107.05136,16.73141,0
          107.05138,16.73137,0
          107.05146,16.73126,0
          107.05146,16.73125,0
          107.05247,16.72974,0
          107.0525,16.72971,0
          107.05257,16.72959,0
          107.05258,16.72958,0
          107.05398,16.72751,0
          107.05401,16.72748,0
          107.05403,16.72744,0
          107.05454,16.72669,0
          107.05461,16.72657,0
          107.05466,16.72651,0
          107.05564,16.72504,0
          107.05671,16.72359,0
          107.05672,16.72357,0
          107.0583,16.72158,0
          107.05844,16.72142,0
          107.0598,16.71974,0
          107.0598,16.7197,0
          107.05981,16.71966,0
          107.06001,16.71938,0
          107.06032,16.719,0
          107.06034,16.71897,0
          107.06257,16.71621,0
          107.06291,16.71576,0
          107.06295,16.71572,0
          107.06331,16.71527,0
          107.06497,16.71337,0
          107.06515,16.71319,0
          107.06534,16.71298,0
          107.06616,16.7122,0
          107.06694,16.71142,0
          107.06735,16.71106,0
          107.06735,16.71105,0
          107.06791,16.71057,0
          107.06852,16.71001,0
          107.06861,16.70995,0
          107.06863,16.70994,0
          107.06864,16.70993,0
          107.06868,16.70993,0
          107.06974,16.70897,0
          107.07003,16.70874,0
          107.07039,16.7084,0
          107.07044,16.70837,0
          107.07071,16.70812,0
          107.07095,16.70792,0
          107.07191,16.70706,0
          107.07196,16.70703,0
          107.07274,16.70633,0
          107.07279,16.7063,0
          107.07538,16.70403,0
          107.07542,16.70399,0
          107.076,16.70349,0
          107.07607,16.70342,0
          107.07708,16.70253,0
          107.07717,16.70244,0
          107.07768,16.70201,0
          107.07773,16.70196,0
          107.0801,16.69994,0
          107.08114,16.69914,0
          107.08133,16.69898,0
          107.08438,16.69668,0
          107.08443,16.69665,0
          107.08496,16.69623,0
          107.08501,16.6962,0
          107.08606,16.69541,0
          107.08615,16.69535,0
          107.08732,16.69445,0
          107.08746,16.69433,0
          107.08759,16.69424,0
          107.08761,16.69422,0
          107.0882,16.69377,0
          107.08821,16.69377,0
          107.08983,16.69251,0
          107.09,16.69239,0
          107.09318,16.68997,0
          107.09323,16.68992,0
          107.09531,16.68835,0
          107.09532,16.68835,0
          107.10016,16.68464,0
          107.10076,16.68421,0
          107.10078,16.6842,0
          107.10164,16.68354,0
          107.1017,16.6835,0
          107.1022,16.6831,0
          107.10222,16.68308,0
          107.10249,16.68287,0
          107.10251,16.68286,0
          107.10252,16.68286,0
          107.10401,16.68174,0
          107.10431,16.68148,0
          107.10543,16.68072,0
          107.10589,16.68043,0
          107.10775,16.6794,0
          107.10776,16.67939,0
          107.10955,16.67841,0
          107.10972,16.67833,0
          107.11067,16.67779,0
          107.11152,16.67736,0
          107.11153,16.67735,0
          107.11278,16.67681,0
          107.11307,16.67671,0
          107.1145,16.67628,0
          107.11468,16.67624,0
          107.11653,16.6757,0
          107.11809,16.6753,0
          107.11809,16.67529,0
          107.11872,16.67513,0
          107.11881,16.6751,0
          107.11935,16.67496,0
          107.11936,16.67496,0
          107.12007,16.67477,0
          107.12008,16.67477,0
          107.12292,16.67408,0
          107.12294,16.67406,0
          107.12299,16.67403,0
          107.12304,16.67401,0
          107.1232,16.67398,0
          107.12453,16.6736,0
          107.12455,16.6736,0
          107.12525,16.67343,0
          107.12531,16.67341,0
          107.12579,16.6733,0
          107.12743,16.67287,0
          107.12753,16.67285,0
          107.12842,16.67261,0
          107.12852,16.67259,0
          107.12924,16.67239,0
          107.12934,16.67237,0
          107.12998,16.67218,0
          107.13049,16.67201,0
          107.13053,16.67199,0
          107.13115,16.67177,0
          107.13288,16.67092,0
          107.13335,16.67066,0
          107.13352,16.67058,0
          107.13385,16.6704,0
          107.13432,16.67018,0
          107.13435,16.67016,0
          107.13485,16.66991,0
          107.13552,16.6696,0
          107.13786,16.6684,0
          107.1382,16.6682,0
          107.13824,16.6682,0
          107.13826,16.66819,0
          107.13832,16.6682,0
          107.1403,16.66717,0
          107.14097,16.66685,0
          107.14345,16.66556,0
          107.14352,16.66553,0
          107.14449,16.66502,0
          107.1445,16.66501,0
          107.14459,16.66498,0
          107.14531,16.66458,0
          107.1454,16.66454,0
          107.14579,16.66433,0
          107.14582,16.66432,0
          107.14589,16.66427,0
          107.14592,16.66426,0
          107.14597,16.66423,0
          107.14598,16.66422,0
          107.14613,16.66414,0
          107.14614,16.66413,0
          107.14725,16.66349,0
          107.14728,16.66348,0
          107.14734,16.66344,0
          107.14737,16.66343,0
          107.14767,16.66326,0
          107.14769,16.66324,0
          107.14774,16.66322,0
          107.1488,16.66262,0
          107.14882,16.6626,0
          107.14993,16.66198,0
          107.15009,16.66188,0
          107.15041,16.6617,0
          107.15044,16.66169,0
          107.15049,16.66166,0
          107.1505,16.66165,0
          107.15194,16.66083,0
          107.15195,16.66082,0
          107.15205,16.66077,0
          107.15291,16.66028,0
          107.15292,16.66027,0
          107.15318,16.66012,0
          107.15323,16.6601,0
          107.15324,16.66009,0
          107.15332,16.66005,0
          107.15348,16.65995,0
          107.15415,16.65958,0
          107.15421,16.65954,0
          107.15429,16.6595,0
          107.15431,16.65948,0
          107.15436,16.65946,0
          107.15445,16.65941,0
          107.15447,16.65939,0
          107.15454,16.65936,0
          107.15461,16.65931,0
          107.15501,16.65909,0
          107.15502,16.65908,0
          107.15582,16.65864,0
          107.15583,16.65863,0
          107.15591,16.65859,0
          107.15609,16.65848,0
          107.15616,16.65845,0
          107.15623,16.65841,0
          107.15625,16.65839,0
          107.15768,16.65758,0
          107.15771,16.65757,0
          107.1593,16.65666,0
          107.15932,16.65664,0
          107.15937,16.65662,0
          107.15938,16.65661,0
          107.16026,16.6561,0
          107.16045,16.656,0
          107.16051,16.65596,0
          107.16075,16.65583,0
          107.16093,16.65572,0
          107.16098,16.6557,0
          107.16236,16.65491,0
          107.16239,16.6549,0
          107.1633,16.65438,0
          107.16333,16.65437,0
          107.16465,16.65361,0
          107.1647,16.65359,0
          107.16656,16.65253,0
          107.16658,16.65251,0
          107.16689,16.65235,0
          107.16691,16.65233,0
          107.16841,16.65148,0
          107.16918,16.65108,0
          107.16968,16.65084,0
          107.17037,16.65055,0
          107.17125,16.65023,0
          107.17196,16.65,0
          107.17214,16.64995,0
          107.17231,16.64989,0
          107.17232,16.64989,0
          107.17551,16.64884,0
          107.17569,16.64879,0
          107.18137,16.64693,0
          107.18138,16.64693,0
          107.18245,16.64662,0
          107.18246,16.64662,0
          107.18354,16.64633,0
          107.18354,16.64632,0
          107.18877,16.64486,0
          107.18878,16.64486,0
          107.18985,16.64456,0
          107.1899,16.64454,0
          107.1911,16.6442,0
          107.19128,16.64414,0
          107.19226,16.64387,0
          107.19231,16.64386,0
          107.1928,16.64372,0
          107.19303,16.64367,0
          107.19305,16.64366,0
          107.19316,16.64363,0
          107.19317,16.64363,0
          107.19328,16.6436,0
          107.19334,16.64359,0
          107.19339,16.64357,0
          107.19342,16.64357,0
          107.19353,16.64353,0
          107.19369,16.64349,0
          107.1937,16.64349,0
          107.19441,16.64324,0
          107.19443,16.64323,0
          107.19446,16.64322,0
          107.19448,16.64322,0
          107.19476,16.6431,0
          107.19477,16.6431,0
          107.1948,16.64308,0
          107.19539,16.64284,0
          107.19565,16.64271,0
          107.19568,16.6427,0
          107.19578,16.64265,0
          107.19579,16.64264,0
          107.19611,16.64248,0
          107.19612,16.64248,0
          107.19613,16.64247,0
          107.19627,16.64239,0
          107.19628,16.64239,0
          107.19647,16.64227,0
          107.1965,16.64226,0
          107.19659,16.6422,0
          107.19661,16.6422,0
          107.19708,16.64193,0
          107.19708,16.64192,0
          107.19725,16.64183,0
          107.19772,16.64155,0
          107.19773,16.64155,0
          107.19792,16.64144,0
          107.19794,16.64142,0
          107.19804,16.64137,0
          107.19805,16.64136,0
          107.19822,16.64127,0
          107.19824,16.64125,0
          107.19836,16.64118,0
          107.19837,16.64118,0
          107.19838,16.64117,0
          107.1984,16.64116,0
          107.19843,16.64115,0
          107.19917,16.64072,0
          107.19919,16.6407,0
          107.19965,16.64043,0
          107.19971,16.6404,0
          107.19981,16.64034,0
          107.19982,16.64033,0
          107.20013,16.64015,0
          107.20014,16.64014,0
          107.20017,16.64013,0
          107.20019,16.64011,0
          107.2006,16.63987,0
          107.20061,16.63986,0
          107.20076,16.63977,0
          107.20083,16.63974,0
          107.20093,16.63968,0
          107.20094,16.63967,0
          107.20108,16.63959,0
          107.20109,16.63958,0
          107.2011,16.63958,0
          107.20156,16.6393,0
          107.2016,16.63928,0
          107.20163,16.63927,0
          107.20172,16.63921,0
          107.20211,16.63899,0
          107.2022,16.63893,0
          107.20221,16.63892,0
          107.20224,16.63891,0
          107.20225,16.6389,0
          107.20236,16.63883,0
          107.2024,16.63881,0
          107.20243,16.6388,0
          107.20306,16.63841,0
          107.20309,16.6384,0
          107.2032,16.63831,0
          107.20323,16.63828,0
          107.20383,16.63789,0
          107.20419,16.63769,0
          107.20425,16.63765,0
          107.20567,16.63685,0
          107.20607,16.63661,0
          107.20653,16.63636,0
          107.20655,16.63634,0
          107.20792,16.63551,0
          107.20798,16.63548,0
          107.20808,16.63542,0
          107.20847,16.63522,0
          107.20856,16.63518,0
          107.20905,16.63489,0
          107.20908,16.63488,0
          107.20929,16.63475,0
          107.20933,16.63473,0
          107.20944,16.63466,0
          107.20948,16.63464,0
          107.20952,16.63461,0
          107.20991,16.63436,0
          107.20992,16.63436,0
          107.21068,16.63384,0
          107.21105,16.63355,0
          107.21151,16.63311,0
          107.21183,16.63278,0
          107.21187,16.63273,0
          107.21189,16.63271,0
          107.21191,16.63268,0
          107.21213,16.63245,0
          107.21236,16.63216,0
          107.21236,16.63215,0
          107.21239,16.63213,0
          107.2124,16.6321,0
          107.21242,16.63208,0
          107.21271,16.63169,0
          107.21271,16.63168,0
          107.21274,16.63164,0
          107.21278,16.63157,0
          107.21279,16.63156,0
          107.21285,16.63146,0
          107.21326,16.63069,0
          107.21331,16.63061,0
          107.21331,16.6306,0
          107.21333,16.63057,0
          107.21357,16.63009,0
          107.21364,16.62997,0
          107.21364,16.62996,0
          107.21389,16.62949,0
          107.21389,16.62948,0
          107.2139,16.62948,0
          107.21393,16.6294,0
          107.21405,16.62916,0
          107.21405,16.62915,0
          107.21429,16.62867,0
          107.21429,16.62866,0
          107.2143,16.62863,0
          107.21433,16.62858,0
          107.21441,16.62842,0
          107.21444,16.62834,0
          107.21445,16.62833,0
          107.21446,16.6283,0
          107.21469,16.62786,0
          107.2147,16.62785,0
          107.21471,16.62782,0
          107.21486,16.62753,0
          107.21488,16.6275,0
          107.21526,16.62671,0
          107.21528,16.62668,0
          107.21542,16.62639,0
          107.21544,16.62636,0
          107.21574,16.62575,0
          107.21574,16.62574,0
          107.21576,16.62571,0
          107.21578,16.62566,0
          107.21625,16.62471,0
          107.21625,16.62464,0
          107.21627,16.62455,0
          107.21635,16.6244,0
          107.21646,16.62416,0
          107.21717,16.62281,0
          107.21779,16.62145,0
          107.21824,16.62057,0
          107.21872,16.61953,0
          107.21876,16.61947,0
          107.21894,16.61915,0
          107.21895,16.61914,0
          107.21934,16.61841,0
          107.21965,16.61788,0
          107.2197,16.61778,0
          107.21983,16.61757,0
          107.22034,16.6166,0
          107.22036,16.61655,0
          107.22055,16.61622,0
          107.22085,16.61582,0
          107.22106,16.61556,0
          107.22144,16.61494,0
          107.22145,16.61494,0
          107.22176,16.61447,0
          107.22227,16.61392,0
          107.22238,16.61385,0
          107.2224,16.61381,0
          107.22246,16.61373,0
          107.22265,16.61344,0
          107.22305,16.61287,0
          107.22309,16.6128,0
          107.2231,16.61279,0
          107.22322,16.61261,0
          107.22325,16.61258,0
          107.22343,16.61231,0
          107.22355,16.61215,0
          107.22362,16.61204,0
          107.22373,16.6119,0
          107.22375,16.61186,0
          107.22393,16.61162,0
          107.22394,16.6116,0
          107.22396,16.61158,0
          107.22419,16.61125,0
          107.22443,16.61087,0
          107.22446,16.61084,0
          107.22453,16.61072,0
          107.22464,16.61057,0
          107.22466,16.61053,0
          107.22511,16.60995,0
          107.22518,16.60984,0
          107.22529,16.60969,0
          107.22531,16.60965,0
          107.22612,16.6085,0
          107.22613,16.6085,0
          107.22615,16.60846,0
          107.22655,16.6079,0
          107.22658,16.60787,0
          107.22706,16.60718,0
          107.22708,16.60716,0
          107.22728,16.60686,0
          107.22773,16.60623,0
          107.22782,16.60612,0
          107.22855,16.60507,0
          107.22856,16.60506,0
          107.22857,16.60504,0
          107.22865,16.60492,0
          107.22879,16.60474,0
          107.22908,16.60433,0
          107.22911,16.6043,0
          107.22961,16.60359,0
          107.22964,16.60356,0
          107.22964,16.60355,0
          107.2302,16.60267,0
          107.23029,16.60251,0
          107.23068,16.6019,0
          107.23103,16.60121,0
          107.2311,16.60109,0
          107.23136,16.60058,0
          107.23137,16.60057,0
          107.23152,16.60029,0
          107.23168,16.59996,0
          107.23169,16.59995,0
          107.23354,16.59623,0
          107.23361,16.59611,0
          107.23402,16.59525,0
          107.23441,16.59451,0
          107.23459,16.59412,0
          107.2351,16.59309,0
          107.23521,16.59284,0
          107.2353,16.59267,0
          107.23536,16.59253,0
          107.23602,16.59122,0
          107.2362,16.5909,0
          107.23646,16.5904,0
          107.23652,16.5903,0
          107.23655,16.59024,0
          107.23662,16.59014,0
          107.23682,16.58982,0
          107.23683,16.58979,0
          107.23692,16.58966,0
          107.23704,16.58946,0
          107.23716,16.58929,0
          107.23717,16.58927,0
          107.23746,16.58886,0
          107.23783,16.58839,0
          107.23802,16.58818,0
          107.23826,16.58789,0
          107.23866,16.58745,0
          107.23868,16.58744,0
          107.23893,16.58718,0
          107.23897,16.58713,0
          107.23906,16.58705,0
          107.23907,16.58705,0
          107.2392,16.58692,0
          107.24046,16.58578,0
          107.24046,16.58577,0
          107.2406,16.58565,0
          107.24071,16.58557,0
          107.24075,16.58553,0
          107.24113,16.58521,0
          107.24163,16.58483,0
          107.2421,16.58443,0
          107.24228,16.58424,0
          107.24242,16.58404,0
          107.24251,16.58396,0
          107.2426,16.58389,0
          107.24357,16.58304,0
          107.24377,16.58285,0
          107.24445,16.58225,0
          107.24449,16.58222,0
          107.24549,16.58133,0
          107.24555,16.58127,0
          107.24582,16.58104,0
          107.24631,16.58059,0
          107.24638,16.58054,0
          107.24735,16.57969,0
          107.24742,16.57962,0
          107.24818,16.57896,0
          107.24852,16.57871,0
          107.24946,16.5778,0
          107.24955,16.57773,0
          107.25018,16.57715,0
          107.25023,16.57713,0
          107.25074,16.5767,0
          107.25078,16.57666,0
          107.25149,16.57605,0
          107.25157,16.57597,0
          107.25176,16.5758,0
          107.25185,16.57573,0
          107.25189,16.57569,0
          107.25245,16.5752,0
          107.25246,16.5752,0
          107.25254,16.57512,0
          107.25273,16.57496,0
          107.25273,16.57495,0
          107.2531,16.57464,0
          107.25323,16.57451,0
          107.2537,16.57411,0
          107.2537,16.5741,0
          107.25384,16.57399,0
          107.25384,16.57398,0
          107.25398,16.57387,0
          107.25398,16.57386,0
          107.25421,16.57366,0
          107.25425,16.57362,0
          107.25426,16.57362,0
          107.25481,16.57314,0
          107.25481,16.57313,0
          107.25518,16.57281,0
          107.25524,16.57277,0
          107.25546,16.57258,0
          107.25596,16.57209,0
          107.25623,16.57185,0
          107.2564,16.57168,0
          107.25647,16.57162,0
          107.2566,16.57149,0
          107.25668,16.57144,0
          107.25683,16.57132,0
          107.25728,16.571,0
          107.25737,16.57091,0
          107.25741,16.57088,0
          107.25764,16.57066,0
          107.25806,16.5703,0
          107.25813,16.57023,0
          107.25834,16.57005,0
          107.2584,16.56999,0
          107.25901,16.56945,0
          107.25926,16.56919,0
          107.25928,16.56916,0
          107.25946,16.56897,0
          107.25978,16.56859,0
          107.25982,16.56855,0
          107.26039,16.56784,0
          107.26051,16.56771,0
          107.26051,16.5677,0
          107.26119,16.56682,0
          107.26151,16.56643,0
          107.26155,16.56637,0
          107.26219,16.56557,0
          107.26219,16.56549,0
          107.26221,16.56546,0
          107.2623,16.56536,0
          107.26237,16.56526,0
          107.26238,16.56525,0
          107.26303,16.5644,0
          107.26338,16.56397,0
          107.26341,16.56394,0
          107.26385,16.5634,0
          107.26392,16.56333,0
          107.26452,16.56255,0
          107.26453,16.56254,0
          107.26475,16.56225,0
          107.26478,16.5622,0
          107.2651,16.56179,0
          107.26568,16.56112,0
          107.26572,16.56106,0
          107.26613,16.56057,0
          107.26751,16.55904,0
          107.26802,16.55854,0
          107.26849,16.55805,0
          107.26853,16.55802,0
          107.27016,16.55642,0
          107.27019,16.5564,0
          107.2702,16.5564,0
          107.27024,16.55638,0
          107.27026,16.55638,0
          107.27066,16.55596,0
          107.27067,16.55594,0
          107.27524,16.55136,0
          107.27539,16.55122,0
          107.27569,16.55089,0
          107.27644,16.55017,0
          107.27699,16.54959,0
          107.27705,16.54954,0
          107.27758,16.54904,0
          107.27838,16.54834,0
          107.27916,16.54776,0
          107.2797,16.54739,0
          107.27971,16.54739,0
          107.27986,16.5473,0
          107.27987,16.54729,0
          107.28035,16.547,0
          107.28083,16.54675,0
          107.28095,16.54668,0
          107.28116,16.54658,0
          107.28127,16.54652,0
          107.282,16.54619,0
          107.28201,16.54619,0
          107.28202,16.54618,0
          107.28234,16.54604,0
          107.28235,16.54603,0
          107.28302,16.54573,0
          107.28304,16.54573,0
          107.28336,16.54558,0
          107.28338,16.54558,0
          107.28406,16.54528,0
          107.28422,16.5452,0
          107.28484,16.54493,0
          107.28609,16.54434,0
          107.28812,16.54344,0
          107.28862,16.5432,0
          107.2889,16.54308,0
          107.28895,16.54305,0
          107.29333,16.5411,0
          107.29434,16.54063,0
          107.29682,16.53953,0
          107.2969,16.5395,0
          107.29703,16.53943,0
          107.30088,16.53767,0
          107.30091,16.53766,0
          107.30411,16.53622,0
          107.30627,16.5352,0
          107.3063,16.53519,0
          107.30748,16.53464,0
          107.308,16.53443,0
          107.30817,16.53435,0
          107.30944,16.53383,0
          107.31039,16.53338,0
          107.31072,16.53324,0
          107.31118,16.53301,0
          107.31149,16.53288,0
          107.31243,16.53241,0
          107.3126,16.53231,0
          107.3139,16.53162,0
          107.32206,16.52686,0
          107.32281,16.52646,0
          107.32284,16.52642,0
          107.32285,16.5264,0
          107.32306,16.52628,0
          107.32318,16.52619,0
          107.32414,16.52561,0
          107.32436,16.5255,0
          107.32522,16.52498,0
          107.32695,16.524,0
          107.32703,16.52387,0
          107.32716,16.52377,0
          107.32722,16.5237,0
          107.32727,16.52362,0
          107.3273,16.52358,0
          107.32737,16.52345,0
          107.3274,16.52335,0
          107.32742,16.52325,0
          107.32743,16.52312,0
          107.32743,16.52306,0
          107.32742,16.523,0
          107.32741,16.52287,0
          107.32738,16.52276,0
          107.32723,16.52248,0
          107.32721,16.52245,0
          107.32721,16.52243,0
          107.3272,16.5224,0
          107.3272,16.52237,0
          107.32709,16.52219,0
          107.32704,16.52208,0
          107.32675,16.52159,0
          107.32671,16.52154,0
          107.32666,16.52145,0
          107.32646,16.52114,0
          107.32641,16.52103,0
          107.32635,16.52086,0
          107.32632,16.52073,0
          107.32632,16.52056,0
          107.32633,16.52045,0
          107.32635,16.52034,0
          107.32652,16.51984,0
          107.32658,16.51963,0
          107.32674,16.51918,0
          107.32689,16.51882,0
          107.32696,16.51868,0
          107.32716,16.51834,0
          107.32724,16.51825,0
          107.32725,16.51825,0
          107.32734,16.51816,0
          107.32779,16.51796,0
          107.32799,16.5179,0
          107.32907,16.51768,0
          107.32996,16.5173,0
          107.33035,16.51716,0
          107.33049,16.51713,0
          107.33067,16.51708,0
          107.33074,16.51707,0
          107.33102,16.51699,0
          107.33122,16.51697,0
          107.33132,16.51698,0
          107.33145,16.51698,0
          107.33172,16.51703,0
          107.33184,16.51704,0
          107.3331,16.51706,0
          107.33344,16.51698,0
          107.33515,16.51647,0
          107.33598,16.51616,0
          107.33616,16.51611,0
          107.33633,16.51608,0
          107.33654,16.51606,0
          107.33711,16.51605,0
          107.33754,16.51607,0
          107.33799,16.51611,0
          107.33826,16.51611,0
          107.33842,16.51609,0
          107.33857,16.51605,0
          107.33872,16.516,0
          107.33905,16.51584,0
          107.33932,16.51573,0
          107.33947,16.5157,0
          107.33969,16.51572,0
          107.33994,16.51577,0
          107.34055,16.51594,0
          107.34107,16.51621,0
          107.34145,16.51639,0
          107.34156,16.51643,0
          107.34173,16.51647,0
          107.34198,16.51651,0
          107.34247,16.51647,0
          107.34283,16.51639,0
          107.34467,16.51564,0
          107.34484,16.51556,0
          107.34488,16.51555,0
          107.34512,16.51541,0
          107.34528,16.51535,0
          107.34575,16.51511,0
          107.34595,16.51503,0
          107.34612,16.51498,0
          107.34639,16.51492,0
          107.34769,16.51479,0
          107.34781,16.51477,0
          107.34828,16.51466,0
          107.34915,16.51424,0
          107.35011,16.51374,0
          107.35025,16.51368,0
          107.35077,16.5135,0
          107.35088,16.51345,0
          107.35094,16.51343,0
          107.35095,16.51343,0
          107.35139,16.51327,0
          107.35161,16.51317,0
          107.35173,16.51309,0
          107.35179,16.51306,0
          107.352,16.51288,0
          107.35203,16.51286,0
          107.35222,16.51264,0
          107.35253,16.51231,0
          107.35302,16.51174,0
          107.35324,16.5115,0
          107.35339,16.51138,0
          107.35352,16.51129,0
          107.35383,16.51116,0
          107.35399,16.51108,0
          107.35409,16.51101,0
          107.35417,16.51091,0
          107.35422,16.51082,0
          107.35424,16.51032,0
          107.35424,16.51007,0
          107.35426,16.50979,0
          107.35429,16.50964,0
          107.35444,16.50922,0
          107.35474,16.50853,0
          107.35484,16.50838,0
          107.35489,16.50832,0
          107.35494,16.50827,0
          107.35503,16.50821,0
          107.35526,16.50809,0
          107.3559,16.50781,0
          107.35627,16.50763,0
          107.35634,16.50761,0
          107.35641,16.5076,0
          107.3565,16.5076,0
          107.35656,16.50761,0
          107.35667,16.50765,0
        </coordinates>
      </LineString>
    </Placemark>
    <Placemark>
      <name>17.204540 106.716030</name>
      <styleUrl>#icon-1899-DB4436-nodesc</styleUrl>
      <Point>
        <coordinates>
          106.7160393,17.2045202,0
        </coordinates>
      </Point>
    </Placemark>
    <Placemark>
      <name>16.507230 107.356200</name>
      <styleUrl>#icon-1899-DB4436-nodesc</styleUrl>
      <Point>
        <coordinates>
          107.356672,16.5076513,0
        </coordinates>
      </Point>
    </Placemark>
  </Document>
</kml>
